{"type":"FeatureCollection","features":[{"type":"Feature","geometry":{"type":"Polygon","coordinates":[[[85.3657629,28.2547015],[85.3657673,28.2544128],[85.3654412,28.2544089],[85.3654456,28.2541201],[85.3660978,28.2541279],[85.366089,28.2547054],[85.3657629,28.2547015]]]},"properties":{"class":"direct_measurement_support"}},{"type":"Feature","geometry":{"type":"Polygon","coordinates":[[[85.3664195,28.2544206],[85.3664239,28.2541318],[85.36675,28.2541357],[85.3667456,28.2544245],[85.3664195,28.2544206]]]},"properties":{"class":"direct_measurement_support"}},{"type":"Feature","geometry":{"type":"Polygon","coordinates":[[[85.3687066,28.2541591],[85.368711,28.2538703],[85.3690371,28.2538742],[85.3690327,28.254163],[85.3687066,28.2541591]]]},"properties":{"class":"direct_measurement_support"}},{"type":"Feature","geometry":{"type":"Polygon","coordinates":[[[85.3661022,28.2538392],[85.3661066,28.2535504],[85.3664327,28.2535543],[85.3664283,28.2538431],[85.3661022,28.2538392]]]},"properties":{"class":"direct_measurement_support"}},{"type":"Feature","geometry":{"type":"Polygon","coordinates":[[[85.3595848,28.2534723],[85.3595892,28.2531836],[85.3599153,28.2531875],[85.3599109,28.2534762],[85.3595848,28.2534723]]]},"properties":{"class":"direct_measurement_support"}},{"type":"Feature","geometry":{"type":"Polygon","coordinates":[[[85.3670673,28.2547171],[85.3670761,28.2541396],[85.36675,28.2541357],[85.3667544,28.253847],[85.3670805,28.2538509],[85.3670849,28.2535621],[85.3667588,28.2535582],[85.3667632,28.2532695],[85.3670893,28.2532734],[85.3670937,28.2529846],[85.3667676,28.2529807],[85.366772,28.252692],[85.3674242,28.2526998],[85.3674154,28.2532773],[85.3677415,28.2532812],[85.3677371,28.2535699],[85.367411,28.253566],[85.3674022,28.2541435],[85.3680544,28.2541513],[85.36805,28.25444],[85.3677239,28.2544362],[85.3677195,28.2547249],[85.3670673,28.2547171]]]},"properties":{"class":"direct_measurement_support"}},{"type":"Feature","geometry":{"type":"Polygon","coordinates":[[[85.3677459,28.2529924],[85.3677503,28.2527037],[85.3674242,28.2526998],[85.3674286,28.252411],[85.3677547,28.2524149],[85.3677591,28.2521262],[85.3680852,28.2521301],[85.368072,28.2529963],[85.3677459,28.2529924]]]},"properties":{"class":"direct_measurement_support"}},{"type":"Feature","geometry":{"type":"Polygon","coordinates":[[[85.3696892,28.253882],[85.3696936,28.2535933],[85.3693675,28.2535894],[85.3693719,28.2533006],[85.369698,28.2533045],[85.3697024,28.2530158],[85.3700285,28.2530197],[85.3700461,28.2518647],[85.3703722,28.2518686],[85.3703546,28.2530236],[85.3706807,28.2530275],[85.3706763,28.2533162],[85.3703502,28.2533123],[85.3703458,28.2536011],[85.3706719,28.2536049],[85.3706675,28.2538937],[85.3696892,28.253882]]]},"properties":{"class":"direct_measurement_support"}},{"type":"Feature","geometry":{"type":"Polygon","coordinates":[[[85.3644982,28.2520872],[85.364507,28.2515097],[85.3651592,28.2515175],[85.3651504,28.252095],[85.3644982,28.2520872]]]},"properties":{"class":"direct_measurement_support"}},{"type":"Feature","geometry":{"type":"Polygon","coordinates":[[[85.3654764,28.2520989],[85.3654853,28.2515214],[85.3658113,28.2515253],[85.3658025,28.2521028],[85.3654764,28.2520989]]]},"properties":{"class":"direct_measurement_support"}},{"type":"Feature","geometry":{"type":"Polygon","coordinates":[[[85.3671245,28.2509634],[85.3671289,28.2506747],[85.367455,28.2506786],[85.3674506,28.2509673],[85.3671245,28.2509634]]]},"properties":{"class":"direct_measurement_support"}},{"type":"Feature","geometry":{"type":"Polygon","coordinates":[[[85.3648375,28.2512249],[85.3648507,28.2503586],[85.3651768,28.2503625],[85.3651636,28.2512288],[85.3648375,28.2512249]]]},"properties":{"class":"direct_measurement_support"}},{"type":"Feature","geometry":{"type":"Polygon","coordinates":[[[85.366111,28.2532617],[85.3661154,28.2529729],[85.3657893,28.252969],[85.3658025,28.2521028],[85.3661286,28.2521067],[85.3661374,28.2515292],[85.3658113,28.2515253],[85.3658157,28.2512366],[85.3654897,28.2512327],[85.3655029,28.2503664],[85.3651768,28.2503625],[85.3651856,28.2497851],[85.3655117,28.249789],[85.3655073,28.2500777],[85.3658334,28.2500816],[85.365829,28.2503703],[85.366155,28.2503742],[85.3661418,28.2512405],[85.3664679,28.2512444],[85.3664591,28.2518219],[85.3667852,28.2518258],[85.3667764,28.2524033],[85.3664503,28.2523994],[85.3664371,28.2532656],[85.366111,28.2532617]]]},"properties":{"class":"direct_measurement_support"}},{"type":"Feature","geometry":{"type":"Polygon","coordinates":[[[85.3658334,28.2500816],[85.3658378,28.2497929],[85.3661638,28.2497967],[85.3661594,28.2500855],[85.3658334,28.2500816]]]},"properties":{"class":"direct_measurement_support"}},{"type":"Feature","geometry":{"type":"Polygon","coordinates":[[[85.3661638,28.2497967],[85.3661683,28.249508],[85.3664943,28.2495119],[85.3664899,28.2498006],[85.3661638,28.2497967]]]},"properties":{"class":"direct_measurement_support"}},{"type":"Feature","geometry":{"type":"Polygon","coordinates":[[[85.3609604,28.227497],[85.3609648,28.2272083],[85.3616168,28.2272161],[85.3616124,28.2275048],[85.3609604,28.227497]]]},"properties":{"class":"direct_measurement_support"}},{"type":"Feature","geometry":{"type":"Polygon","coordinates":[[[85.3609736,28.2266308],[85.3609825,28.2260533],[85.3613085,28.2260572],[85.3613129,28.2257685],[85.3616389,28.2257724],[85.3616301,28.2263499],[85.3619561,28.2263538],[85.3619517,28.2266425],[85.3609736,28.2266308]]]},"properties":{"class":"direct_measurement_support"}},{"type":"Feature","geometry":{"type":"Polygon","coordinates":[[[85.352881,28.2227792],[85.3528899,28.2222017],[85.3532159,28.2222056],[85.353207,28.2227831],[85.352881,28.2227792]]]},"properties":{"class":"direct_measurement_support"}},{"type":"Feature","geometry":{"type":"Polygon","coordinates":[[[85.3535463,28.2219208],[85.3535508,28.221632],[85.3538767,28.221636],[85.3538723,28.2219247],[85.3535463,28.2219208]]]},"properties":{"class":"direct_measurement_support"}},{"type":"Feature","geometry":{"type":"Polygon","coordinates":[[[85.3558593,28.219927],[85.3558637,28.2196383],[85.3561897,28.2196422],[85.3561853,28.219931],[85.3558593,28.219927]]]},"properties":{"class":"direct_measurement_support"}},{"type":"Feature","geometry":{"type":"Polygon","coordinates":[[[85.3555377,28.2196344],[85.3555421,28.2193456],[85.3558681,28.2193495],[85.3558637,28.2196383],[85.3555377,28.2196344]]]},"properties":{"class":"direct_measurement_support"}},{"type":"Feature","geometry":{"type":"Polygon","coordinates":[[[85.3574936,28.2196579],[85.3574981,28.2193691],[85.357824,28.219373],[85.3578196,28.2196618],[85.3574936,28.2196579]]]},"properties":{"class":"direct_measurement_support"}},{"type":"Feature","geometry":{"type":"Polygon","coordinates":[[[85.3542337,28.2196187],[85.3542426,28.2190412],[85.3545686,28.2190451],[85.3545597,28.2196226],[85.3542337,28.2196187]]]},"properties":{"class":"direct_measurement_support"}},{"type":"Feature","geometry":{"type":"Polygon","coordinates":[[[85.3558681,28.2193495],[85.3558725,28.2190608],[85.3565245,28.2190686],[85.3565201,28.2193574],[85.3558681,28.2193495]]]},"properties":{"class":"direct_measurement_support"}},{"type":"Feature","geometry":{"type":"Polygon","coordinates":[[[85.3548946,28.219049],[85.354899,28.2187603],[85.355551,28.2187681],[85.3555466,28.2190569],[85.3548946,28.219049]]]},"properties":{"class":"direct_measurement_support"}},{"type":"Feature","geometry":{"type":"Polygon","coordinates":[[[85.3559256,28.2155959],[85.35593,28.2153071],[85.356256,28.215311],[85.3562516,28.2155998],[85.3559256,28.2155959]]]},"properties":{"class":"direct_measurement_support"}},{"type":"Feature","geometry":{"type":"Polygon","coordinates":[[[85.3591854,28.215635],[85.3591898,28.2153463],[85.3595158,28.2153502],[85.3595114,28.2156389],[85.3591854,28.215635]]]},"properties":{"class":"direct_measurement_support"}},{"type":"Feature","geometry":{"type":"Polygon","coordinates":[[[85.3588771,28.2144761],[85.3588815,28.2141874],[85.3592075,28.2141913],[85.359203,28.21448],[85.3588771,28.2144761]]]},"properties":{"class":"direct_measurement_support"}},{"type":"Feature","geometry":{"type":"Polygon","coordinates":[[[85.3579124,28.2135981],[85.3579168,28.2133094],[85.3582428,28.2133133],[85.3582384,28.213602],[85.3579124,28.2135981]]]},"properties":{"class":"direct_measurement_support"}},{"type":"Feature","geometry":{"type":"Polygon","coordinates":[[[85.358582,28.212451],[85.3585864,28.2121622],[85.3589124,28.2121661],[85.358908,28.2124549],[85.358582,28.212451]]]},"properties":{"class":"direct_measurement_support"}},{"type":"Feature","geometry":{"type":"Polygon","coordinates":[[[85.3559875,28.2115534],[85.355992,28.2112647],[85.3563179,28.2112686],[85.3563135,28.2115573],[85.3559875,28.2115534]]]},"properties":{"class":"direct_measurement_support"}},{"type":"Feature","geometry":{"type":"Polygon","coordinates":[[[85.3543622,28.2112451],[85.354371,28.2106676],[85.354697,28.2106715],[85.3546881,28.211249],[85.3543622,28.2112451]]]},"properties":{"class":"direct_measurement_support"}},{"type":"Feature","geometry":{"type":"Polygon","coordinates":[[[85.3556704,28.210972],[85.3556749,28.2106833],[85.3560008,28.2106872],[85.3559964,28.2109759],[85.3556704,28.210972]]]},"properties":{"class":"direct_measurement_support"}},{"type":"Feature","geometry":{"type":"Polygon","coordinates":[[[85.3527412,28.210648],[85.3527456,28.2103592],[85.3530716,28.2103632],[85.3530672,28.2106519],[85.3527412,28.210648]]]},"properties":{"class":"direct_measurement_support"}},{"type":"Feature","geometry":{"type":"Polygon","coordinates":[[[85.3524197,28.2103553],[85.3524241,28.2100666],[85.3527501,28.2100705],[85.3527456,28.2103592],[85.3524197,28.2103553]]]},"properties":{"class":"direct_measurement_support"}},{"type":"Feature","geometry":{"type":"Polygon","coordinates":[[[85.3540495,28.2103749],[85.3540628,28.2095087],[85.3543887,28.2095126],[85.3543799,28.2100901],[85.3547058,28.210094],[85.3547014,28.2103828],[85.3540495,28.2103749]]]},"properties":{"class":"direct_measurement_support"}},{"type":"Feature","geometry":{"type":"Polygon","coordinates":[[[85.3534064,28.2097896],[85.3534108,28.2095008],[85.3537368,28.2095048],[85.3537324,28.2097935],[85.3534064,28.2097896]]]},"properties":{"class":"direct_measurement_support"}},{"type":"Feature","geometry":{"type":"Polygon","coordinates":[[[85.3541336,28.2048888],[85.354138,28.2046],[85.354464,28.2046039],[85.3544595,28.2048927],[85.3541336,28.2048888]]]},"properties":{"class":"direct_measurement_support"}},{"type":"Feature","geometry":{"type":"Polygon","coordinates":[[[85.3448192,28.1958237],[85.3448281,28.1952462],[85.3451541,28.1952501],[85.3451496,28.1955389],[85.3454755,28.1955428],[85.3454711,28.1958315],[85.3448192,28.1958237]]]},"properties":{"class":"direct_measurement_support"}},{"type":"Feature","geometry":{"type":"Polygon","coordinates":[[[85.3458014,28.1955467],[85.3458059,28.195258],[85.3451541,28.1952501],[85.3451585,28.1949614],[85.3458103,28.1949693],[85.3458148,28.1946805],[85.3461407,28.1946844],[85.3461273,28.1955507],[85.3458014,28.1955467]]]},"properties":{"class":"direct_measurement_support"}},{"type":"Feature","geometry":{"type":"Polygon","coordinates":[[[85.3461407,28.1946844],[85.3461451,28.1943957],[85.3467969,28.1944036],[85.3467925,28.1946923],[85.3461407,28.1946844]]]},"properties":{"class":"direct_measurement_support"}},{"type":"Feature","geometry":{"type":"Polygon","coordinates":[[[85.3471184,28.1946963],[85.3471273,28.1941188],[85.3474532,28.1941227],[85.3474443,28.1947002],[85.3471184,28.1946963]]]},"properties":{"class":"direct_measurement_support"}},{"type":"Feature","geometry":{"type":"Polygon","coordinates":[[[85.342886,28.1943563],[85.3428905,28.1940675],[85.3432164,28.1940715],[85.3432119,28.1943602],[85.342886,28.1943563]]]},"properties":{"class":"direct_measurement_support"}},{"type":"Feature","geometry":{"type":"Polygon","coordinates":[[[85.3468147,28.1932486],[85.3468192,28.1929599],[85.3471451,28.1929638],[85.3471406,28.1932525],[85.3468147,28.1932486]]]},"properties":{"class":"direct_measurement_support"}},{"type":"Feature","geometry":{"type":"Polygon","coordinates":[[[85.3435245,28.1952304],[85.3435512,28.1934979],[85.3438771,28.1935019],[85.3438816,28.1932131],[85.3442075,28.1932171],[85.3442164,28.1926396],[85.3451941,28.1926514],[85.3451896,28.1929402],[85.3455155,28.1929441],[85.3455066,28.1935216],[85.3458326,28.1935255],[85.3458192,28.1943918],[85.3454933,28.1943878],[85.3454889,28.1946766],[85.3445111,28.1946647],[85.3445156,28.194376],[85.3441897,28.1943721],[85.3441763,28.1952383],[85.3435245,28.1952304]],[[85.3438638,28.1943681],[85.3441897,28.1943721],[85.3441941,28.1940833],[85.3438682,28.1940794],[85.3438638,28.1943681]],[[85.3441986,28.1937946],[85.3448504,28.1938025],[85.3448548,28.1935137],[85.344203,28.1935058],[85.3441986,28.1937946]]]},"properties":{"class":"direct_measurement_support"}},{"type":"Feature","geometry":{"type":"Polygon","coordinates":[[[85.3458503,28.1923706],[85.3458548,28.1920818],[85.3461807,28.1920857],[85.3461762,28.1923745],[85.3458503,28.1923706]]]},"properties":{"class":"direct_measurement_support"}},{"type":"Feature","geometry":{"type":"Polygon","coordinates":[[[85.3461807,28.1920857],[85.3461851,28.191797],[85.346511,28.1918009],[85.3465155,28.1915122],[85.3468414,28.1915161],[85.3468325,28.1920936],[85.3461807,28.1920857]]]},"properties":{"class":"direct_measurement_support"}},{"type":"Feature","geometry":{"type":"Polygon","coordinates":[[[85.3429306,28.1914688],[85.342935,28.1911801],[85.3432609,28.191184],[85.3432565,28.1914728],[85.3429306,28.1914688]]]},"properties":{"class":"direct_measurement_support"}},{"type":"Feature","geometry":{"type":"Polygon","coordinates":[[[85.3452119,28.1914964],[85.3452163,28.1912077],[85.3455422,28.1912116],[85.3455378,28.1915004],[85.3452119,28.1914964]]]},"properties":{"class":"direct_measurement_support"}},{"type":"Feature","geometry":{"type":"Polygon","coordinates":[[[85.3455422,28.1912116],[85.3455511,28.1906341],[85.345877,28.1906381],[85.3458726,28.1909268],[85.3461985,28.1909308],[85.346194,28.1912195],[85.3455422,28.1912116]]]},"properties":{"class":"direct_measurement_support"}},{"type":"Feature","geometry":{"type":"Polygon","coordinates":[[[85.3448993,28.1906263],[85.3449038,28.1903375],[85.3452297,28.1903415],[85.3452341,28.1900527],[85.34556,28.1900567],[85.3455511,28.1906341],[85.3448993,28.1906263]]]},"properties":{"class":"direct_measurement_support"}},{"type":"Feature","geometry":{"type":"Polygon","coordinates":[[[85.3481494,28.1912431],[85.3481583,28.1906656],[85.3475065,28.1906578],[85.347511,28.190369],[85.3478369,28.190373],[85.3478413,28.1900842],[85.348819,28.190096],[85.3488101,28.1906735],[85.349136,28.1906774],[85.3491316,28.1909662],[85.3484798,28.1909583],[85.3484753,28.1912471],[85.3481494,28.1912431]]]},"properties":{"class":"direct_measurement_support"}},{"type":"Feature","geometry":{"type":"Polygon","coordinates":[[[85.3475154,28.1900803],[85.3475198,28.1897915],[85.346868,28.1897837],[85.3468725,28.1894949],[85.3465466,28.189491],[85.346551,28.1892022],[85.3462251,28.1891983],[85.3462296,28.1889096],[85.3465555,28.1889135],[85.3465599,28.1886247],[85.3472117,28.1886326],[85.3472162,28.1883439],[85.3468903,28.1883399],[85.3468947,28.1880512],[85.3465688,28.1880473],[85.3465733,28.1877585],[85.3459215,28.1877506],[85.3459304,28.1871731],[85.3462563,28.1871771],[85.3462518,28.1874658],[85.3469036,28.1874737],[85.3468991,28.1877624],[85.3475509,28.1877703],[85.347542,28.1883478],[85.3478679,28.1883517],[85.3478591,28.1889292],[85.348185,28.1889332],[85.3481805,28.1892219],[85.3478546,28.189218],[85.3478413,28.1900842],[85.3475154,28.1900803]],[[85.3468725,28.1894949],[85.3471984,28.1894989],[85.3472028,28.1892101],[85.3468769,28.1892062],[85.3468725,28.1894949]]]},"properties":{"class":"direct_measurement_support"}},{"type":"Feature","geometry":{"type":"Polygon","coordinates":[[[85.3442965,28.1874422],[85.3443054,28.1868647],[85.3446313,28.1868686],[85.3446224,28.1874461],[85.3442965,28.1874422]]]},"properties":{"class":"direct_measurement_support"}},{"type":"Feature","geometry":{"type":"Polygon","coordinates":[[[85.3518008,28.1869552],[85.3518052,28.1866664],[85.3521311,28.1866703],[85.3521267,28.1869591],[85.3518008,28.1869552]]]},"properties":{"class":"direct_measurement_support"}},{"type":"Feature","geometry":{"type":"Polygon","coordinates":[[[85.3390957,28.1865128],[85.3391001,28.186224],[85.339426,28.186228],[85.3394215,28.1865167],[85.3390957,28.1865128]]]},"properties":{"class":"direct_measurement_support"}},{"type":"Feature","geometry":{"type":"Polygon","coordinates":[[[85.3428994,28.19349],[85.3429038,28.1932013],[85.3425779,28.1931974],[85.3425824,28.1929086],[85.3422565,28.1929047],[85.3422609,28.1926159],[85.341935,28.192612],[85.3419395,28.1923232],[85.3416136,28.1923193],[85.3416181,28.1920305],[85.3412922,28.1920266],[85.3413011,28.1914491],[85.3409752,28.1914451],[85.3409796,28.1911564],[85.3406537,28.1911524],[85.3406626,28.190575],[85.3403368,28.190571],[85.3403546,28.189416],[85.3400287,28.1894121],[85.3400332,28.1891233],[85.3403591,28.1891273],[85.3403635,28.1888385],[85.3400376,28.1888346],[85.3400421,28.1885458],[85.3397162,28.1885419],[85.3397207,28.1882531],[85.3393948,28.1882492],[85.3394037,28.1876717],[85.3397296,28.1876757],[85.339734,28.1873869],[85.3400599,28.1873909],[85.3400555,28.1876796],[85.3403814,28.1876836],[85.3403858,28.1873948],[85.3410376,28.1874027],[85.3410465,28.1868252],[85.3413724,28.1868292],[85.3413813,28.1862517],[85.3420331,28.1862596],[85.3420375,28.1859709],[85.3423634,28.1859748],[85.3423545,28.1865523],[85.3417027,28.1865444],[85.3416983,28.1868331],[85.3423501,28.186841],[85.3423367,28.1877073],[85.3436402,28.187723],[85.3436358,28.1880118],[85.3439617,28.1880157],[85.3439572,28.1883045],[85.3442831,28.1883084],[85.3442698,28.1891747],[85.3445957,28.1891786],[85.3445779,28.1903336],[85.344252,28.1903296],[85.3442475,28.1906184],[85.3445734,28.1906223],[85.344569,28.1909111],[85.3442431,28.1909071],[85.3442386,28.1911959],[85.3445645,28.1911998],[85.3445601,28.1914886],[85.344886,28.1914925],[85.3448815,28.1917812],[85.3452074,28.1917852],[85.345203,28.1920739],[85.3448771,28.19207],[85.3448726,28.1923587],[85.3438949,28.1923469],[85.3438905,28.1926356],[85.3429128,28.1926238],[85.3429083,28.1929126],[85.3435601,28.1929204],[85.3435557,28.1932092],[85.3432298,28.1932052],[85.3432253,28.193494],[85.3428994,28.19349]],[[85.3429172,28.1923351],[85.3432431,28.192339],[85.3432476,28.1920503],[85.3435735,28.1920542],[85.3435779,28.1917655],[85.343252,28.1917615],[85.3432565,28.1914728],[85.3435824,28.1914767],[85.3435868,28.191188],[85.3439127,28.1911919],[85.3439172,28.1909032],[85.3435913,28.1908992],[85.3436002,28.1903217],[85.3432743,28.1903178],[85.3432698,28.1906065],[85.3429439,28.1906026],[85.342935,28.1911801],[85.3426091,28.1911761],[85.3426002,28.1917536],[85.3429261,28.1917576],[85.3429172,28.1923351]],[[85.3422877,28.1908835],[85.3426136,28.1908874],[85.342618,28.1905987],[85.3422921,28.1905947],[85.3422877,28.1908835]],[[85.3419707,28.190302],[85.3426225,28.1903099],[85.3426269,28.1900212],[85.3419752,28.1900133],[85.3419707,28.190302]],[[85.3432832,28.1897403],[85.343935,28.1897482],[85.3439394,28.1894595],[85.3432876,28.1894516],[85.3432832,28.1897403]],[[85.3439394,28.1894595],[85.3442653,28.1894634],[85.3442698,28.1891747],[85.3439439,28.1891707],[85.3439394,28.1894595]],[[85.3429707,28.1888701],[85.3432965,28.1888741],[85.343301,28.1885853],[85.3429751,28.1885814],[85.3429707,28.1888701]],[[85.3413501,28.1882729],[85.341676,28.1882769],[85.3416805,28.1879881],[85.3423322,28.187996],[85.3423367,28.1877073],[85.341359,28.1876954],[85.3413501,28.1882729]]]},"properties":{"class":"direct_measurement_support"}},{"type":"Feature","geometry":{"type":"Polygon","coordinates":[[[85.3452875,28.1865878],[85.3452919,28.186299],[85.3456178,28.186303],[85.3456223,28.1860142],[85.3449705,28.1860063],[85.3449749,28.1857176],[85.3459526,28.1857294],[85.3459437,28.1863069],[85.3462696,28.1863109],[85.3462651,28.1865996],[85.3452875,28.1865878]]]},"properties":{"class":"direct_measurement_support"}},{"type":"Feature","geometry":{"type":"Polygon","coordinates":[[[85.339426,28.186228],[85.3394305,28.1859392],[85.3391046,28.1859353],[85.339109,28.1856465],[85.3387832,28.1856426],[85.3387876,28.1853538],[85.3394394,28.1853618],[85.3394349,28.1856505],[85.3397608,28.1856545],[85.3397519,28.1862319],[85.339426,28.186228]]]},"properties":{"class":"direct_measurement_support"}},{"type":"Feature","geometry":{"type":"Polygon","coordinates":[[[85.3413902,28.1856742],[85.3413947,28.1853855],[85.3417206,28.1853894],[85.3417161,28.1856782],[85.3413902,28.1856742]]]},"properties":{"class":"direct_measurement_support"}},{"type":"Feature","geometry":{"type":"Polygon","coordinates":[[[85.3453053,28.1854328],[85.3453097,28.1851441],[85.3456356,28.185148],[85.3456312,28.1854367],[85.3453053,28.1854328]]]},"properties":{"class":"direct_measurement_support"}},{"type":"Feature","geometry":{"type":"Polygon","coordinates":[[[85.3397697,28.185077],[85.3397742,28.1847882],[85.340426,28.1847961],[85.3404215,28.1850849],[85.3397697,28.185077]]]},"properties":{"class":"direct_measurement_support"}},{"type":"Feature","geometry":{"type":"Polygon","coordinates":[[[85.344658,28.1851362],[85.3446624,28.1848474],[85.3443365,28.1848435],[85.344341,28.1845547],[85.3440151,28.1845508],[85.3440195,28.1842621],[85.3443454,28.184266],[85.3443499,28.1839773],[85.3446757,28.1839812],[85.3446669,28.1845587],[85.3453186,28.1845666],[85.3453142,28.1848553],[85.3449883,28.1848514],[85.3449838,28.1851401],[85.344658,28.1851362]]]},"properties":{"class":"direct_measurement_support"}},{"type":"Feature","geometry":{"type":"Polygon","coordinates":[[[85.3489122,28.1840324],[85.3489166,28.1837436],[85.3492425,28.1837475],[85.349238,28.1840363],[85.3489122,28.1840324]]]},"properties":{"class":"direct_measurement_support"}},{"type":"Feature","geometry":{"type":"Polygon","coordinates":[[[85.3427249,28.1836688],[85.3427294,28.18338],[85.3430553,28.183384],[85.3430508,28.1836727],[85.3427249,28.1836688]]]},"properties":{"class":"direct_measurement_support"}},{"type":"Feature","geometry":{"type":"Polygon","coordinates":[[[85.3443543,28.1836885],[85.3443588,28.1833998],[85.3446846,28.1834037],[85.3446802,28.1836925],[85.3443543,28.1836885]]]},"properties":{"class":"direct_measurement_support"}},{"type":"Feature","geometry":{"type":"Polygon","coordinates":[[[85.3411134,28.1824941],[85.3411223,28.1819166],[85.3414482,28.1819205],[85.3414392,28.182498],[85.3411134,28.1824941]]]},"properties":{"class":"direct_measurement_support"}},{"type":"Feature","geometry":{"type":"Polygon","coordinates":[[[85.3394795,28.1827631],[85.339484,28.1824743],[85.3401358,28.1824822],[85.3401447,28.1819047],[85.3404705,28.1819087],[85.340475,28.1816199],[85.3408009,28.1816239],[85.340783,28.1827789],[85.3394795,28.1827631]]]},"properties":{"class":"direct_measurement_support"}},{"type":"Feature","geometry":{"type":"Polygon","coordinates":[[[85.3417829,28.181347],[85.3417874,28.1810582],[85.3421133,28.1810622],[85.3421088,28.1813509],[85.3417829,28.181347]]]},"properties":{"class":"direct_measurement_support"}},{"type":"Feature","geometry":{"type":"Polygon","coordinates":[[[85.3424391,28.1810661],[85.3424436,28.1807774],[85.3427695,28.1807813],[85.342765,28.1810701],[85.3424391,28.1810661]]]},"properties":{"class":"direct_measurement_support"}},{"type":"Feature","geometry":{"type":"Polygon","coordinates":[[[85.3466754,28.1811174],[85.3466799,28.1808286],[85.3470058,28.1808326],[85.3470013,28.1811213],[85.3466754,28.1811174]]]},"properties":{"class":"direct_measurement_support"}},{"type":"Feature","geometry":{"type":"Polygon","coordinates":[[[85.3447247,28.180805],[85.3447291,28.1805163],[85.345055,28.1805202],[85.3450505,28.1808089],[85.3447247,28.180805]]]},"properties":{"class":"direct_measurement_support"}},{"type":"Feature","geometry":{"type":"Polygon","coordinates":[[[85.3483092,28.1808483],[85.3483137,28.1805596],[85.3486395,28.1805635],[85.3486351,28.1808522],[85.3483092,28.1808483]]]},"properties":{"class":"direct_measurement_support"}},{"type":"Feature","geometry":{"type":"Polygon","coordinates":[[[85.3421177,28.1807735],[85.3421311,28.1799072],[85.3427828,28.1799151],[85.3427873,28.1796264],[85.3431131,28.1796303],[85.3431042,28.1802078],[85.3424525,28.1801999],[85.3424436,28.1807774],[85.3421177,28.1807735]]]},"properties":{"class":"direct_measurement_support"}},{"type":"Feature","geometry":{"type":"Polygon","coordinates":[[[85.3418097,28.1796145],[85.3418141,28.1793258],[85.34214,28.1793297],[85.3421355,28.1796185],[85.3418097,28.1796145]]]},"properties":{"class":"direct_measurement_support"}},{"type":"Feature","geometry":{"type":"Polygon","coordinates":[[[85.3431176,28.1793416],[85.343122,28.1790528],[85.3434479,28.1790568],[85.3434434,28.1793455],[85.3431176,28.1793416]]]},"properties":{"class":"direct_measurement_support"}},{"type":"Feature","geometry":{"type":"Polygon","coordinates":[[[85.3424659,28.1793337],[85.3424748,28.1787562],[85.3428006,28.1787601],[85.3427917,28.1793376],[85.3424659,28.1793337]]]},"properties":{"class":"direct_measurement_support"}},{"type":"Feature","geometry":{"type":"Polygon","coordinates":[[[85.3447514,28.1790725],[85.3447558,28.1787838],[85.3444299,28.1787798],[85.3444344,28.1784911],[85.3450861,28.178499],[85.3450772,28.1790765],[85.3447514,28.1790725]]]},"properties":{"class":"direct_measurement_support"}},{"type":"Feature","geometry":{"type":"Polygon","coordinates":[[[85.3473627,28.1788153],[85.3473671,28.1785265],[85.3483447,28.1785383],[85.3483403,28.1788271],[85.3473627,28.1788153]]]},"properties":{"class":"direct_measurement_support"}},{"type":"Feature","geometry":{"type":"Polygon","coordinates":[[[85.3428095,28.1781826],[85.342814,28.1778939],[85.3434657,28.1779018],[85.3434612,28.1781905],[85.3428095,28.1781826]]]},"properties":{"class":"direct_measurement_support"}},{"type":"Feature","geometry":{"type":"Polygon","coordinates":[[[85.3434701,28.177613],[85.3434746,28.1773243],[85.3438005,28.1773282],[85.343796,28.177617],[85.3434701,28.177613]]]},"properties":{"class":"direct_measurement_support"}},{"type":"Feature","geometry":{"type":"Polygon","coordinates":[[[85.3453853,28.1802354],[85.3453942,28.1796579],[85.3460459,28.1796658],[85.3460637,28.1785108],[85.3457378,28.1785069],[85.3457467,28.1779294],[85.3454209,28.1779254],[85.3454253,28.1776367],[85.3450994,28.1776327],[85.3451039,28.177344],[85.3467332,28.1773637],[85.3467287,28.1776524],[85.3470546,28.1776564],[85.3470502,28.1779451],[85.3463984,28.1779372],[85.346394,28.178226],[85.3470457,28.1782339],[85.3470413,28.1785226],[85.3467154,28.1785187],[85.3467065,28.1790962],[85.3470324,28.1791001],[85.3470368,28.1788114],[85.3473627,28.1788153],[85.3473583,28.179104],[85.34801,28.1791119],[85.3480056,28.1794006],[85.3473538,28.1793928],[85.3473494,28.1796815],[85.3463718,28.1796697],[85.3463629,28.1802472],[85.3453853,28.1802354]]]},"properties":{"class":"direct_measurement_support"}},{"type":"Feature","geometry":{"type":"Polygon","coordinates":[[[85.3473805,28.1776603],[85.3473849,28.1773716],[85.3480366,28.1773794],[85.3480322,28.1776682],[85.3473805,28.1776603]]]},"properties":{"class":"direct_measurement_support"}},{"type":"Feature","geometry":{"type":"Polygon","coordinates":[[[85.3424881,28.17789],[85.342497,28.1773125],[85.3421712,28.1773085],[85.3421756,28.1770198],[85.3428273,28.1770277],[85.342814,28.1778939],[85.3424881,28.17789]]]},"properties":{"class":"direct_measurement_support"}},{"type":"Feature","geometry":{"type":"Polygon","coordinates":[[[85.3425059,28.176735],[85.3425104,28.1764462],[85.3428362,28.1764502],[85.3428318,28.1767389],[85.3425059,28.176735]]]},"properties":{"class":"direct_measurement_support"}},{"type":"Feature","geometry":{"type":"Polygon","coordinates":[[[85.3457645,28.1767744],[85.3457689,28.1764856],[85.3460948,28.1764896],[85.3460904,28.1767783],[85.3457645,28.1767744]]]},"properties":{"class":"direct_measurement_support"}},{"type":"Feature","geometry":{"type":"Polygon","coordinates":[[[85.3395688,28.1769882],[85.3395732,28.1766994],[85.3392474,28.1766955],[85.3392518,28.1764067],[85.338926,28.1764028],[85.3389304,28.176114],[85.3395822,28.1761219],[85.3395777,28.1764107],[85.3402294,28.1764186],[85.3402205,28.1769961],[85.3395688,28.1769882]]]},"properties":{"class":"direct_measurement_support"}},{"type":"Feature","geometry":{"type":"Polygon","coordinates":[[[85.3421845,28.1764423],[85.342189,28.1761535],[85.3425148,28.1761575],[85.3425104,28.1764462],[85.3421845,28.1764423]]]},"properties":{"class":"direct_measurement_support"}},{"type":"Feature","geometry":{"type":"Polygon","coordinates":[[[85.3464206,28.1764935],[85.3464251,28.1762048],[85.3467509,28.1762087],[85.3467465,28.1764975],[85.3464206,28.1764935]]]},"properties":{"class":"direct_measurement_support"}},{"type":"Feature","geometry":{"type":"Polygon","coordinates":[[[85.3415373,28.1761456],[85.3415417,28.1758569],[85.3421934,28.1758648],[85.342189,28.1761535],[85.3415373,28.1761456]]]},"properties":{"class":"direct_measurement_support"}},{"type":"Feature","geometry":{"type":"Polygon","coordinates":[[[85.3467509,28.1762087],[85.3467554,28.17592],[85.3470812,28.1759239],[85.3470768,28.1762126],[85.3467509,28.1762087]]]},"properties":{"class":"direct_measurement_support"}},{"type":"Feature","geometry":{"type":"Polygon","coordinates":[[[85.3477152,28.1770867],[85.3477196,28.176798],[85.3470679,28.1767901],[85.3470768,28.1762126],[85.3474027,28.1762166],[85.3474115,28.1756391],[85.3480632,28.175647],[85.3480544,28.1762244],[85.3483802,28.1762284],[85.3483758,28.1765171],[85.3487016,28.1765211],[85.3486928,28.1770985],[85.3477152,28.1770867]]]},"properties":{"class":"direct_measurement_support"}},{"type":"Feature","geometry":{"type":"Polygon","coordinates":[[[85.3428362,28.1764502],[85.3428407,28.1761614],[85.3425148,28.1761575],[85.3425282,28.1752913],[85.3431799,28.1752991],[85.3431621,28.1764541],[85.3428362,28.1764502]]]},"properties":{"class":"direct_measurement_support"}},{"type":"Feature","geometry":{"type":"Polygon","coordinates":[[[85.3412203,28.1755642],[85.3412248,28.1752755],[85.3415506,28.1752794],[85.3415462,28.1755682],[85.3412203,28.1755642]]]},"properties":{"class":"direct_measurement_support"}},{"type":"Feature","geometry":{"type":"Polygon","coordinates":[[[85.341872,28.1755721],[85.3418809,28.1749946],[85.3425326,28.1750025],[85.3425282,28.1752913],[85.3422023,28.1752873],[85.3421979,28.175576],[85.341872,28.1755721]]]},"properties":{"class":"direct_measurement_support"}},{"type":"Feature","geometry":{"type":"Polygon","coordinates":[[[85.3389438,28.1752478],[85.3389483,28.1749591],[85.3392741,28.174963],[85.3392697,28.1752518],[85.3389438,28.1752478]]]},"properties":{"class":"direct_measurement_support"}},{"type":"Feature","geometry":{"type":"Polygon","coordinates":[[[85.3392741,28.174963],[85.3392786,28.1746743],[85.3399303,28.1746822],[85.3399258,28.1749709],[85.3392741,28.174963]]]},"properties":{"class":"direct_measurement_support"}},{"type":"Feature","geometry":{"type":"Polygon","coordinates":[[[85.3399303,28.1746822],[85.3399392,28.1741047],[85.3402651,28.1741086],[85.3402561,28.1746861],[85.3399303,28.1746822]]]},"properties":{"class":"direct_measurement_support"}},{"type":"Feature","geometry":{"type":"Polygon","coordinates":[[[85.3418854,28.1747059],[85.3418899,28.1744171],[85.3422157,28.1744211],[85.3422202,28.1741323],[85.342546,28.1741363],[85.3425371,28.1747138],[85.3418854,28.1747059]]]},"properties":{"class":"direct_measurement_support"}},{"type":"Feature","geometry":{"type":"Polygon","coordinates":[[[85.3415729,28.1738357],[85.3415774,28.1735469],[85.3419032,28.1735509],[85.3418988,28.1738396],[85.3415729,28.1738357]]]},"properties":{"class":"direct_measurement_support"}},{"type":"Feature","geometry":{"type":"Polygon","coordinates":[[[85.3451572,28.1738791],[85.3451617,28.1735903],[85.3458134,28.1735982],[85.3458089,28.1738869],[85.3451572,28.1738791]]]},"properties":{"class":"direct_measurement_support"}},{"type":"Feature","geometry":{"type":"Polygon","coordinates":[[[85.338984,28.1726491],[85.3389884,28.1723604],[85.3393143,28.1723643],[85.3393098,28.1726531],[85.338984,28.1726491]]]},"properties":{"class":"direct_measurement_support"}},{"type":"Feature","geometry":{"type":"Polygon","coordinates":[[[85.3360603,28.172036],[85.3360648,28.1717473],[85.3363906,28.1717512],[85.3363862,28.17204],[85.3360603,28.172036]]]},"properties":{"class":"direct_measurement_support"}},{"type":"Feature","geometry":{"type":"Polygon","coordinates":[[[85.3455097,28.1721505],[85.3455142,28.1718618],[85.34584,28.1718657],[85.3458356,28.1721545],[85.3455097,28.1721505]]]},"properties":{"class":"direct_measurement_support"}},{"type":"Feature","geometry":{"type":"Polygon","coordinates":[[[85.342546,28.1741363],[85.3425505,28.1738475],[85.3422246,28.1738436],[85.3422335,28.1732661],[85.3425594,28.17327],[85.3425638,28.1729813],[85.3419121,28.1729734],[85.3419166,28.1726847],[85.3422424,28.1726886],[85.3422469,28.1723999],[85.3425727,28.1724038],[85.3425861,28.1715376],[85.3429119,28.1715415],[85.3428986,28.1724077],[85.3432244,28.1724117],[85.3432199,28.1727004],[85.3428941,28.1726965],[85.3428718,28.1741402],[85.342546,28.1741363]]]},"properties":{"class":"direct_measurement_support"}},{"type":"Feature","geometry":{"type":"Polygon","coordinates":[[[85.3419255,28.1721072],[85.3419299,28.1718184],[85.3416041,28.1718145],[85.3416085,28.1715257],[85.3422602,28.1715336],[85.3422513,28.1721111],[85.3419255,28.1721072]]]},"properties":{"class":"direct_measurement_support"}},{"type":"Feature","geometry":{"type":"Polygon","coordinates":[[[85.3425905,28.1712488],[85.342595,28.1709601],[85.3429208,28.170964],[85.3429164,28.1712528],[85.3425905,28.1712488]]]},"properties":{"class":"direct_measurement_support"}},{"type":"Feature","geometry":{"type":"Polygon","coordinates":[[[85.3445456,28.1712725],[85.34455,28.1709837],[85.3452017,28.1709916],[85.3451972,28.1712804],[85.3445456,28.1712725]]]},"properties":{"class":"direct_measurement_support"}},{"type":"Feature","geometry":{"type":"Polygon","coordinates":[[[85.346505,28.1710074],[85.3465095,28.1707186],[85.3468353,28.1707225],[85.3468309,28.1710113],[85.346505,28.1710074]]]},"properties":{"class":"direct_measurement_support"}},{"type":"Feature","geometry":{"type":"Polygon","coordinates":[[[85.3461836,28.1707147],[85.3461881,28.1704259],[85.3465139,28.1704299],[85.3465095,28.1707186],[85.3461836,28.1707147]]]},"properties":{"class":"direct_measurement_support"}},{"type":"Feature","geometry":{"type":"Polygon","coordinates":[[[85.336413,28.1703075],[85.3364174,28.1700188],[85.3367433,28.1700227],[85.3367388,28.1703115],[85.336413,28.1703075]]]},"properties":{"class":"direct_measurement_support"}},{"type":"Feature","geometry":{"type":"Polygon","coordinates":[[[85.3432511,28.1706792],[85.3432644,28.169813],[85.3439161,28.1698209],[85.3439072,28.1703984],[85.3435814,28.1703944],[85.3435769,28.1706832],[85.3432511,28.1706792]]]},"properties":{"class":"direct_measurement_support"}},{"type":"Feature","geometry":{"type":"Polygon","coordinates":[[[85.335739,28.1717433],[85.3357524,28.1708771],[85.3360782,28.170881],[85.3360827,28.1705923],[85.3370602,28.1706042],[85.3370691,28.1700267],[85.337395,28.1700306],[85.3373994,28.1697419],[85.3377253,28.1697458],[85.3377297,28.1694571],[85.3380555,28.1694611],[85.3380511,28.1697498],[85.3383769,28.1697538],[85.3383591,28.1709087],[85.3386849,28.1709127],[85.3386804,28.1712014],[85.3377029,28.1711896],[85.3377074,28.1709008],[85.3373816,28.1708969],[85.3373726,28.1714744],[85.3360693,28.1714585],[85.3360648,28.1717473],[85.335739,28.1717433]]]},"properties":{"class":"direct_measurement_support"}},{"type":"Feature","geometry":{"type":"Polygon","coordinates":[[[85.3442375,28.1701136],[85.3442419,28.1698248],[85.3445678,28.1698287],[85.3445722,28.16954],[85.3448981,28.1695439],[85.3448892,28.1701214],[85.3442375,28.1701136]]]},"properties":{"class":"direct_measurement_support"}},{"type":"Feature","geometry":{"type":"Polygon","coordinates":[[[85.3422825,28.1700899],[85.3422958,28.1692237],[85.3426217,28.1692276],[85.3426083,28.1700938],[85.3422825,28.1700899]]]},"properties":{"class":"direct_measurement_support"}},{"type":"Feature","geometry":{"type":"Polygon","coordinates":[[[85.3380555,28.1694611],[85.33806,28.1691723],[85.3387117,28.1691802],[85.3387072,28.169469],[85.3380555,28.1694611]]]},"properties":{"class":"direct_measurement_support"}},{"type":"Feature","geometry":{"type":"Polygon","coordinates":[[[85.3439206,28.1695321],[85.343925,28.1692434],[85.3442508,28.1692473],[85.3442464,28.1695361],[85.3439206,28.1695321]]]},"properties":{"class":"direct_measurement_support"}},{"type":"Feature","geometry":{"type":"Polygon","coordinates":[[[85.3419745,28.168931],[85.3419789,28.1686422],[85.3423047,28.1686462],[85.3423003,28.1689349],[85.3419745,28.168931]]]},"properties":{"class":"direct_measurement_support"}},{"type":"Feature","geometry":{"type":"Polygon","coordinates":[[[85.3383903,28.1688875],[85.3383948,28.1685988],[85.3387206,28.1686027],[85.3387295,28.1680252],[85.3406845,28.1680489],[85.34068,28.1683377],[85.3400284,28.1683298],[85.3400239,28.1686185],[85.3396981,28.1686146],[85.3396936,28.1689033],[85.3383903,28.1688875]]]},"properties":{"class":"direct_measurement_support"}},{"type":"Feature","geometry":{"type":"Polygon","coordinates":[[[85.3384037,28.1680213],[85.3384082,28.1677325],[85.338734,28.1677365],[85.3387295,28.1680252],[85.3384037,28.1680213]]]},"properties":{"class":"direct_measurement_support"}},{"type":"Feature","geometry":{"type":"Polygon","coordinates":[[[85.340689,28.1677602],[85.3406934,28.1674715],[85.3410192,28.1674754],[85.3410148,28.1677642],[85.340689,28.1677602]]]},"properties":{"class":"direct_measurement_support"}},{"type":"Feature","geometry":{"type":"Polygon","coordinates":[[[85.3423136,28.1680687],[85.342327,28.1672024],[85.3429787,28.1672103],[85.3429698,28.1677878],[85.3426439,28.1677839],[85.3426395,28.1680726],[85.3423136,28.1680687]]]},"properties":{"class":"direct_measurement_support"}},{"type":"Feature","geometry":{"type":"Polygon","coordinates":[[[85.3432689,28.1695242],[85.3432733,28.1692355],[85.3429475,28.1692316],[85.342952,28.1689428],[85.3436036,28.1689507],[85.3436081,28.1686619],[85.3429564,28.1686541],[85.3429609,28.1683653],[85.3432867,28.1683693],[85.3432911,28.1680805],[85.3429653,28.1680766],[85.3429698,28.1677878],[85.3432956,28.1677918],[85.3433045,28.1672143],[85.3436303,28.1672182],[85.3436214,28.1677957],[85.3439472,28.1677997],[85.3439517,28.1675109],[85.3449292,28.1675227],[85.3449247,28.1678115],[85.3452506,28.1678154],[85.3452461,28.1681042],[85.3455719,28.1681081],[85.3455675,28.1683968],[85.3462192,28.1684047],[85.3462103,28.1689822],[85.3455586,28.1689743],[85.3455542,28.1692631],[85.34588,28.169267],[85.3458756,28.1695558],[85.3448981,28.1695439],[85.3449025,28.1692552],[85.3445767,28.1692513],[85.3445811,28.1689625],[85.3439295,28.1689546],[85.343925,28.1692434],[85.3435992,28.1692394],[85.3435947,28.1695282],[85.3432689,28.1695242]],[[85.3442597,28.1686698],[85.3445856,28.1686738],[85.34459,28.168385],[85.3442642,28.1683811],[85.3442597,28.1686698]]]},"properties":{"class":"direct_measurement_support"}},{"type":"Feature","geometry":{"type":"Polygon","coordinates":[[[85.3426573,28.1669176],[85.3426662,28.1663402],[85.342992,28.1663441],[85.3429876,28.1666328],[85.3436392,28.1666407],[85.3436348,28.1669295],[85.3426573,28.1669176]]]},"properties":{"class":"direct_measurement_support"}},{"type":"Feature","geometry":{"type":"Polygon","coordinates":[[[85.3436436,28.166352],[85.3436481,28.1660632],[85.3439739,28.1660672],[85.3439695,28.1663559],[85.3436436,28.166352]]]},"properties":{"class":"direct_measurement_support"}},{"type":"Feature","geometry":{"type":"Polygon","coordinates":[[[85.3416753,28.1671946],[85.3416798,28.1669058],[85.3407023,28.166894],[85.3407201,28.165739],[85.3413718,28.1657469],[85.3413673,28.1660356],[85.3416932,28.1660396],[85.3416887,28.1663283],[85.3420145,28.1663323],[85.3420012,28.1671985],[85.3416753,28.1671946]],[[85.3413584,28.1666131],[85.3416842,28.1666171],[85.3416887,28.1663283],[85.3413629,28.1663244],[85.3413584,28.1666131]]]},"properties":{"class":"direct_measurement_support"}},{"type":"Feature","geometry":{"type":"Polygon","coordinates":[[[85.3348464,28.1662453],[85.3348553,28.1656678],[85.3351812,28.1656718],[85.3351856,28.165383],[85.3355115,28.165387],[85.3354981,28.1662532],[85.3348464,28.1662453]]]},"properties":{"class":"direct_measurement_support"}},{"type":"Feature","geometry":{"type":"Polygon","coordinates":[[[85.3358328,28.1656797],[85.3358373,28.1653909],[85.3355115,28.165387],[85.3355159,28.1650982],[85.3361676,28.1651062],[85.3361631,28.1653949],[85.3364889,28.1653989],[85.3364845,28.1656876],[85.3358328,28.1656797]]]},"properties":{"class":"direct_measurement_support"}},{"type":"Feature","geometry":{"type":"Polygon","coordinates":[[[85.340073,28.1654423],[85.3400774,28.1651536],[85.3404032,28.1651576],[85.3403988,28.1654463],[85.340073,28.1654423]]]},"properties":{"class":"direct_measurement_support"}},{"type":"Feature","geometry":{"type":"Polygon","coordinates":[[[85.3462636,28.1655173],[85.346268,28.1652285],[85.3465938,28.1652324],[85.3465894,28.1655212],[85.3462636,28.1655173]]]},"properties":{"class":"direct_measurement_support"}},{"type":"Feature","geometry":{"type":"Polygon","coordinates":[[[85.3377922,28.1654147],[85.3378011,28.1648372],[85.3381269,28.1648411],[85.338118,28.1654186],[85.3377922,28.1654147]]]},"properties":{"class":"direct_measurement_support"}},{"type":"Feature","geometry":{"type":"Polygon","coordinates":[[[85.3465938,28.1652324],[85.3465983,28.1649437],[85.3469241,28.1649476],[85.3469197,28.1652364],[85.3465938,28.1652324]]]},"properties":{"class":"direct_measurement_support"}},{"type":"Feature","geometry":{"type":"Polygon","coordinates":[[[85.3390999,28.1651418],[85.3391044,28.164853],[85.3387786,28.1648491],[85.338783,28.1645603],[85.3394347,28.1645682],[85.3394302,28.164857],[85.339756,28.1648609],[85.3397516,28.1651497],[85.3390999,28.1651418]]]},"properties":{"class":"direct_measurement_support"}},{"type":"Feature","geometry":{"type":"Polygon","coordinates":[[[85.3469241,28.1649476],[85.3469285,28.1646589],[85.3475802,28.1646667],[85.3475757,28.1649555],[85.3469241,28.1649476]]]},"properties":{"class":"direct_measurement_support"}},{"type":"Feature","geometry":{"type":"Polygon","coordinates":[[[85.3381314,28.1645524],[85.3381359,28.1642637],[85.3384617,28.1642676],[85.3384572,28.1645564],[85.3381314,28.1645524]]]},"properties":{"class":"direct_measurement_support"}},{"type":"Feature","geometry":{"type":"Polygon","coordinates":[[[85.3394347,28.1645682],[85.3394391,28.1642795],[85.339765,28.1642834],[85.3397605,28.1645722],[85.3394347,28.1645682]]]},"properties":{"class":"direct_measurement_support"}},{"type":"Feature","geometry":{"type":"Polygon","coordinates":[[[85.3316285,28.1636069],[85.331633,28.1633182],[85.3319588,28.1633222],[85.3319543,28.1636109],[85.3316285,28.1636069]]]},"properties":{"class":"direct_measurement_support"}},{"type":"Feature","geometry":{"type":"Polygon","coordinates":[[[85.3368415,28.1636703],[85.336846,28.1633816],[85.3371718,28.1633856],[85.3371674,28.1636743],[85.3368415,28.1636703]]]},"properties":{"class":"direct_measurement_support"}},{"type":"Feature","geometry":{"type":"Polygon","coordinates":[[[85.3329004,28.165644],[85.3329049,28.1653553],[85.3325791,28.1653513],[85.3325836,28.1650626],[85.3329094,28.1650665],[85.3329139,28.1647778],[85.3322622,28.1647698],[85.3322712,28.1641924],[85.3329228,28.1642003],[85.3329362,28.1633341],[85.3352169,28.1633618],[85.3352214,28.1630731],[85.3355472,28.163077],[85.3355293,28.164232],[85.3352035,28.164228],[85.335199,28.1645168],[85.3342216,28.1645049],[85.3342171,28.1647936],[85.3338913,28.1647897],[85.3338868,28.1650784],[85.3342127,28.1650824],[85.3342082,28.1653711],[85.3332307,28.1653592],[85.3332262,28.165648],[85.3329004,28.165644]],[[85.3329139,28.1647778],[85.3332397,28.1647817],[85.3332441,28.164493],[85.3329183,28.164489],[85.3329139,28.1647778]],[[85.3332486,28.1642043],[85.3335744,28.1642082],[85.3335789,28.1639195],[85.3342305,28.1639274],[85.334235,28.1636387],[85.3332576,28.1636268],[85.3332486,28.1642043]],[[85.3345564,28.1639314],[85.3348822,28.1639353],[85.3348866,28.1636466],[85.3345608,28.1636426],[85.3345564,28.1639314]]]},"properties":{"class":"direct_measurement_support"}},{"type":"Feature","geometry":{"type":"Polygon","coordinates":[[[85.3358641,28.1636585],[85.335873,28.163081],[85.3365247,28.1630889],[85.3365202,28.1633776],[85.3361944,28.1633737],[85.3361899,28.1636624],[85.3358641,28.1636585]]]},"properties":{"class":"direct_measurement_support"}},{"type":"Feature","geometry":{"type":"Polygon","coordinates":[[[85.3355472,28.163077],[85.3355517,28.1627883],[85.3358775,28.1627922],[85.335873,28.163081],[85.3355472,28.163077]]]},"properties":{"class":"direct_measurement_support"}},{"type":"Feature","geometry":{"type":"Polygon","coordinates":[[[85.3391312,28.1631205],[85.3391356,28.1628318],[85.3394614,28.1628357],[85.339457,28.1631245],[85.3391312,28.1631205]]]},"properties":{"class":"direct_measurement_support"}},{"type":"Feature","geometry":{"type":"Polygon","coordinates":[[[85.3417377,28.1631521],[85.3417421,28.1628634],[85.3423938,28.1628713],[85.3423893,28.16316],[85.3417377,28.1631521]]]},"properties":{"class":"direct_measurement_support"}},{"type":"Feature","geometry":{"type":"Polygon","coordinates":[[[85.3358775,28.1627922],[85.335882,28.1625035],[85.3362078,28.1625075],[85.3362033,28.1627962],[85.3358775,28.1627922]]]},"properties":{"class":"direct_measurement_support"}},{"type":"Feature","geometry":{"type":"Polygon","coordinates":[[[85.3397872,28.1628397],[85.3397917,28.1625509],[85.3401175,28.1625549],[85.3401131,28.1628436],[85.3397872,28.1628397]]]},"properties":{"class":"direct_measurement_support"}},{"type":"Feature","geometry":{"type":"Polygon","coordinates":[[[85.3423404,28.1663362],[85.3423493,28.1657587],[85.3420234,28.1657548],[85.3420279,28.165466],[85.3417021,28.1654621],[85.3417065,28.1651733],[85.3420323,28.1651773],[85.3420412,28.1645998],[85.3417154,28.1645959],[85.341711,28.1648846],[85.3413851,28.1648806],[85.3413807,28.1651694],[85.3407291,28.1651615],[85.3407335,28.1648728],[85.3400819,28.1648649],[85.3400863,28.1645761],[85.340738,28.164584],[85.3407424,28.1642953],[85.3410682,28.1642992],[85.3410727,28.1640105],[85.3413985,28.1640144],[85.341403,28.1637257],[85.3417288,28.1637296],[85.3417332,28.1634409],[85.342059,28.1634448],[85.3420501,28.1640223],[85.342376,28.1640263],[85.3423804,28.1637375],[85.3427062,28.1637414],[85.3427107,28.1634527],[85.3436881,28.1634645],[85.3436926,28.1631758],[85.3440184,28.1631797],[85.3440228,28.162891],[85.343697,28.162887],[85.3437015,28.1625983],[85.3453305,28.162618],[85.3453261,28.1629067],[85.3456519,28.1629107],[85.3456475,28.1631994],[85.3459733,28.1632034],[85.3459688,28.1634921],[85.3443398,28.1634724],[85.3443353,28.1637612],[85.3440095,28.1637572],[85.344005,28.164046],[85.3436792,28.164042],[85.3436614,28.165197],[85.3439873,28.1652009],[85.3439828,28.1654897],[85.343657,28.1654857],[85.3436525,28.1657745],[85.3433267,28.1657706],[85.3433401,28.1649043],[85.3430142,28.1649004],[85.3429964,28.1660554],[85.3426706,28.1660514],[85.3426662,28.1663402],[85.3423404,28.1663362]],[[85.3420412,28.1645998],[85.3423671,28.1646037],[85.3423715,28.164315],[85.3420457,28.1643111],[85.3420412,28.1645998]],[[85.3433534,28.1640381],[85.3436792,28.164042],[85.3436837,28.1637533],[85.3433579,28.1637493],[85.3433534,28.1640381]]]},"properties":{"class":"direct_measurement_support"}},{"type":"Feature","geometry":{"type":"Polygon","coordinates":[[[85.3378101,28.1642597],[85.3378145,28.163971],[85.3371629,28.163963],[85.3371674,28.1636743],[85.337819,28.1636822],[85.3378234,28.1633935],[85.3374976,28.1633895],[85.3375021,28.1631008],[85.3378279,28.1631047],[85.3378324,28.162816],[85.3371807,28.1628081],[85.3371763,28.1630968],[85.3365247,28.1630889],[85.336538,28.1622227],[85.3368639,28.1622266],[85.3368594,28.1625154],[85.3384885,28.1625351],[85.338484,28.1628239],[85.3388098,28.1628278],[85.3388053,28.1631166],[85.3391312,28.1631205],[85.3391267,28.1634093],[85.3397783,28.1634172],[85.3397828,28.1631284],[85.3401086,28.1631324],[85.3400997,28.1637099],[85.3407513,28.1637178],[85.3407424,28.1642953],[85.339765,28.1642834],[85.3397694,28.1639947],[85.3394436,28.1639907],[85.3394481,28.163702],[85.3387964,28.1636941],[85.338792,28.1639828],[85.3391178,28.1639868],[85.3391133,28.1642755],[85.3384617,28.1642676],[85.3384662,28.1639789],[85.3381403,28.1639749],[85.3381359,28.1642637],[85.3378101,28.1642597]],[[85.3384706,28.1636901],[85.3387964,28.1636941],[85.3388009,28.1634053],[85.3384751,28.1634014],[85.3384706,28.1636901]]]},"properties":{"class":"direct_measurement_support"}},{"type":"Feature","geometry":{"type":"Polygon","coordinates":[[[85.3427196,28.1628752],[85.3427285,28.1622977],[85.3437059,28.1623095],[85.3437015,28.1625983],[85.3430498,28.1625904],[85.3430454,28.1628792],[85.3427196,28.1628752]]]},"properties":{"class":"direct_measurement_support"}},{"type":"Feature","geometry":{"type":"Polygon","coordinates":[[[85.3394659,28.162547],[85.3394704,28.1622583],[85.3397962,28.1622622],[85.3397917,28.1625509],[85.3394659,28.162547]]]},"properties":{"class":"direct_measurement_support"}},{"type":"Feature","geometry":{"type":"Polygon","coordinates":[[[85.3332665,28.1630493],[85.3332755,28.1624718],[85.3339271,28.1624797],[85.3339316,28.162191],[85.3342574,28.1621949],[85.3342529,28.1624837],[85.3345787,28.1624876],[85.3345877,28.1619102],[85.3355651,28.161922],[85.3355606,28.1622108],[85.3352348,28.1622068],[85.3352303,28.1624956],[85.3349045,28.1624916],[85.3349001,28.1627804],[85.3345742,28.1627764],[85.3345698,28.1630651],[85.3332665,28.1630493]]]},"properties":{"class":"direct_measurement_support"}},{"type":"Feature","geometry":{"type":"Polygon","coordinates":[[[85.3450092,28.1623253],[85.3450136,28.1620366],[85.3453394,28.1620405],[85.345335,28.1623292],[85.3450092,28.1623253]]]},"properties":{"class":"direct_measurement_support"}},{"type":"Feature","geometry":{"type":"Polygon","coordinates":[[[85.3459866,28.1623371],[85.345991,28.1620484],[85.3463168,28.1620523],[85.3463124,28.162341],[85.3459866,28.1623371]]]},"properties":{"class":"direct_measurement_support"}},{"type":"Feature","geometry":{"type":"Polygon","coordinates":[[[85.3388187,28.1622504],[85.3388276,28.1616729],[85.3394793,28.1616808],[85.3394704,28.1622583],[85.3388187,28.1622504]]]},"properties":{"class":"direct_measurement_support"}},{"type":"Feature","geometry":{"type":"Polygon","coordinates":[[[85.3300263,28.1618546],[85.3300308,28.1615659],[85.3303566,28.1615698],[85.3303521,28.1618586],[85.3300263,28.1618546]]]},"properties":{"class":"direct_measurement_support"}},{"type":"Feature","geometry":{"type":"Polygon","coordinates":[[[85.3316509,28.1621632],[85.3316554,28.1618745],[85.3313296,28.1618705],[85.331334,28.1615818],[85.3319857,28.1615897],[85.3319812,28.1618784],[85.332307,28.1618824],[85.3323025,28.1621712],[85.3316509,28.1621632]]]},"properties":{"class":"direct_measurement_support"}},{"type":"Feature","geometry":{"type":"Polygon","coordinates":[[[85.3381716,28.1619537],[85.338176,28.161665],[85.3385018,28.1616689],[85.3384974,28.1619577],[85.3381716,28.1619537]]]},"properties":{"class":"direct_measurement_support"}},{"type":"Feature","geometry":{"type":"Polygon","coordinates":[[[85.3303566,28.1615698],[85.3303611,28.1612811],[85.3306869,28.1612851],[85.3306914,28.1609963],[85.3310172,28.1610003],[85.3310082,28.1615778],[85.3303566,28.1615698]]]},"properties":{"class":"direct_measurement_support"}},{"type":"Feature","geometry":{"type":"Polygon","coordinates":[[[85.3326417,28.1613089],[85.3326462,28.1610201],[85.332972,28.1610241],[85.3329676,28.1613129],[85.3326417,28.1613089]]]},"properties":{"class":"direct_measurement_support"}},{"type":"Feature","geometry":{"type":"Polygon","coordinates":[[[85.328076,28.161542],[85.3280849,28.1609645],[85.3277591,28.1609606],[85.3277681,28.1603831],[85.3280939,28.160387],[85.3280894,28.1606758],[85.3290668,28.1606877],[85.3290713,28.160399],[85.3293971,28.1604029],[85.3293926,28.1606917],[85.3303701,28.1607036],[85.3303656,28.1609924],[85.3300398,28.1609884],[85.3300308,28.1615659],[85.3293792,28.1615579],[85.3293882,28.1609804],[85.3290624,28.1609765],[85.3290579,28.1612652],[85.3284063,28.1612573],[85.3284018,28.161546],[85.328076,28.161542]]]},"properties":{"class":"direct_measurement_support"}},{"type":"Feature","geometry":{"type":"Polygon","coordinates":[[[85.3362167,28.16193],[85.3362212,28.1616412],[85.3349179,28.1616254],[85.3349224,28.1613366],[85.3352482,28.1613406],[85.3352527,28.1610519],[85.3349269,28.1610479],[85.3349313,28.1607591],[85.3346055,28.1607552],[85.3346145,28.1601777],[85.3349403,28.1601817],[85.3349448,28.1598929],[85.3352706,28.1598969],[85.3352661,28.1601856],[85.3365693,28.1602015],[85.3365604,28.1607789],[85.3368862,28.1607829],[85.3368817,28.1610716],[85.3372075,28.1610756],[85.3371986,28.1616531],[85.3368728,28.1616491],[85.3368683,28.1619379],[85.3362167,28.16193]]]},"properties":{"class":"direct_measurement_support"}},{"type":"Feature","geometry":{"type":"Polygon","coordinates":[[[85.3356053,28.1593233],[85.3356098,28.1590346],[85.3359356,28.1590386],[85.3359311,28.1593273],[85.3356053,28.1593233]]]},"properties":{"class":"direct_measurement_support"}},{"type":"Feature","geometry":{"type":"Polygon","coordinates":[[[85.3352706,28.1598969],[85.335275,28.1596081],[85.3349492,28.1596042],[85.3349537,28.1593154],[85.3346279,28.1593115],[85.3346324,28.1590227],[85.3349582,28.1590267],[85.3349671,28.1584492],[85.3352929,28.1584532],[85.3352884,28.1587419],[85.3356142,28.1587459],[85.3356098,28.1590346],[85.335284,28.1590306],[85.3352795,28.1593194],[85.3356053,28.1593233],[85.3356008,28.1596121],[85.3359266,28.159616],[85.3359222,28.1599048],[85.3352706,28.1598969]]]},"properties":{"class":"direct_measurement_support"}},{"type":"Feature","geometry":{"type":"Polygon","coordinates":[[[85.3352929,28.1584532],[85.3352974,28.1581644],[85.3362748,28.1581763],[85.3362703,28.158465],[85.3352929,28.1584532]]]},"properties":{"class":"direct_measurement_support"}},{"type":"Feature","geometry":{"type":"Polygon","coordinates":[[[85.3330168,28.1581367],[85.3330213,28.1578479],[85.3333471,28.1578519],[85.3333426,28.1581406],[85.3330168,28.1581367]]]},"properties":{"class":"direct_measurement_support"}},{"type":"Feature","geometry":{"type":"Polygon","coordinates":[[[85.3326999,28.1575552],[85.3327044,28.1572665],[85.3330302,28.1572704],[85.3330257,28.1575592],[85.3326999,28.1575552]]]},"properties":{"class":"direct_measurement_support"}},{"type":"Feature","geometry":{"type":"Polygon","coordinates":[[[85.3333515,28.1575631],[85.333356,28.1572744],[85.3336818,28.1572784],[85.3336863,28.1569896],[85.3340121,28.1569936],[85.3340031,28.1575711],[85.3333515,28.1575631]]]},"properties":{"class":"direct_measurement_support"}},{"type":"Feature","geometry":{"type":"Polygon","coordinates":[[[85.3401933,28.1576462],[85.3402022,28.1570687],[85.340528,28.1570727],[85.3405191,28.1576502],[85.3401933,28.1576462]]]},"properties":{"class":"direct_measurement_support"}},{"type":"Feature","geometry":{"type":"Polygon","coordinates":[[[85.3375913,28.1573259],[85.3375958,28.1570371],[85.3379216,28.1570411],[85.3379261,28.1567523],[85.3382519,28.1567563],[85.3382429,28.1573338],[85.3375913,28.1573259]]]},"properties":{"class":"direct_measurement_support"}},{"type":"Feature","geometry":{"type":"Polygon","coordinates":[[[85.3382519,28.1567563],[85.3382563,28.1564675],[85.3385821,28.1564715],[85.3385777,28.1567602],[85.3382519,28.1567563]]]},"properties":{"class":"direct_measurement_support"}},{"type":"Feature","geometry":{"type":"Polygon","coordinates":[[[85.3385821,28.1564715],[85.3385866,28.1561828],[85.3389124,28.1561867],[85.3389079,28.1564755],[85.3385821,28.1564715]]]},"properties":{"class":"direct_measurement_support"}},{"type":"Feature","geometry":{"type":"Polygon","coordinates":[[[85.331727,28.1572546],[85.331736,28.1566771],[85.3310844,28.1566691],[85.3310889,28.1563804],[85.3307631,28.1563764],[85.330781,28.1552215],[85.3311068,28.1552254],[85.3310933,28.1560917],[85.3314191,28.1560956],[85.3314147,28.1563844],[85.3320662,28.1563923],[85.3320528,28.1572585],[85.331727,28.1572546]]]},"properties":{"class":"direct_measurement_support"}},{"type":"Feature","geometry":{"type":"Polygon","coordinates":[[[85.3359802,28.1561511],[85.3359847,28.1558624],[85.3363105,28.1558663],[85.336315,28.1555776],[85.3366407,28.1555815],[85.3366452,28.1552928],[85.336971,28.1552968],[85.3369621,28.1558742],[85.3366363,28.1558703],[85.3366318,28.156159],[85.3359802,28.1561511]]]},"properties":{"class":"direct_measurement_support"}},{"type":"Feature","geometry":{"type":"Polygon","coordinates":[[[85.3376181,28.1555934],[85.3376226,28.1553047],[85.3379484,28.1553086],[85.3379439,28.1555974],[85.3376181,28.1555934]]]},"properties":{"class":"direct_measurement_support"}},{"type":"Feature","geometry":{"type":"Polygon","coordinates":[[[85.3291521,28.1552016],[85.3291565,28.1549128],[85.3294823,28.1549168],[85.3294778,28.1552056],[85.3291521,28.1552016]]]},"properties":{"class":"direct_measurement_support"}},{"type":"Feature","geometry":{"type":"Polygon","coordinates":[[[85.3301339,28.1549248],[85.3301384,28.154636],[85.33079,28.154644],[85.3307855,28.1549327],[85.3301339,28.1549248]]]},"properties":{"class":"direct_measurement_support"}},{"type":"Feature","geometry":{"type":"Polygon","coordinates":[[[85.336971,28.1552968],[85.3369799,28.1547193],[85.3376315,28.1547272],[85.337636,28.1544384],[85.3379618,28.1544424],[85.3379528,28.1550199],[85.3373013,28.155012],[85.3372968,28.1553007],[85.336971,28.1552968]]]},"properties":{"class":"direct_measurement_support"}},{"type":"Feature","geometry":{"type":"Polygon","coordinates":[[[85.3311157,28.1546479],[85.3311202,28.1543592],[85.331446,28.1543632],[85.3314415,28.1546519],[85.3311157,28.1546479]]]},"properties":{"class":"direct_measurement_support"}},{"type":"Feature","geometry":{"type":"Polygon","coordinates":[[[85.3278624,28.1543195],[85.3278669,28.1540307],[85.3281926,28.1540347],[85.3281881,28.1543234],[85.3278624,28.1543195]]]},"properties":{"class":"direct_measurement_support"}},{"type":"Feature","geometry":{"type":"Polygon","coordinates":[[[85.3294823,28.1549168],[85.3294868,28.1546281],[85.329161,28.1546241],[85.3291655,28.1543354],[85.3285139,28.1543274],[85.3285274,28.1534612],[85.3282016,28.1534572],[85.3282061,28.1531685],[85.3291834,28.1531804],[85.32917,28.1540466],[85.3298216,28.1540546],[85.3298171,28.1543433],[85.3301429,28.1543473],[85.3301384,28.154636],[85.3298126,28.154632],[85.3298081,28.1549208],[85.3294823,28.1549168]]]},"properties":{"class":"direct_measurement_support"}},{"type":"Feature","geometry":{"type":"Polygon","coordinates":[[[85.3278803,28.1531645],[85.3278848,28.1528757],[85.3282106,28.1528797],[85.3282061,28.1531685],[85.3278803,28.1531645]]]},"properties":{"class":"direct_measurement_support"}},{"type":"Feature","geometry":{"type":"Polygon","coordinates":[[[85.3259391,28.1522744],[85.3259436,28.1519856],[85.3262694,28.1519896],[85.3262649,28.1522784],[85.3259391,28.1522744]]]},"properties":{"class":"direct_measurement_support"}},{"type":"Feature","geometry":{"type":"Polygon","coordinates":[[[85.3275725,28.1520055],[85.327577,28.1517168],[85.3279027,28.1517208],[85.3278983,28.1520095],[85.3275725,28.1520055]]]},"properties":{"class":"direct_measurement_support"}},{"type":"Feature","geometry":{"type":"Polygon","coordinates":[[[85.3272512,28.1517128],[85.3272557,28.1514241],[85.3275815,28.151428],[85.327577,28.1517168],[85.3272512,28.1517128]]]},"properties":{"class":"direct_measurement_support"}},{"type":"Feature","geometry":{"type":"Polygon","coordinates":[[[85.3249708,28.1516849],[85.3249797,28.1511075],[85.3253055,28.1511114],[85.3252965,28.1516889],[85.3249708,28.1516849]]]},"properties":{"class":"direct_measurement_support"}},{"type":"Feature","geometry":{"type":"Polygon","coordinates":[[[85.3161929,28.1504221],[85.3161974,28.1501334],[85.3168489,28.1501414],[85.3168534,28.1498527],[85.317505,28.1498607],[85.3175005,28.1501494],[85.3171747,28.1501454],[85.3171702,28.1504341],[85.3161929,28.1504221]]]},"properties":{"class":"direct_measurement_support"}},{"type":"Feature","geometry":{"type":"Polygon","coordinates":[[[85.3243417,28.1502333],[85.3243462,28.1499445],[85.3246719,28.1499485],[85.3246675,28.1502372],[85.3243417,28.1502333]]]},"properties":{"class":"direct_measurement_support"}},{"type":"Feature","geometry":{"type":"Polygon","coordinates":[[[85.3158761,28.1498406],[85.3158806,28.1495519],[85.3162064,28.1495559],[85.3162019,28.1498446],[85.3158761,28.1498406]]]},"properties":{"class":"direct_measurement_support"}},{"type":"Feature","geometry":{"type":"Polygon","coordinates":[[[85.3279297,28.1499883],[85.3279342,28.1496996],[85.3282599,28.1497035],[85.3282554,28.1499923],[85.3279297,28.1499883]]]},"properties":{"class":"direct_measurement_support"}},{"type":"Feature","geometry":{"type":"Polygon","coordinates":[[[85.3220568,28.1504941],[85.3220613,28.1502053],[85.3217355,28.1502013],[85.32174,28.1499126],[85.3214142,28.1499086],[85.3214187,28.1496199],[85.321093,28.1496159],[85.3210975,28.1493271],[85.321749,28.1493351],[85.3217445,28.1496239],[85.3220703,28.1496279],[85.3220658,28.1499166],[85.3223915,28.1499206],[85.322387,28.1502093],[85.3227128,28.1502133],[85.3227083,28.1505021],[85.3220568,28.1504941]]]},"properties":{"class":"direct_measurement_support"}},{"type":"Feature","geometry":{"type":"Polygon","coordinates":[[[85.321102,28.1490384],[85.3211065,28.1487497],[85.3207807,28.1487457],[85.3207852,28.1484569],[85.3214368,28.1484649],[85.3214277,28.1490424],[85.321102,28.1490384]]]},"properties":{"class":"direct_measurement_support"}},{"type":"Feature","geometry":{"type":"Polygon","coordinates":[[[85.3240384,28.1487856],[85.3240429,28.1484968],[85.3243687,28.1485008],[85.3243642,28.1487895],[85.3240384,28.1487856]]]},"properties":{"class":"direct_measurement_support"}},{"type":"Feature","geometry":{"type":"Polygon","coordinates":[[[85.3204594,28.1484529],[85.320464,28.1481642],[85.3207897,28.1481682],[85.3207852,28.1484569],[85.3204594,28.1484529]]]},"properties":{"class":"direct_measurement_support"}},{"type":"Feature","geometry":{"type":"Polygon","coordinates":[[[85.3204459,28.1493192],[85.3204504,28.1490304],[85.3201247,28.1490264],[85.3201292,28.1487377],[85.3194776,28.1487297],[85.3194822,28.1484409],[85.3185049,28.1484289],[85.3185184,28.1475627],[85.3188441,28.1475667],[85.3188351,28.1481442],[85.3191609,28.1481482],[85.3191654,28.1478595],[85.3194912,28.1478635],[85.3194867,28.1481522],[85.3201382,28.1481602],[85.3201337,28.1484489],[85.3204594,28.1484529],[85.3204549,28.1487417],[85.3207807,28.1487457],[85.3207762,28.1490344],[85.321102,28.1490384],[85.3210975,28.1493271],[85.3204459,28.1493192]]]},"properties":{"class":"direct_measurement_support"}},{"type":"Feature","geometry":{"type":"Polygon","coordinates":[[[85.3237171,28.1484928],[85.3237216,28.1482041],[85.3233959,28.1482001],[85.3234093,28.1473339],[85.3237351,28.1473379],[85.3237306,28.1476266],[85.3240564,28.1476306],[85.3240429,28.1484968],[85.3237171,28.1484928]]]},"properties":{"class":"direct_measurement_support"}},{"type":"Feature","geometry":{"type":"Polygon","coordinates":[[[85.3198214,28.1475787],[85.3198259,28.14729],[85.3201517,28.147294],[85.3201472,28.1475827],[85.3198214,28.1475787]]]},"properties":{"class":"direct_measurement_support"}},{"type":"Feature","geometry":{"type":"Polygon","coordinates":[[[85.3175411,28.1475507],[85.3175501,28.1469732],[85.3182016,28.1469812],[85.3181926,28.1475587],[85.3175411,28.1475507]]]},"properties":{"class":"direct_measurement_support"}},{"type":"Feature","geometry":{"type":"Polygon","coordinates":[[[85.321129,28.1473059],[85.3211335,28.1470172],[85.3214593,28.1470212],[85.3214548,28.1473099],[85.321129,28.1473059]]]},"properties":{"class":"direct_measurement_support"}},{"type":"Feature","geometry":{"type":"Polygon","coordinates":[[[85.3168986,28.1469652],[85.3169076,28.1463877],[85.3175592,28.1463957],[85.3175501,28.1469732],[85.3168986,28.1469652]]]},"properties":{"class":"direct_measurement_support"}},{"type":"Feature","geometry":{"type":"Polygon","coordinates":[[[85.3178804,28.1466885],[85.3178849,28.1463997],[85.3182107,28.1464037],[85.3182062,28.1466925],[85.3178804,28.1466885]]]},"properties":{"class":"direct_measurement_support"}},{"type":"Feature","geometry":{"type":"Polygon","coordinates":[[[85.3165819,28.1463837],[85.3165864,28.146095],[85.3169121,28.146099],[85.3169076,28.1463877],[85.3165819,28.1463837]]]},"properties":{"class":"direct_measurement_support"}},{"type":"Feature","geometry":{"type":"Polygon","coordinates":[[[85.3156091,28.146083],[85.3156136,28.1457942],[85.3159394,28.1457982],[85.3159349,28.146087],[85.3156091,28.146083]]]},"properties":{"class":"direct_measurement_support"}},{"type":"Feature","geometry":{"type":"Polygon","coordinates":[[[85.3146318,28.146071],[85.3146364,28.1457822],[85.3149621,28.1457862],[85.3149666,28.1454975],[85.3156181,28.1455055],[85.3156136,28.1457942],[85.3152879,28.1457902],[85.3152834,28.146079],[85.3146318,28.146071]]]},"properties":{"class":"direct_measurement_support"}},{"type":"Feature","geometry":{"type":"Polygon","coordinates":[[[85.3165909,28.1458063],[85.3165954,28.1455175],[85.3169212,28.1455215],[85.3169167,28.1458103],[85.3165909,28.1458063]]]},"properties":{"class":"direct_measurement_support"}},{"type":"Feature","geometry":{"type":"Polygon","coordinates":[[[85.3143151,28.1454895],[85.3143196,28.1452007],[85.3146454,28.1452047],[85.3146409,28.1454935],[85.3143151,28.1454895]]]},"properties":{"class":"direct_measurement_support"}},{"type":"Feature","geometry":{"type":"Polygon","coordinates":[[[85.3188757,28.1455455],[85.3188802,28.1452568],[85.319206,28.1452608],[85.3192015,28.1455495],[85.3188757,28.1455455]]]},"properties":{"class":"direct_measurement_support"}},{"type":"Feature","geometry":{"type":"Polygon","coordinates":[[[85.3195272,28.1455535],[85.3195317,28.1452648],[85.3201833,28.1452728],[85.3201788,28.1455615],[85.3195272,28.1455535]]]},"properties":{"class":"direct_measurement_support"}},{"type":"Feature","geometry":{"type":"Polygon","coordinates":[[[85.3224546,28.1458782],[85.3224591,28.1455894],[85.3221333,28.1455855],[85.3221378,28.1452967],[85.3231151,28.1453087],[85.3231106,28.1455974],[85.3227848,28.1455934],[85.3227803,28.1458822],[85.3224546,28.1458782]]]},"properties":{"class":"direct_measurement_support"}},{"type":"Feature","geometry":{"type":"Polygon","coordinates":[[[85.3159394,28.1457982],[85.3159439,28.1455095],[85.3156181,28.1455055],[85.3156272,28.144928],[85.3159529,28.144932],[85.3159484,28.1452208],[85.3165999,28.1452288],[85.3165954,28.1455175],[85.3162697,28.1455135],[85.3162651,28.1458023],[85.3159394,28.1457982]]]},"properties":{"class":"direct_measurement_support"}},{"type":"Feature","geometry":{"type":"Polygon","coordinates":[[[85.3146454,28.1452047],[85.3146499,28.144916],[85.3149757,28.14492],[85.3149712,28.1452087],[85.3146454,28.1452047]]]},"properties":{"class":"direct_measurement_support"}},{"type":"Feature","geometry":{"type":"Polygon","coordinates":[[[85.3231151,28.1453087],[85.3231196,28.1450199],[85.3234453,28.1450239],[85.3234408,28.1453127],[85.3231151,28.1453087]]]},"properties":{"class":"direct_measurement_support"}},{"type":"Feature","geometry":{"type":"Polygon","coordinates":[[[85.3224681,28.145012],[85.3224726,28.1447232],[85.3231241,28.1447312],[85.3231196,28.1450199],[85.3224681,28.145012]]]},"properties":{"class":"direct_measurement_support"}},{"type":"Feature","geometry":{"type":"Polygon","coordinates":[[[85.3130257,28.1446072],[85.3130302,28.1443185],[85.313356,28.1443225],[85.3133605,28.1440337],[85.3136862,28.1440377],[85.3136772,28.1446152],[85.3130257,28.1446072]]]},"properties":{"class":"direct_measurement_support"}},{"type":"Feature","geometry":{"type":"Polygon","coordinates":[[[85.3230521,28.1493511],[85.3230566,28.1490623],[85.322405,28.1490544],[85.3224276,28.1476106],[85.321776,28.1476027],[85.321785,28.1470252],[85.3214593,28.1470212],[85.3214638,28.1467324],[85.3217895,28.1467364],[85.321794,28.1464477],[85.3211425,28.1464397],[85.3211335,28.1470172],[85.3208077,28.1470132],[85.3208168,28.1464357],[85.320491,28.1464317],[85.3205045,28.1455655],[85.3208303,28.1455695],[85.3208258,28.1458582],[85.3211515,28.1458622],[85.3211605,28.1452847],[85.3208348,28.1452807],[85.3208393,28.144992],[85.3201878,28.144984],[85.3202013,28.1441178],[85.320527,28.1441218],[85.320536,28.1435443],[85.3208618,28.1435483],[85.3208663,28.1432595],[85.3215178,28.1432675],[85.3215133,28.1435563],[85.3221648,28.1435643],[85.3221603,28.143853],[85.3228118,28.143861],[85.3228028,28.1444385],[85.3224771,28.1444345],[85.3224816,28.1441457],[85.3221558,28.1441417],[85.3221513,28.1444305],[85.3218255,28.1444265],[85.321821,28.1447152],[85.3211695,28.1447073],[85.321165,28.144996],[85.3218165,28.145004],[85.3218075,28.1455815],[85.3221333,28.1455855],[85.3221288,28.1458742],[85.3224546,28.1458782],[85.3224366,28.1470332],[85.3227623,28.1470371],[85.3227578,28.1473259],[85.3230836,28.1473299],[85.3230611,28.1487736],[85.3237126,28.1487816],[85.3237036,28.1493591],[85.3230521,28.1493511]],[[85.3221063,28.1473179],[85.3224321,28.1473219],[85.3224366,28.1470332],[85.3221108,28.1470292],[85.3221063,28.1473179]],[[85.321147,28.146151],[85.3217985,28.1461589],[85.321803,28.1458702],[85.3211515,28.1458622],[85.321147,28.146151]]]},"properties":{"class":"direct_measurement_support"}},{"type":"Feature","geometry":{"type":"Polygon","coordinates":[[[85.3192466,28.1426621],[85.3192511,28.1423733],[85.3199026,28.1423813],[85.3198981,28.1426701],[85.3192466,28.1426621]]]},"properties":{"class":"direct_measurement_support"}},{"type":"Feature","geometry":{"type":"Polygon","coordinates":[[[85.3185996,28.1423654],[85.3186041,28.1420766],[85.3192556,28.1420846],[85.3192511,28.1423733],[85.3185996,28.1423654]]]},"properties":{"class":"direct_measurement_support"}},{"type":"Feature","geometry":{"type":"Polygon","coordinates":[[[85.3176268,28.1420646],[85.3176359,28.1414871],[85.3179616,28.1414911],[85.3179526,28.1420686],[85.3176268,28.1420646]]]},"properties":{"class":"direct_measurement_support"}},{"type":"Feature","geometry":{"type":"Polygon","coordinates":[[[85.3169889,28.1411904],[85.3169934,28.1409016],[85.3173192,28.1409056],[85.3173146,28.1411944],[85.3169889,28.1411904]]]},"properties":{"class":"direct_measurement_support"}},{"type":"Feature","geometry":{"type":"Polygon","coordinates":[[[85.3166677,28.1408976],[85.3166722,28.1406089],[85.3169979,28.1406129],[85.3169934,28.1409016],[85.3166677,28.1408976]]]},"properties":{"class":"direct_measurement_support"}},{"type":"Feature","geometry":{"type":"Polygon","coordinates":[[[85.3176449,28.1409096],[85.3176494,28.1406209],[85.3179752,28.1406249],[85.3179706,28.1409136],[85.3176449,28.1409096]]]},"properties":{"class":"direct_measurement_support"}},{"type":"Feature","geometry":{"type":"Polygon","coordinates":[[[85.3163464,28.1406049],[85.316351,28.1403162],[85.3166767,28.1403202],[85.3166722,28.1406089],[85.3163464,28.1406049]]]},"properties":{"class":"direct_measurement_support"}}]}
