{"type":"FeatureCollection","features":[{"type":"Feature","geometry":{"type":"Polygon","coordinates":[[[85.3657629,28.2547015],[85.3657673,28.2544128],[85.3651151,28.254405],[85.3651195,28.2541162],[85.3660978,28.2541279],[85.366089,28.2547054],[85.3657629,28.2547015]]]},"properties":{"class":"direct_measurement_support"}},{"type":"Feature","geometry":{"type":"Polygon","coordinates":[[[85.3664195,28.2544206],[85.3664239,28.2541318],[85.36675,28.2541357],[85.3667456,28.2544245],[85.3664195,28.2544206]]]},"properties":{"class":"direct_measurement_support"}},{"type":"Feature","geometry":{"type":"Polygon","coordinates":[[[85.3660978,28.2541279],[85.3661066,28.2535504],[85.3664327,28.2535543],[85.3664239,28.2541318],[85.3660978,28.2541279]]]},"properties":{"class":"direct_measurement_support"}},{"type":"Feature","geometry":{"type":"Polygon","coordinates":[[[85.3595848,28.2534723],[85.3595892,28.2531836],[85.3599153,28.2531875],[85.3599109,28.2534762],[85.3595848,28.2534723]]]},"properties":{"class":"direct_measurement_support"}},{"type":"Feature","geometry":{"type":"Polygon","coordinates":[[[85.3641677,28.252372],[85.3641721,28.2520833],[85.3644982,28.2520872],[85.3644938,28.252376],[85.3641677,28.252372]]]},"properties":{"class":"direct_measurement_support"}},{"type":"Feature","geometry":{"type":"Polygon","coordinates":[[[85.3687066,28.2541591],[85.368711,28.2538703],[85.3680588,28.2538626],[85.3680676,28.2532851],[85.3683937,28.253289],[85.3683981,28.2530002],[85.3687242,28.2530041],[85.3687285,28.2527154],[85.3693807,28.2527231],[85.3693763,28.2530119],[85.3697024,28.2530158],[85.3697112,28.2524383],[85.3700373,28.2524422],[85.3700461,28.2518647],[85.3706983,28.2518725],[85.3706939,28.2521612],[85.3703678,28.2521573],[85.3703546,28.2530236],[85.3706807,28.2530275],[85.3706675,28.2538937],[85.3693632,28.2538781],[85.3693719,28.2533006],[85.3690458,28.2532967],[85.3690327,28.254163],[85.3687066,28.2541591]]]},"properties":{"class":"direct_measurement_support"}},{"type":"Feature","geometry":{"type":"Polygon","coordinates":[[[85.3674462,28.2512561],[85.3674506,28.2509673],[85.3677767,28.2509712],[85.3677723,28.25126],[85.3674462,28.2512561]]]},"properties":{"class":"direct_measurement_support"}},{"type":"Feature","geometry":{"type":"Polygon","coordinates":[[[85.3671245,28.2509634],[85.3671289,28.2506747],[85.367455,28.2506786],[85.3674506,28.2509673],[85.3671245,28.2509634]]]},"properties":{"class":"direct_measurement_support"}},{"type":"Feature","geometry":{"type":"Polygon","coordinates":[[[85.3674638,28.2501011],[85.3674682,28.2498123],[85.3677943,28.2498162],[85.3677899,28.250105],[85.3674638,28.2501011]]]},"properties":{"class":"direct_measurement_support"}},{"type":"Feature","geometry":{"type":"Polygon","coordinates":[[[85.3667412,28.2547132],[85.3667456,28.2544245],[85.3670717,28.2544284],[85.3670761,28.2541396],[85.36675,28.2541357],[85.3667588,28.2535582],[85.3664327,28.2535543],[85.3664371,28.2532656],[85.366111,28.2532617],[85.3661154,28.2529729],[85.3657893,28.252969],[85.3657937,28.2526803],[85.3654676,28.2526764],[85.365472,28.2523877],[85.3657981,28.2523916],[85.3658025,28.2521028],[85.3654764,28.2520989],[85.3654809,28.2518102],[85.3651548,28.2518063],[85.3651504,28.252095],[85.3644982,28.2520872],[85.3645114,28.251221],[85.3648375,28.2512249],[85.3648507,28.2503586],[85.3651768,28.2503625],[85.3651856,28.2497851],[85.3655117,28.249789],[85.3655073,28.2500777],[85.3658334,28.2500816],[85.3658422,28.2495041],[85.3664943,28.2495119],[85.3664899,28.2498006],[85.3661638,28.2497967],[85.3661594,28.2500855],[85.3668116,28.2500933],[85.3668072,28.250382],[85.3664811,28.2503781],[85.3664591,28.2518219],[85.3667852,28.2518258],[85.3667808,28.2521145],[85.3671069,28.2521184],[85.3671025,28.2524071],[85.3667764,28.2524033],[85.366772,28.252692],[85.3674242,28.2526998],[85.367433,28.2521223],[85.3680852,28.2521301],[85.368072,28.2529963],[85.3674198,28.2529885],[85.3674154,28.2532773],[85.3677415,28.2532812],[85.3677371,28.2535699],[85.367411,28.253566],[85.3674066,28.2538548],[85.3680588,28.2538626],[85.3680544,28.2541513],[85.3683805,28.2541552],[85.3683761,28.2544439],[85.3677239,28.2544362],[85.3677195,28.2547249],[85.3667412,28.2547132]],[[85.3664371,28.2532656],[85.3670893,28.2532734],[85.3670937,28.2529846],[85.3664415,28.2529768],[85.3664371,28.2532656]],[[85.3658025,28.2521028],[85.3661286,28.2521067],[85.366133,28.251818],[85.3658069,28.2518141],[85.3658025,28.2521028]],[[85.3651592,28.2515175],[85.3654853,28.2515214],[85.3654897,28.2512327],[85.3651636,28.2512288],[85.3651592,28.2515175]]]},"properties":{"class":"direct_measurement_support"}},{"type":"Feature","geometry":{"type":"Polygon","coordinates":[[[85.3668248,28.2492271],[85.3668292,28.2489383],[85.3671553,28.2489422],[85.3671509,28.249231],[85.3668248,28.2492271]]]},"properties":{"class":"direct_measurement_support"}},{"type":"Feature","geometry":{"type":"Polygon","coordinates":[[[85.361282,28.2277897],[85.3612864,28.2275009],[85.3609604,28.227497],[85.3609648,28.2272083],[85.3616168,28.2272161],[85.361608,28.2277936],[85.361282,28.2277897]]]},"properties":{"class":"direct_measurement_support"}},{"type":"Feature","geometry":{"type":"Polygon","coordinates":[[[85.3609736,28.2266308],[85.3609825,28.2260533],[85.3613085,28.2260572],[85.3613129,28.2257685],[85.3616389,28.2257724],[85.3616301,28.2263499],[85.3619561,28.2263538],[85.3619517,28.2266425],[85.3609736,28.2266308]]]},"properties":{"class":"direct_measurement_support"}},{"type":"Feature","geometry":{"type":"Polygon","coordinates":[[[85.352881,28.2227792],[85.3528943,28.2219129],[85.3532203,28.2219169],[85.3532159,28.2222056],[85.3535419,28.2222095],[85.3535375,28.2224983],[85.3532115,28.2224944],[85.353207,28.2227831],[85.352881,28.2227792]]]},"properties":{"class":"direct_measurement_support"}},{"type":"Feature","geometry":{"type":"Polygon","coordinates":[[[85.3535419,28.2222095],[85.3535552,28.2213433],[85.3538812,28.2213472],[85.3538679,28.2222135],[85.3535419,28.2222095]]]},"properties":{"class":"direct_measurement_support"}},{"type":"Feature","geometry":{"type":"Polygon","coordinates":[[[85.3535685,28.2204771],[85.3535729,28.2201883],[85.3542249,28.2201962],[85.3542205,28.2204849],[85.3535685,28.2204771]]]},"properties":{"class":"direct_measurement_support"}},{"type":"Feature","geometry":{"type":"Polygon","coordinates":[[[85.3532469,28.2201844],[85.3532558,28.2196069],[85.3535818,28.2196108],[85.3535729,28.2201883],[85.3532469,28.2201844]]]},"properties":{"class":"direct_measurement_support"}},{"type":"Feature","geometry":{"type":"Polygon","coordinates":[[[85.3571676,28.219654],[85.3571721,28.2193652],[85.357824,28.219373],[85.3578196,28.2196618],[85.3571676,28.219654]]]},"properties":{"class":"direct_measurement_support"}},{"type":"Feature","geometry":{"type":"Polygon","coordinates":[[[85.3539033,28.2199035],[85.3539078,28.2196148],[85.3542337,28.2196187],[85.3542426,28.2190412],[85.3545686,28.2190451],[85.3545642,28.2193339],[85.3548902,28.2193378],[85.3548857,28.2196265],[85.3545597,28.2196226],[85.3545553,28.2199114],[85.3539033,28.2199035]]]},"properties":{"class":"direct_measurement_support"}},{"type":"Feature","geometry":{"type":"Polygon","coordinates":[[[85.3555333,28.2199231],[85.3555466,28.2190569],[85.3545686,28.2190451],[85.3545774,28.2184676],[85.3549034,28.2184715],[85.354899,28.2187603],[85.355225,28.2187642],[85.3552294,28.2184755],[85.3555554,28.2184794],[85.355551,28.2187681],[85.355877,28.2187721],[85.3558725,28.2190608],[85.3565245,28.2190686],[85.3565201,28.2193574],[85.3558681,28.2193495],[85.3558637,28.2196383],[85.3561897,28.2196422],[85.3561853,28.219931],[85.3555333,28.2199231]]]},"properties":{"class":"direct_measurement_support"}},{"type":"Feature","geometry":{"type":"Polygon","coordinates":[[[85.355877,28.2187721],[85.3558814,28.2184833],[85.3562074,28.2184872],[85.3562029,28.218776],[85.355877,28.2187721]]]},"properties":{"class":"direct_measurement_support"}},{"type":"Feature","geometry":{"type":"Polygon","coordinates":[[[85.3575378,28.2167704],[85.3575467,28.2161929],[85.3578726,28.2161968],[85.3578638,28.2167743],[85.3575378,28.2167704]]]},"properties":{"class":"direct_measurement_support"}},{"type":"Feature","geometry":{"type":"Polygon","coordinates":[[[85.3542913,28.215865],[85.3542957,28.2155763],[85.3546217,28.2155802],[85.3546173,28.2158689],[85.3542913,28.215865]]]},"properties":{"class":"direct_measurement_support"}},{"type":"Feature","geometry":{"type":"Polygon","coordinates":[[[85.3549433,28.2158728],[85.3549477,28.2155841],[85.3552737,28.215588],[85.3552692,28.2158768],[85.3549433,28.2158728]]]},"properties":{"class":"direct_measurement_support"}},{"type":"Feature","geometry":{"type":"Polygon","coordinates":[[[85.3559256,28.2155959],[85.35593,28.2153071],[85.356256,28.215311],[85.3562516,28.2155998],[85.3559256,28.2155959]]]},"properties":{"class":"direct_measurement_support"}},{"type":"Feature","geometry":{"type":"Polygon","coordinates":[[[85.3591854,28.215635],[85.3591898,28.2153463],[85.3595158,28.2153502],[85.3595114,28.2156389],[85.3591854,28.215635]]]},"properties":{"class":"direct_measurement_support"}},{"type":"Feature","geometry":{"type":"Polygon","coordinates":[[[85.3588771,28.2144761],[85.3588815,28.2141874],[85.3592075,28.2141913],[85.359203,28.21448],[85.3588771,28.2144761]]]},"properties":{"class":"direct_measurement_support"}},{"type":"Feature","geometry":{"type":"Polygon","coordinates":[[[85.3543179,28.2141325],[85.3543223,28.2138438],[85.3546483,28.2138477],[85.3546439,28.2141365],[85.3543179,28.2141325]]]},"properties":{"class":"direct_measurement_support"}},{"type":"Feature","geometry":{"type":"Polygon","coordinates":[[[85.3579124,28.2135981],[85.3579168,28.2133094],[85.3582428,28.2133133],[85.3582384,28.213602],[85.3579124,28.2135981]]]},"properties":{"class":"direct_measurement_support"}},{"type":"Feature","geometry":{"type":"Polygon","coordinates":[[[85.358582,28.212451],[85.3585864,28.2121622],[85.3589124,28.2121661],[85.358908,28.2124549],[85.358582,28.212451]]]},"properties":{"class":"direct_measurement_support"}},{"type":"Feature","geometry":{"type":"Polygon","coordinates":[[[85.3543533,28.2118226],[85.3543577,28.2115338],[85.3546837,28.2115377],[85.3546881,28.211249],[85.3550141,28.2112529],[85.3550052,28.2118304],[85.3543533,28.2118226]]]},"properties":{"class":"direct_measurement_support"}},{"type":"Feature","geometry":{"type":"Polygon","coordinates":[[[85.3520849,28.2109289],[85.3520893,28.2106401],[85.3524152,28.2106441],[85.3524108,28.2109328],[85.3520849,28.2109289]]]},"properties":{"class":"direct_measurement_support"}},{"type":"Feature","geometry":{"type":"Polygon","coordinates":[[[85.3559831,28.2118422],[85.3559964,28.2109759],[85.3556704,28.210972],[85.3556749,28.2106833],[85.3563268,28.2106911],[85.3563091,28.2118461],[85.3559831,28.2118422]]]},"properties":{"class":"direct_measurement_support"}},{"type":"Feature","geometry":{"type":"Polygon","coordinates":[[[85.3533931,28.2106558],[85.3533976,28.2103671],[85.3537235,28.210371],[85.3537191,28.2106597],[85.3533931,28.2106558]]]},"properties":{"class":"direct_measurement_support"}},{"type":"Feature","geometry":{"type":"Polygon","coordinates":[[[85.3524152,28.2106441],[85.3524241,28.2100666],[85.3527501,28.2100705],[85.3527456,28.2103592],[85.3530716,28.2103632],[85.3530672,28.2106519],[85.3524152,28.2106441]]]},"properties":{"class":"direct_measurement_support"}},{"type":"Feature","geometry":{"type":"Polygon","coordinates":[[[85.3556793,28.2103945],[85.3556837,28.2101058],[85.3560097,28.2101097],[85.3560052,28.2103984],[85.3556793,28.2103945]]]},"properties":{"class":"direct_measurement_support"}},{"type":"Feature","geometry":{"type":"Polygon","coordinates":[[[85.3543622,28.2112451],[85.3543754,28.2103788],[85.3540495,28.2103749],[85.3540628,28.2095087],[85.3543887,28.2095126],[85.3543843,28.2098014],[85.3547102,28.2098053],[85.3547014,28.2103828],[85.3550274,28.2103867],[85.3550185,28.2109642],[85.3546925,28.2109603],[85.3546881,28.211249],[85.3543622,28.2112451]]]},"properties":{"class":"direct_measurement_support"}},{"type":"Feature","geometry":{"type":"Polygon","coordinates":[[[85.353402,28.2100783],[85.3534064,28.2097896],[85.3530805,28.2097857],[85.3530849,28.2094969],[85.3537368,28.2095048],[85.3537279,28.2100823],[85.353402,28.2100783]]]},"properties":{"class":"direct_measurement_support"}},{"type":"Feature","geometry":{"type":"Polygon","coordinates":[[[85.3537368,28.2095048],[85.3537412,28.209216],[85.3540672,28.2092199],[85.3540628,28.2095087],[85.3537368,28.2095048]]]},"properties":{"class":"direct_measurement_support"}},{"type":"Feature","geometry":{"type":"Polygon","coordinates":[[[85.3580008,28.2078232],[85.3580052,28.2075345],[85.3583311,28.2075384],[85.3583267,28.2078271],[85.3580008,28.2078232]]]},"properties":{"class":"direct_measurement_support"}},{"type":"Feature","geometry":{"type":"Polygon","coordinates":[[[85.3586615,28.2072536],[85.3586659,28.2069648],[85.3589919,28.2069687],[85.3589874,28.2072575],[85.3586615,28.2072536]]]},"properties":{"class":"direct_measurement_support"}},{"type":"Feature","geometry":{"type":"Polygon","coordinates":[[[85.3541292,28.2051775],[85.354138,28.2046],[85.354464,28.2046039],[85.3544551,28.2051814],[85.3541292,28.2051775]]]},"properties":{"class":"direct_measurement_support"}},{"type":"Feature","geometry":{"type":"Polygon","coordinates":[[[85.3461407,28.1946844],[85.3461451,28.1943957],[85.3467969,28.1944036],[85.3467925,28.1946923],[85.3461407,28.1946844]]]},"properties":{"class":"direct_measurement_support"}},{"type":"Feature","geometry":{"type":"Polygon","coordinates":[[[85.3471184,28.1946963],[85.3471273,28.1941188],[85.3477791,28.1941266],[85.3477747,28.1944154],[85.3474488,28.1944115],[85.3474443,28.1947002],[85.3471184,28.1946963]]]},"properties":{"class":"direct_measurement_support"}},{"type":"Feature","geometry":{"type":"Polygon","coordinates":[[[85.3468147,28.1932486],[85.3468192,28.1929599],[85.3471451,28.1929638],[85.3471406,28.1932525],[85.3468147,28.1932486]]]},"properties":{"class":"direct_measurement_support"}},{"type":"Feature","geometry":{"type":"Polygon","coordinates":[[[85.3448192,28.1958237],[85.3448237,28.1955349],[85.3444978,28.195531],[85.3445022,28.1952422],[85.3448281,28.1952462],[85.3448326,28.1949574],[85.3445067,28.1949535],[85.3445111,28.1946647],[85.3441852,28.1946608],[85.3441763,28.1952383],[85.3435245,28.1952304],[85.3435334,28.1946529],[85.3432075,28.194649],[85.3432119,28.1943602],[85.342886,28.1943563],[85.3428905,28.1940675],[85.3435423,28.1940754],[85.3435512,28.1934979],[85.3438771,28.1935019],[85.343886,28.1929244],[85.3442119,28.1929283],[85.3442164,28.1926396],[85.34552,28.1926554],[85.3455066,28.1935216],[85.3458326,28.1935255],[85.3458148,28.1946805],[85.3461407,28.1946844],[85.3461273,28.1955507],[85.3458014,28.1955467],[85.345797,28.1958355],[85.3448192,28.1958237]],[[85.3451496,28.1955389],[85.3454755,28.1955428],[85.34548,28.1952541],[85.3451541,28.1952501],[85.3451496,28.1955389]],[[85.3451585,28.1949614],[85.3454844,28.1949653],[85.3454889,28.1946766],[85.3451629,28.1946726],[85.3451585,28.1949614]]]},"properties":{"class":"direct_measurement_support"}},{"type":"Feature","geometry":{"type":"Polygon","coordinates":[[[85.3471495,28.192675],[85.347154,28.1923863],[85.3474799,28.1923902],[85.3474754,28.192679],[85.3471495,28.192675]]]},"properties":{"class":"direct_measurement_support"}},{"type":"Feature","geometry":{"type":"Polygon","coordinates":[[[85.3458503,28.1923706],[85.3458592,28.1917931],[85.3461851,28.191797],[85.3461896,28.1915083],[85.3468414,28.1915161],[85.3468325,28.1920936],[85.3461807,28.1920857],[85.3461762,28.1923745],[85.3458503,28.1923706]]]},"properties":{"class":"direct_measurement_support"}},{"type":"Feature","geometry":{"type":"Polygon","coordinates":[[[85.3455422,28.1912116],[85.3455511,28.1906341],[85.3462029,28.190642],[85.346194,28.1912195],[85.3455422,28.1912116]]]},"properties":{"class":"direct_measurement_support"}},{"type":"Feature","geometry":{"type":"Polygon","coordinates":[[[85.3448993,28.1906263],[85.3449038,28.1903375],[85.3452297,28.1903415],[85.3452341,28.1900527],[85.3458859,28.1900606],[85.3458815,28.1903493],[85.3455556,28.1903454],[85.3455511,28.1906341],[85.3448993,28.1906263]]]},"properties":{"class":"direct_measurement_support"}},{"type":"Feature","geometry":{"type":"Polygon","coordinates":[[[85.3481494,28.1912431],[85.3481539,28.1909544],[85.347828,28.1909504],[85.3478324,28.1906617],[85.3475065,28.1906578],[85.347511,28.190369],[85.3478369,28.190373],[85.3478413,28.1900842],[85.348819,28.190096],[85.3488101,28.1906735],[85.349136,28.1906774],[85.3491271,28.1912549],[85.3488012,28.191251],[85.3488057,28.1909622],[85.3484798,28.1909583],[85.3484753,28.1912471],[85.3481494,28.1912431]]]},"properties":{"class":"direct_measurement_support"}},{"type":"Feature","geometry":{"type":"Polygon","coordinates":[[[85.3390778,28.1876678],[85.3390823,28.187379],[85.3394082,28.187383],[85.3394037,28.1876717],[85.3390778,28.1876678]]]},"properties":{"class":"direct_measurement_support"}},{"type":"Feature","geometry":{"type":"Polygon","coordinates":[[[85.3475154,28.1900803],[85.3475198,28.1897915],[85.346868,28.1897837],[85.3468725,28.1894949],[85.3465466,28.189491],[85.346551,28.1892022],[85.3462251,28.1891983],[85.3462296,28.1889096],[85.3465555,28.1889135],[85.3465644,28.188336],[85.3468903,28.1883399],[85.3468947,28.1880512],[85.3465688,28.1880473],[85.3465733,28.1877585],[85.3459215,28.1877506],[85.3459304,28.1871731],[85.3462563,28.1871771],[85.3462518,28.1874658],[85.3469036,28.1874737],[85.3468991,28.1877624],[85.3475509,28.1877703],[85.347542,28.1883478],[85.3478679,28.1883517],[85.3478635,28.1886405],[85.3481894,28.1886444],[85.3481761,28.1895107],[85.3478502,28.1895067],[85.3478413,28.1900842],[85.3475154,28.1900803]]]},"properties":{"class":"direct_measurement_support"}},{"type":"Feature","geometry":{"type":"Polygon","coordinates":[[[85.3517919,28.1875327],[85.3517964,28.1872439],[85.3521223,28.1872478],[85.3521178,28.1875366],[85.3517919,28.1875327]]]},"properties":{"class":"direct_measurement_support"}},{"type":"Feature","geometry":{"type":"Polygon","coordinates":[[[85.3442965,28.1874422],[85.3443054,28.1868647],[85.3446313,28.1868686],[85.3446224,28.1874461],[85.3442965,28.1874422]]]},"properties":{"class":"direct_measurement_support"}},{"type":"Feature","geometry":{"type":"Polygon","coordinates":[[[85.3407206,28.1868213],[85.3407251,28.1865325],[85.341051,28.1865365],[85.3410465,28.1868252],[85.3407206,28.1868213]]]},"properties":{"class":"direct_measurement_support"}},{"type":"Feature","geometry":{"type":"Polygon","coordinates":[[[85.3518008,28.1869552],[85.3518052,28.1866664],[85.3521311,28.1866703],[85.3521267,28.1869591],[85.3518008,28.1869552]]]},"properties":{"class":"direct_measurement_support"}},{"type":"Feature","geometry":{"type":"Polygon","coordinates":[[[85.3524526,28.186963],[85.352457,28.1866743],[85.3527829,28.1866782],[85.3527785,28.1869669],[85.3524526,28.186963]]]},"properties":{"class":"direct_measurement_support"}},{"type":"Feature","geometry":{"type":"Polygon","coordinates":[[[85.3390957,28.1865128],[85.3391001,28.186224],[85.339426,28.186228],[85.3394215,28.1865167],[85.3390957,28.1865128]]]},"properties":{"class":"direct_measurement_support"}},{"type":"Feature","geometry":{"type":"Polygon","coordinates":[[[85.3469169,28.1866075],[85.3469258,28.18603],[85.3475776,28.1860378],[85.3475687,28.1866153],[85.3469169,28.1866075]]]},"properties":{"class":"direct_measurement_support"}},{"type":"Feature","geometry":{"type":"Polygon","coordinates":[[[85.3428994,28.19349],[85.3429038,28.1932013],[85.3425779,28.1931974],[85.3425824,28.1929086],[85.3422565,28.1929047],[85.3422609,28.1926159],[85.341935,28.192612],[85.3419395,28.1923232],[85.3416136,28.1923193],[85.3416181,28.1920305],[85.3412922,28.1920266],[85.3413011,28.1914491],[85.3409752,28.1914451],[85.3409796,28.1911564],[85.3406537,28.1911524],[85.3406626,28.190575],[85.3403368,28.190571],[85.3403546,28.189416],[85.3400287,28.1894121],[85.3400332,28.1891233],[85.3403591,28.1891273],[85.3403635,28.1888385],[85.3400376,28.1888346],[85.3400421,28.1885458],[85.3397162,28.1885419],[85.3397207,28.1882531],[85.3393948,28.1882492],[85.3394037,28.1876717],[85.3397296,28.1876757],[85.3397385,28.1870982],[85.3400644,28.1871021],[85.3400555,28.1876796],[85.3403814,28.1876836],[85.3403858,28.1873948],[85.3407117,28.1873988],[85.3407162,28.18711],[85.3410421,28.187114],[85.3410465,28.1868252],[85.3413724,28.1868292],[85.3413813,28.1862517],[85.3420331,28.1862596],[85.342042,28.1856821],[85.3423679,28.1856861],[85.3423634,28.1859748],[85.3426893,28.1859787],[85.3426848,28.1862675],[85.342359,28.1862635],[85.3423545,28.1865523],[85.3420286,28.1865483],[85.3420242,28.1868371],[85.3423501,28.186841],[85.3423367,28.1877073],[85.3429885,28.1877152],[85.3429929,28.1874264],[85.3433188,28.1874304],[85.3433144,28.1877191],[85.3436402,28.187723],[85.3436447,28.1874343],[85.3439706,28.1874382],[85.3439572,28.1883045],[85.3442831,28.1883084],[85.3442742,28.1888859],[85.3446001,28.1888899],[85.3445957,28.1891786],[85.3449216,28.1891825],[85.3449171,28.1894713],[85.3445912,28.1894673],[85.3445734,28.1906223],[85.3448993,28.1906263],[85.3448904,28.1912038],[85.3455422,28.1912116],[85.3455378,28.1915004],[85.3452119,28.1914964],[85.3451985,28.1923627],[85.3438949,28.1923469],[85.3438905,28.1926356],[85.3432387,28.1926278],[85.3432342,28.1929165],[85.3435601,28.1929204],[85.3435557,28.1932092],[85.3432298,28.1932052],[85.3432253,28.193494],[85.3428994,28.19349]],[[85.3429172,28.1923351],[85.3432431,28.192339],[85.3432476,28.1920503],[85.3429217,28.1920463],[85.3429172,28.1923351]],[[85.3432476,28.1920503],[85.3435735,28.1920542],[85.3435779,28.1917655],[85.343252,28.1917615],[85.3432476,28.1920503]],[[85.3429261,28.1917576],[85.343252,28.1917615],[85.3432565,28.1914728],[85.3429306,28.1914688],[85.3429261,28.1917576]],[[85.3426047,28.1914649],[85.3429306,28.1914688],[85.342935,28.1911801],[85.3426091,28.1911761],[85.3426047,28.1914649]],[[85.3445601,28.1914886],[85.344886,28.1914925],[85.3448904,28.1912038],[85.3445645,28.1911998],[85.3445601,28.1914886]],[[85.342935,28.1911801],[85.3435868,28.191188],[85.3435913,28.1908992],[85.3429395,28.1908913],[85.342935,28.1911801]],[[85.3422877,28.1908835],[85.3426136,28.1908874],[85.342618,28.1905987],[85.3422921,28.1905947],[85.3422877,28.1908835]],[[85.3432698,28.1906065],[85.3435957,28.1906105],[85.3436002,28.1903217],[85.3432743,28.1903178],[85.3432698,28.1906065]],[[85.3419707,28.190302],[85.3422966,28.190306],[85.342301,28.1900172],[85.3419752,28.1900133],[85.3419707,28.190302]],[[85.3436091,28.1897443],[85.343935,28.1897482],[85.3439394,28.1894595],[85.3436135,28.1894555],[85.3436091,28.1897443]],[[85.3413501,28.1882729],[85.341676,28.1882769],[85.3416805,28.1879881],[85.3423322,28.187996],[85.3423367,28.1877073],[85.341359,28.1876954],[85.3413501,28.1882729]]]},"properties":{"class":"direct_measurement_support"}},{"type":"Feature","geometry":{"type":"Polygon","coordinates":[[[85.3407385,28.1856663],[85.3407429,28.1853776],[85.3410688,28.1853815],[85.3410643,28.1856703],[85.3407385,28.1856663]]]},"properties":{"class":"direct_measurement_support"}},{"type":"Feature","geometry":{"type":"Polygon","coordinates":[[[85.3413902,28.1856742],[85.3413947,28.1853855],[85.3417206,28.1853894],[85.3417161,28.1856782],[85.3413902,28.1856742]]]},"properties":{"class":"direct_measurement_support"}},{"type":"Feature","geometry":{"type":"Polygon","coordinates":[[[85.3423679,28.1856861],[85.3423723,28.1853973],[85.3426982,28.1854013],[85.3426938,28.18569],[85.3423679,28.1856861]]]},"properties":{"class":"direct_measurement_support"}},{"type":"Feature","geometry":{"type":"Polygon","coordinates":[[[85.339426,28.186228],[85.3394305,28.1859392],[85.3391046,28.1859353],[85.339109,28.1856465],[85.3387832,28.1856426],[85.3387876,28.1853538],[85.3394394,28.1853618],[85.3394439,28.185073],[85.3397697,28.185077],[85.3397608,28.1856545],[85.3400867,28.1856584],[85.3400822,28.1859472],[85.3397563,28.1859432],[85.3397519,28.1862319],[85.339426,28.186228]]]},"properties":{"class":"direct_measurement_support"}},{"type":"Feature","geometry":{"type":"Polygon","coordinates":[[[85.3449616,28.1865838],[85.3449705,28.1860063],[85.3446446,28.1860024],[85.3446491,28.1857137],[85.3453008,28.1857215],[85.3453053,28.1854328],[85.3449794,28.1854289],[85.3449838,28.1851401],[85.3456356,28.185148],[85.3456267,28.1857255],[85.3459526,28.1857294],[85.3459437,28.1863069],[85.3462696,28.1863109],[85.3462651,28.1865996],[85.3449616,28.1865838]]]},"properties":{"class":"direct_measurement_support"}},{"type":"Feature","geometry":{"type":"Polygon","coordinates":[[[85.3397697,28.185077],[85.3397742,28.1847882],[85.340426,28.1847961],[85.3404215,28.1850849],[85.3397697,28.185077]]]},"properties":{"class":"direct_measurement_support"}},{"type":"Feature","geometry":{"type":"Polygon","coordinates":[[[85.3410733,28.1850928],[85.3410777,28.184804],[85.3414036,28.184808],[85.3413991,28.1850967],[85.3410733,28.1850928]]]},"properties":{"class":"direct_measurement_support"}},{"type":"Feature","geometry":{"type":"Polygon","coordinates":[[[85.3374975,28.1844718],[85.337502,28.184183],[85.3378279,28.184187],[85.3378234,28.1844757],[85.3374975,28.1844718]]]},"properties":{"class":"direct_measurement_support"}},{"type":"Feature","geometry":{"type":"Polygon","coordinates":[[[85.3443321,28.1851322],[85.344341,28.1845547],[85.3440151,28.1845508],[85.344024,28.1839733],[85.3446757,28.1839812],[85.3446669,28.1845587],[85.3453186,28.1845666],[85.3453142,28.1848553],[85.3449883,28.1848514],[85.3449838,28.1851401],[85.3443321,28.1851322]]]},"properties":{"class":"direct_measurement_support"}},{"type":"Feature","geometry":{"type":"Polygon","coordinates":[[[85.3430419,28.1842502],[85.3430464,28.1839615],[85.3433722,28.1839654],[85.3433678,28.1842542],[85.3430419,28.1842502]]]},"properties":{"class":"direct_measurement_support"}},{"type":"Feature","geometry":{"type":"Polygon","coordinates":[[[85.3449972,28.1842739],[85.3450016,28.1839851],[85.3453275,28.1839891],[85.3453231,28.1842778],[85.3449972,28.1842739]]]},"properties":{"class":"direct_measurement_support"}},{"type":"Feature","geometry":{"type":"Polygon","coordinates":[[[85.348256,28.1843132],[85.3482604,28.1840245],[85.3485863,28.1840284],[85.3485907,28.1837397],[85.3492425,28.1837475],[85.349238,28.1840363],[85.3489122,28.1840324],[85.3489077,28.1843211],[85.348256,28.1843132]]]},"properties":{"class":"direct_measurement_support"}},{"type":"Feature","geometry":{"type":"Polygon","coordinates":[[[85.3427205,28.1839575],[85.3427294,28.18338],[85.3430553,28.183384],[85.3430464,28.1839615],[85.3427205,28.1839575]]]},"properties":{"class":"direct_measurement_support"}},{"type":"Feature","geometry":{"type":"Polygon","coordinates":[[[85.3443543,28.1836885],[85.3443588,28.1833998],[85.3450105,28.1834076],[85.3450061,28.1836964],[85.3443543,28.1836885]]]},"properties":{"class":"direct_measurement_support"}},{"type":"Feature","geometry":{"type":"Polygon","coordinates":[[[85.3492425,28.1837475],[85.3492469,28.1834588],[85.3495728,28.1834627],[85.3495684,28.1837515],[85.3492425,28.1837475]]]},"properties":{"class":"direct_measurement_support"}},{"type":"Feature","geometry":{"type":"Polygon","coordinates":[[[85.3453408,28.1831228],[85.3453453,28.1828341],[85.3456712,28.182838],[85.3456667,28.1831268],[85.3453408,28.1831228]]]},"properties":{"class":"direct_measurement_support"}},{"type":"Feature","geometry":{"type":"Polygon","coordinates":[[[85.3365467,28.1827275],[85.3365556,28.18215],[85.3368815,28.1821539],[85.3368726,28.1827314],[85.3365467,28.1827275]]]},"properties":{"class":"direct_measurement_support"}},{"type":"Feature","geometry":{"type":"Polygon","coordinates":[[[85.3391581,28.1824704],[85.3391626,28.1821816],[85.3394885,28.1821856],[85.339484,28.1824743],[85.3391581,28.1824704]]]},"properties":{"class":"direct_measurement_support"}},{"type":"Feature","geometry":{"type":"Polygon","coordinates":[[[85.339801,28.1830558],[85.3398054,28.182767],[85.3394795,28.1827631],[85.339484,28.1824743],[85.3401358,28.1824822],[85.3401447,28.1819047],[85.3404705,28.1819087],[85.340475,28.1816199],[85.3411267,28.1816278],[85.3411223,28.1819166],[85.341774,28.1819245],[85.3417696,28.1822132],[85.3414437,28.1822093],[85.3414392,28.182498],[85.3411134,28.1824941],[85.3411178,28.1822053],[85.340792,28.1822014],[85.340783,28.1827789],[85.3401313,28.182771],[85.3401268,28.1830597],[85.339801,28.1830558]]]},"properties":{"class":"direct_measurement_support"}},{"type":"Feature","geometry":{"type":"Polygon","coordinates":[[[85.341774,28.1819245],[85.3417785,28.1816357],[85.3421044,28.1816397],[85.3420999,28.1819284],[85.341774,28.1819245]]]},"properties":{"class":"direct_measurement_support"}},{"type":"Feature","geometry":{"type":"Polygon","coordinates":[[[85.3437337,28.1816594],[85.3437382,28.1813707],[85.344064,28.1813746],[85.3440596,28.1816634],[85.3437337,28.1816594]]]},"properties":{"class":"direct_measurement_support"}},{"type":"Feature","geometry":{"type":"Polygon","coordinates":[[[85.3414526,28.1816318],[85.3414571,28.181343],[85.3411312,28.1813391],[85.3411357,28.1810504],[85.3421133,28.1810622],[85.3421088,28.1813509],[85.3417829,28.181347],[85.3417785,28.1816357],[85.3414526,28.1816318]]]},"properties":{"class":"direct_measurement_support"}},{"type":"Feature","geometry":{"type":"Polygon","coordinates":[[[85.3466666,28.1816949],[85.3466799,28.1808286],[85.3470058,28.1808326],[85.3469924,28.1816988],[85.3466666,28.1816949]]]},"properties":{"class":"direct_measurement_support"}},{"type":"Feature","geometry":{"type":"Polygon","coordinates":[[[85.3483048,28.181137],[85.3483137,28.1805596],[85.3486395,28.1805635],[85.3486307,28.181141],[85.3483048,28.181137]]]},"properties":{"class":"direct_measurement_support"}},{"type":"Feature","geometry":{"type":"Polygon","coordinates":[[[85.3447247,28.180805],[85.3447291,28.1805163],[85.345055,28.1805202],[85.3450505,28.1808089],[85.3447247,28.180805]]]},"properties":{"class":"direct_measurement_support"}},{"type":"Feature","geometry":{"type":"Polygon","coordinates":[[[85.3421133,28.1810622],[85.3421222,28.1804847],[85.3417963,28.1804808],[85.3418008,28.180192],[85.3421266,28.180196],[85.3421311,28.1799072],[85.342457,28.1799112],[85.3424614,28.1796224],[85.3431131,28.1796303],[85.3431042,28.1802078],[85.3427784,28.1802039],[85.3427739,28.1804926],[85.3430998,28.1804965],[85.3430953,28.1807853],[85.3427695,28.1807813],[85.342765,28.1810701],[85.3421133,28.1810622]]]},"properties":{"class":"direct_measurement_support"}},{"type":"Feature","geometry":{"type":"Polygon","coordinates":[[[85.3418097,28.1796145],[85.3418141,28.1793258],[85.34214,28.1793297],[85.3421355,28.1796185],[85.3418097,28.1796145]]]},"properties":{"class":"direct_measurement_support"}},{"type":"Feature","geometry":{"type":"Polygon","coordinates":[[[85.3431131,28.1796303],[85.343122,28.1790528],[85.3434479,28.1790568],[85.343439,28.1796343],[85.3431131,28.1796303]]]},"properties":{"class":"direct_measurement_support"}},{"type":"Feature","geometry":{"type":"Polygon","coordinates":[[[85.3440952,28.1793534],[85.3440996,28.1790647],[85.3444255,28.1790686],[85.344421,28.1793573],[85.3440952,28.1793534]]]},"properties":{"class":"direct_measurement_support"}},{"type":"Feature","geometry":{"type":"Polygon","coordinates":[[[85.3424659,28.1793337],[85.3424748,28.1787562],[85.3428006,28.1787601],[85.3427917,28.1793376],[85.3424659,28.1793337]]]},"properties":{"class":"direct_measurement_support"}},{"type":"Feature","geometry":{"type":"Polygon","coordinates":[[[85.3444255,28.1790686],[85.3444344,28.1784911],[85.3450861,28.178499],[85.3450772,28.1790765],[85.3444255,28.1790686]]]},"properties":{"class":"direct_measurement_support"}},{"type":"Feature","geometry":{"type":"Polygon","coordinates":[[[85.3434523,28.178768],[85.3434568,28.1784793],[85.3437827,28.1784832],[85.3437782,28.178772],[85.3434523,28.178768]]]},"properties":{"class":"direct_measurement_support"}},{"type":"Feature","geometry":{"type":"Polygon","coordinates":[[[85.3421534,28.1784635],[85.3421623,28.177886],[85.3424881,28.17789],[85.3424837,28.1781787],[85.3428095,28.1781826],[85.3428051,28.1784714],[85.3421534,28.1784635]]]},"properties":{"class":"direct_measurement_support"}},{"type":"Feature","geometry":{"type":"Polygon","coordinates":[[[85.3428095,28.1781826],[85.342814,28.1778939],[85.3434657,28.1779018],[85.3434612,28.1781905],[85.3428095,28.1781826]]]},"properties":{"class":"direct_measurement_support"}},{"type":"Feature","geometry":{"type":"Polygon","coordinates":[[[85.3450906,28.1782102],[85.345095,28.1779215],[85.3454209,28.1779254],[85.3454164,28.1782142],[85.3450906,28.1782102]]]},"properties":{"class":"direct_measurement_support"}},{"type":"Feature","geometry":{"type":"Polygon","coordinates":[[[85.3411847,28.1778742],[85.3411891,28.1775854],[85.341515,28.1775894],[85.3415105,28.1778781],[85.3411847,28.1778742]]]},"properties":{"class":"direct_measurement_support"}},{"type":"Feature","geometry":{"type":"Polygon","coordinates":[[[85.345372,28.1811016],[85.3453809,28.1805241],[85.345055,28.1805202],[85.3450594,28.1802315],[85.3453853,28.1802354],[85.3453897,28.1799466],[85.3450639,28.1799427],[85.3450683,28.179654],[85.3453942,28.1796579],[85.3453986,28.1793692],[85.3457245,28.1793731],[85.3457289,28.1790844],[85.3460548,28.1790883],[85.3460592,28.1787995],[85.3457334,28.1787956],[85.3457467,28.1779294],[85.3454209,28.1779254],[85.3454253,28.1776367],[85.3450994,28.1776327],[85.3451039,28.177344],[85.3454297,28.1773479],[85.3454342,28.1770592],[85.3457601,28.1770631],[85.3457556,28.1773519],[85.3483625,28.1773834],[85.348358,28.1776721],[85.3480322,28.1776682],[85.3480277,28.1779569],[85.3477019,28.177953],[85.3477063,28.1776642],[85.3470546,28.1776564],[85.3470502,28.1779451],[85.3467243,28.1779412],[85.3467199,28.1782299],[85.3470457,28.1782339],[85.3470368,28.1788114],[85.3473627,28.1788153],[85.3473716,28.1782378],[85.348675,28.1782535],[85.3486706,28.1785423],[85.3483447,28.1785383],[85.3483403,28.1788271],[85.3480144,28.1788232],[85.3480056,28.1794006],[85.3473538,28.1793928],[85.3473494,28.1796815],[85.3463718,28.1796697],[85.3463629,28.1802472],[85.3457112,28.1802393],[85.3457067,28.1805281],[85.3460326,28.180532],[85.3460237,28.1811095],[85.345372,28.1811016]],[[85.3457201,28.1796618],[85.3460459,28.1796658],[85.3460504,28.179377],[85.3457245,28.1793731],[85.3457201,28.1796618]]]},"properties":{"class":"direct_measurement_support"}},{"type":"Feature","geometry":{"type":"Polygon","coordinates":[[[85.3385867,28.1772651],[85.3385957,28.1766876],[85.3389215,28.1766915],[85.3389171,28.1769803],[85.3392429,28.1769842],[85.3392385,28.177273],[85.3385867,28.1772651]]]},"properties":{"class":"direct_measurement_support"}},{"type":"Feature","geometry":{"type":"Polygon","coordinates":[[[85.3434701,28.177613],[85.343479,28.1770356],[85.3431532,28.1770316],[85.3431576,28.1767429],[85.3438094,28.1767507],[85.343796,28.177617],[85.3434701,28.177613]]]},"properties":{"class":"direct_measurement_support"}},{"type":"Feature","geometry":{"type":"Polygon","coordinates":[[[85.3424881,28.17789],[85.3424926,28.1776012],[85.3421667,28.1775973],[85.3421756,28.1770198],[85.3425015,28.1770237],[85.3425104,28.1764462],[85.3428362,28.1764502],[85.342814,28.1778939],[85.3424881,28.17789]]]},"properties":{"class":"direct_measurement_support"}},{"type":"Feature","geometry":{"type":"Polygon","coordinates":[[[85.3454386,28.1767705],[85.3454431,28.1764817],[85.3460948,28.1764896],[85.3460904,28.1767783],[85.3454386,28.1767705]]]},"properties":{"class":"direct_measurement_support"}},{"type":"Feature","geometry":{"type":"Polygon","coordinates":[[[85.3395688,28.1769882],[85.3395732,28.1766994],[85.3389215,28.1766915],[85.3389304,28.176114],[85.3395822,28.1761219],[85.3395777,28.1764107],[85.3399035,28.1764146],[85.339908,28.1761259],[85.3402339,28.1761298],[85.3402249,28.1767073],[85.3405508,28.1767113],[85.3405463,28.177],[85.3395688,28.1769882]]]},"properties":{"class":"direct_measurement_support"}},{"type":"Feature","geometry":{"type":"Polygon","coordinates":[[[85.3483625,28.1773834],[85.3483669,28.1770946],[85.3477152,28.1770867],[85.3477196,28.176798],[85.3473938,28.1767941],[85.3473893,28.1770828],[85.3470635,28.1770789],[85.3470724,28.1765014],[85.3464206,28.1764935],[85.3464251,28.1762048],[85.3467509,28.1762087],[85.3467554,28.17592],[85.3474071,28.1759278],[85.3474115,28.1756391],[85.3483891,28.1756509],[85.3483847,28.1759396],[85.3480588,28.1759357],[85.3480544,28.1762244],[85.3483802,28.1762284],[85.3483758,28.1765171],[85.3487016,28.1765211],[85.3486883,28.1773873],[85.3483625,28.1773834]]]},"properties":{"class":"direct_measurement_support"}},{"type":"Feature","geometry":{"type":"Polygon","coordinates":[[[85.3412159,28.175853],[85.3412248,28.1752755],[85.3415506,28.1752794],[85.3415417,28.1758569],[85.3412159,28.175853]]]},"properties":{"class":"direct_measurement_support"}},{"type":"Feature","geometry":{"type":"Polygon","coordinates":[[[85.338618,28.1752439],[85.3386224,28.1749551],[85.3392741,28.174963],[85.3392697,28.1752518],[85.338618,28.1752439]]]},"properties":{"class":"direct_measurement_support"}},{"type":"Feature","geometry":{"type":"Polygon","coordinates":[[[85.3415328,28.1764344],[85.3415417,28.1758569],[85.3418676,28.1758608],[85.3418765,28.1752834],[85.3415506,28.1752794],[85.3415551,28.1749907],[85.3425326,28.1750025],[85.3425282,28.1752913],[85.342854,28.1752952],[85.3428585,28.1750065],[85.3431843,28.1750104],[85.3431799,28.1752991],[85.3435057,28.1753031],[85.3434968,28.1758806],[85.343171,28.1758766],[85.3431621,28.1764541],[85.3428362,28.1764502],[85.3428407,28.1761614],[85.3425148,28.1761575],[85.3425104,28.1764462],[85.3421845,28.1764423],[85.342189,28.1761535],[85.3418631,28.1761496],[85.3418587,28.1764383],[85.3415328,28.1764344]]]},"properties":{"class":"direct_measurement_support"}},{"type":"Feature","geometry":{"type":"Polygon","coordinates":[[[85.3392741,28.174963],[85.3392786,28.1746743],[85.3399303,28.1746822],[85.3399258,28.1749709],[85.3392741,28.174963]]]},"properties":{"class":"direct_measurement_support"}},{"type":"Feature","geometry":{"type":"Polygon","coordinates":[[[85.3425326,28.1750025],[85.3425371,28.1747138],[85.3428629,28.1747177],[85.3428585,28.1750065],[85.3425326,28.1750025]]]},"properties":{"class":"direct_measurement_support"}},{"type":"Feature","geometry":{"type":"Polygon","coordinates":[[[85.3428629,28.1747177],[85.3428674,28.174429],[85.3431932,28.1744329],[85.3431888,28.1747216],[85.3428629,28.1747177]]]},"properties":{"class":"direct_measurement_support"}},{"type":"Feature","geometry":{"type":"Polygon","coordinates":[[[85.3399303,28.1746822],[85.3399392,28.1741047],[85.3402651,28.1741086],[85.3402561,28.1746861],[85.3399303,28.1746822]]]},"properties":{"class":"direct_measurement_support"}},{"type":"Feature","geometry":{"type":"Polygon","coordinates":[[[85.3418854,28.1747059],[85.3418943,28.1741284],[85.342546,28.1741363],[85.3425371,28.1747138],[85.3418854,28.1747059]]]},"properties":{"class":"direct_measurement_support"}},{"type":"Feature","geometry":{"type":"Polygon","coordinates":[[[85.3454786,28.1741717],[85.3454831,28.173883],[85.3451572,28.1738791],[85.3451617,28.1735903],[85.3467909,28.17361],[85.3467865,28.1738987],[85.3461348,28.1738909],[85.3461303,28.1741796],[85.3454786,28.1741717]]]},"properties":{"class":"direct_measurement_support"}},{"type":"Feature","geometry":{"type":"Polygon","coordinates":[[[85.3480943,28.1736257],[85.3480987,28.173337],[85.3487504,28.1733448],[85.348746,28.1736336],[85.3480943,28.1736257]]]},"properties":{"class":"direct_measurement_support"}},{"type":"Feature","geometry":{"type":"Polygon","coordinates":[[[85.3451661,28.1733016],[85.3451706,28.1730128],[85.3454964,28.1730168],[85.345492,28.1733055],[85.3451661,28.1733016]]]},"properties":{"class":"direct_measurement_support"}},{"type":"Feature","geometry":{"type":"Polygon","coordinates":[[[85.3461437,28.1733134],[85.3461481,28.1730246],[85.3467998,28.1730325],[85.3467954,28.1733213],[85.3461437,28.1733134]]]},"properties":{"class":"direct_measurement_support"}},{"type":"Feature","geometry":{"type":"Polygon","coordinates":[[[85.3458223,28.1730207],[85.3458311,28.1724432],[85.346157,28.1724471],[85.3461481,28.1730246],[85.3458223,28.1730207]]]},"properties":{"class":"direct_measurement_support"}},{"type":"Feature","geometry":{"type":"Polygon","coordinates":[[[85.338984,28.1726491],[85.3389884,28.1723604],[85.3393143,28.1723643],[85.3393098,28.1726531],[85.338984,28.1726491]]]},"properties":{"class":"direct_measurement_support"}},{"type":"Feature","geometry":{"type":"Polygon","coordinates":[[[85.3451839,28.1721466],[85.3451883,28.1718578],[85.34584,28.1718657],[85.3458356,28.1721545],[85.3451839,28.1721466]]]},"properties":{"class":"direct_measurement_support"}},{"type":"Feature","geometry":{"type":"Polygon","coordinates":[[[85.3442064,28.1721348],[85.3442108,28.171846],[85.3445367,28.17185],[85.3445411,28.1715612],[85.3448669,28.1715652],[85.3448581,28.1721427],[85.3442064,28.1721348]]]},"properties":{"class":"direct_measurement_support"}},{"type":"Feature","geometry":{"type":"Polygon","coordinates":[[[85.3386715,28.1717789],[85.338676,28.1714902],[85.3390018,28.1714941],[85.3389974,28.1717829],[85.3386715,28.1717789]]]},"properties":{"class":"direct_measurement_support"}},{"type":"Feature","geometry":{"type":"Polygon","coordinates":[[[85.3406266,28.1718026],[85.340631,28.1715139],[85.3409569,28.1715178],[85.3409524,28.1718066],[85.3406266,28.1718026]]]},"properties":{"class":"direct_measurement_support"}},{"type":"Feature","geometry":{"type":"Polygon","coordinates":[[[85.3474692,28.1718854],[85.3474737,28.1715966],[85.3477995,28.1716006],[85.3477951,28.1718893],[85.3474692,28.1718854]]]},"properties":{"class":"direct_measurement_support"}},{"type":"Feature","geometry":{"type":"Polygon","coordinates":[[[85.3458445,28.171577],[85.3458489,28.1712882],[85.3461748,28.1712922],[85.3461703,28.1715809],[85.3458445,28.171577]]]},"properties":{"class":"direct_measurement_support"}},{"type":"Feature","geometry":{"type":"Polygon","coordinates":[[[85.3432377,28.1715455],[85.3432466,28.170968],[85.3435725,28.1709719],[85.343568,28.1712607],[85.3442197,28.1712685],[85.3442153,28.1715573],[85.3432377,28.1715455]]]},"properties":{"class":"direct_measurement_support"}},{"type":"Feature","geometry":{"type":"Polygon","coordinates":[[[85.3415685,28.1741244],[85.3415774,28.1735469],[85.3419032,28.1735509],[85.3419121,28.1729734],[85.3415863,28.1729695],[85.3415907,28.1726807],[85.3422424,28.1726886],[85.3422513,28.1721111],[85.3415996,28.1721032],[85.3416041,28.1718145],[85.3412782,28.1718105],[85.3412827,28.1715218],[85.3425861,28.1715376],[85.3425905,28.1712488],[85.3419388,28.1712409],[85.3419433,28.1709522],[85.3429208,28.170964],[85.3429075,28.1718303],[85.3432333,28.1718342],[85.3432244,28.1724117],[85.3435502,28.1724156],[85.3435369,28.1732819],[85.343211,28.1732779],[85.3432199,28.1727004],[85.3428941,28.1726965],[85.3428718,28.1741402],[85.342546,28.1741363],[85.3425505,28.1738475],[85.3418988,28.1738396],[85.3418943,28.1741284],[85.3415685,28.1741244]],[[85.3422335,28.1732661],[85.3425594,28.17327],[85.3425638,28.1729813],[85.342238,28.1729773],[85.3422335,28.1732661]],[[85.3422513,28.1721111],[85.3425772,28.1721151],[85.3425816,28.1718263],[85.3422558,28.1718224],[85.3422513,28.1721111]]]},"properties":{"class":"direct_measurement_support"}},{"type":"Feature","geometry":{"type":"Polygon","coordinates":[[[85.3448669,28.1715652],[85.3448714,28.1712764],[85.3445456,28.1712725],[85.34455,28.1709837],[85.3452017,28.1709916],[85.3451972,28.1712804],[85.3455231,28.1712843],[85.3455186,28.171573],[85.3448669,28.1715652]]]},"properties":{"class":"direct_measurement_support"}},{"type":"Feature","geometry":{"type":"Polygon","coordinates":[[[85.3461792,28.1710034],[85.3461881,28.1704259],[85.3465139,28.1704299],[85.3465095,28.1707186],[85.3471612,28.1707265],[85.3471567,28.1710152],[85.3461792,28.1710034]]]},"properties":{"class":"direct_measurement_support"}},{"type":"Feature","geometry":{"type":"Polygon","coordinates":[[[85.3452061,28.1707029],[85.3452106,28.1704141],[85.3455364,28.1704181],[85.345532,28.1707068],[85.3452061,28.1707029]]]},"properties":{"class":"direct_measurement_support"}},{"type":"Feature","geometry":{"type":"Polygon","coordinates":[[[85.3425994,28.1706713],[85.3426083,28.1700938],[85.3429342,28.1700978],[85.3429253,28.1706753],[85.3425994,28.1706713]]]},"properties":{"class":"direct_measurement_support"}},{"type":"Feature","geometry":{"type":"Polygon","coordinates":[[[85.3458622,28.170422],[85.3458667,28.1701332],[85.3461925,28.1701372],[85.3461881,28.1704259],[85.3458622,28.170422]]]},"properties":{"class":"direct_measurement_support"}},{"type":"Feature","geometry":{"type":"Polygon","coordinates":[[[85.3481431,28.1704495],[85.3481475,28.1701608],[85.3484734,28.1701647],[85.3484689,28.1704535],[85.3481431,28.1704495]]]},"properties":{"class":"direct_measurement_support"}},{"type":"Feature","geometry":{"type":"Polygon","coordinates":[[[85.3416308,28.170082],[85.3416353,28.1697933],[85.3419611,28.1697972],[85.3419566,28.170086],[85.3416308,28.170082]]]},"properties":{"class":"direct_measurement_support"}},{"type":"Feature","geometry":{"type":"Polygon","coordinates":[[[85.3461925,28.1701372],[85.346197,28.1698484],[85.3468486,28.1698563],[85.3468442,28.1701451],[85.3461925,28.1701372]]]},"properties":{"class":"direct_measurement_support"}},{"type":"Feature","geometry":{"type":"Polygon","coordinates":[[[85.3357345,28.172032],[85.3357524,28.1708771],[85.3360782,28.170881],[85.3360827,28.1705923],[85.3364085,28.1705962],[85.3364174,28.1700188],[85.3367433,28.1700227],[85.3367388,28.1703115],[85.3370647,28.1703154],[85.3370736,28.1697379],[85.3377253,28.1697458],[85.3377297,28.1694571],[85.3380555,28.1694611],[85.3380511,28.1697498],[85.3387028,28.1697577],[85.3386983,28.1700465],[85.3383725,28.1700425],[85.3383591,28.1709087],[85.3386849,28.1709127],[85.3386804,28.1712014],[85.3377029,28.1711896],[85.3376985,28.1714783],[85.3360693,28.1714585],[85.3360648,28.1717473],[85.3363906,28.1717512],[85.3363862,28.17204],[85.3357345,28.172032]]]},"properties":{"class":"direct_measurement_support"}},{"type":"Feature","geometry":{"type":"Polygon","coordinates":[[[85.3396803,28.1697696],[85.3396847,28.1694808],[85.3406622,28.1694927],[85.3406578,28.1697814],[85.3396803,28.1697696]]]},"properties":{"class":"direct_measurement_support"}},{"type":"Feature","geometry":{"type":"Polygon","coordinates":[[[85.3478261,28.1698681],[85.3478306,28.1695794],[85.3481564,28.1695833],[85.348152,28.169872],[85.3478261,28.1698681]]]},"properties":{"class":"direct_measurement_support"}},{"type":"Feature","geometry":{"type":"Polygon","coordinates":[[[85.3422825,28.1700899],[85.3422958,28.1692237],[85.3426217,28.1692276],[85.3426172,28.1695164],[85.3429431,28.1695203],[85.3429386,28.169809],[85.3426128,28.1698051],[85.3426083,28.1700938],[85.3422825,28.1700899]]]},"properties":{"class":"direct_measurement_support"}},{"type":"Feature","geometry":{"type":"Polygon","coordinates":[[[85.3439206,28.1695321],[85.343925,28.1692434],[85.3442508,28.1692473],[85.3442464,28.1695361],[85.3439206,28.1695321]]]},"properties":{"class":"direct_measurement_support"}},{"type":"Feature","geometry":{"type":"Polygon","coordinates":[[[85.3462014,28.1695597],[85.3462058,28.1692709],[85.3465317,28.1692749],[85.3465272,28.1695636],[85.3462014,28.1695597]]]},"properties":{"class":"direct_measurement_support"}},{"type":"Feature","geometry":{"type":"Polygon","coordinates":[[[85.3468531,28.1695676],[85.3468575,28.1692788],[85.3471833,28.1692827],[85.3471789,28.1695715],[85.3468531,28.1695676]]]},"properties":{"class":"direct_measurement_support"}},{"type":"Feature","geometry":{"type":"Polygon","coordinates":[[[85.3419745,28.168931],[85.3419789,28.1686422],[85.3423047,28.1686462],[85.3423003,28.1689349],[85.3419745,28.168931]]]},"properties":{"class":"direct_measurement_support"}},{"type":"Feature","geometry":{"type":"Polygon","coordinates":[[[85.3380555,28.1694611],[85.33806,28.1691723],[85.3383858,28.1691763],[85.3383903,28.1688875],[85.3380645,28.1688836],[85.3380689,28.1685948],[85.3383948,28.1685988],[85.3383992,28.16831],[85.3380734,28.1683061],[85.3380779,28.1680173],[85.3384037,28.1680213],[85.3384082,28.1677325],[85.3397115,28.1677484],[85.339707,28.1680371],[85.3400328,28.1680411],[85.3400418,28.1674636],[85.3403676,28.1674675],[85.3403587,28.168045],[85.3406845,28.1680489],[85.3406934,28.1674715],[85.3410192,28.1674754],[85.3410059,28.1683416],[85.3400284,28.1683298],[85.3400239,28.1686185],[85.3396981,28.1686146],[85.3396936,28.1689033],[85.3387161,28.1688915],[85.3387117,28.1691802],[85.3390375,28.1691842],[85.339033,28.1694729],[85.3380555,28.1694611]]]},"properties":{"class":"direct_measurement_support"}},{"type":"Feature","geometry":{"type":"Polygon","coordinates":[[[85.3413406,28.1677681],[85.3413495,28.1671906],[85.3416753,28.1671946],[85.3416664,28.167772],[85.3413406,28.1677681]]]},"properties":{"class":"direct_measurement_support"}},{"type":"Feature","geometry":{"type":"Polygon","coordinates":[[[85.3468841,28.1675463],[85.3468886,28.1672576],[85.3472144,28.1672615],[85.34721,28.1675503],[85.3468841,28.1675463]]]},"properties":{"class":"direct_measurement_support"}},{"type":"Feature","geometry":{"type":"Polygon","coordinates":[[[85.33386,28.1668109],[85.3338645,28.1665221],[85.3341903,28.1665261],[85.3341858,28.1668148],[85.33386,28.1668109]]]},"properties":{"class":"direct_measurement_support"}},{"type":"Feature","geometry":{"type":"Polygon","coordinates":[[[85.3351633,28.1668267],[85.3351678,28.166538],[85.3354936,28.166542],[85.3354891,28.1668307],[85.3351633,28.1668267]]]},"properties":{"class":"direct_measurement_support"}},{"type":"Feature","geometry":{"type":"Polygon","coordinates":[[[85.3400551,28.1665973],[85.3400596,28.1663086],[85.3403854,28.1663125],[85.3403809,28.1666013],[85.3400551,28.1665973]]]},"properties":{"class":"direct_measurement_support"}},{"type":"Feature","geometry":{"type":"Polygon","coordinates":[[[85.3338689,28.1662334],[85.3338734,28.1659447],[85.3341992,28.1659486],[85.3341948,28.1662374],[85.3338689,28.1662334]]]},"properties":{"class":"direct_measurement_support"}},{"type":"Feature","geometry":{"type":"Polygon","coordinates":[[[85.3332218,28.1659367],[85.3332262,28.165648],[85.3335521,28.1656519],[85.3335476,28.1659407],[85.3332218,28.1659367]]]},"properties":{"class":"direct_measurement_support"}},{"type":"Feature","geometry":{"type":"Polygon","coordinates":[[[85.3406979,28.1671827],[85.3407201,28.165739],[85.3403943,28.165735],[85.3403988,28.1654463],[85.3410504,28.1654542],[85.341046,28.1657429],[85.3413718,28.1657469],[85.3413673,28.1660356],[85.3416932,28.1660396],[85.3416887,28.1663283],[85.3420145,28.1663323],[85.3420012,28.1671985],[85.3416753,28.1671946],[85.3416798,28.1669058],[85.341354,28.1669019],[85.3413495,28.1671906],[85.3406979,28.1671827]]]},"properties":{"class":"direct_measurement_support"}},{"type":"Feature","geometry":{"type":"Polygon","coordinates":[[[85.3384438,28.1654226],[85.3384483,28.1651338],[85.3387741,28.1651378],[85.3387697,28.1654265],[85.3384438,28.1654226]]]},"properties":{"class":"direct_measurement_support"}},{"type":"Feature","geometry":{"type":"Polygon","coordinates":[[[85.3354936,28.166542],[85.3354981,28.1662532],[85.3348464,28.1662453],[85.3348553,28.1656678],[85.3351812,28.1656718],[85.3351856,28.165383],[85.3355115,28.165387],[85.3355159,28.1650982],[85.3358417,28.1651022],[85.3358462,28.1648134],[85.336172,28.1648174],[85.3361631,28.1653949],[85.3368147,28.1654028],[85.3368103,28.1656916],[85.3361586,28.1656836],[85.3361542,28.1659724],[85.33648,28.1659763],[85.3364755,28.1662651],[85.3358239,28.1662572],[85.3358194,28.1665459],[85.3354936,28.166542]],[[85.3355025,28.1659645],[85.3358283,28.1659684],[85.3358373,28.1653909],[85.3355115,28.165387],[85.3355025,28.1659645]]]},"properties":{"class":"direct_measurement_support"}},{"type":"Feature","geometry":{"type":"Polygon","coordinates":[[[85.3377922,28.1654147],[85.3378011,28.1648372],[85.3384528,28.1648451],[85.3384483,28.1651338],[85.3381225,28.1651299],[85.338118,28.1654186],[85.3377922,28.1654147]]]},"properties":{"class":"direct_measurement_support"}},{"type":"Feature","geometry":{"type":"Polygon","coordinates":[[[85.3459333,28.1658021],[85.3459377,28.1655133],[85.3462636,28.1655173],[85.346268,28.1652285],[85.3459422,28.1652246],[85.3459466,28.1649358],[85.3469241,28.1649476],[85.3469152,28.1655251],[85.3465894,28.1655212],[85.346585,28.1658099],[85.3459333,28.1658021]]]},"properties":{"class":"direct_measurement_support"}},{"type":"Feature","geometry":{"type":"Polygon","coordinates":[[[85.336172,28.1648174],[85.3361765,28.1645287],[85.3365023,28.1645326],[85.3364979,28.1648214],[85.336172,28.1648174]]]},"properties":{"class":"direct_measurement_support"}},{"type":"Feature","geometry":{"type":"Polygon","coordinates":[[[85.3469241,28.1649476],[85.3469285,28.1646589],[85.3475802,28.1646667],[85.3475757,28.1649555],[85.3469241,28.1649476]]]},"properties":{"class":"direct_measurement_support"}},{"type":"Feature","geometry":{"type":"Polygon","coordinates":[[[85.3365023,28.1645326],[85.3365068,28.1642439],[85.3368326,28.1642478],[85.3368281,28.1645366],[85.3365023,28.1645326]]]},"properties":{"class":"direct_measurement_support"}},{"type":"Feature","geometry":{"type":"Polygon","coordinates":[[[85.3446478,28.1646313],[85.3446522,28.1643426],[85.3449781,28.1643465],[85.3449736,28.1646353],[85.3446478,28.1646313]]]},"properties":{"class":"direct_measurement_support"}},{"type":"Feature","geometry":{"type":"Polygon","coordinates":[[[85.3440006,28.1643347],[85.344005,28.164046],[85.3443309,28.1640499],[85.3443264,28.1643386],[85.3440006,28.1643347]]]},"properties":{"class":"direct_measurement_support"}},{"type":"Feature","geometry":{"type":"Polygon","coordinates":[[[85.3417377,28.1631521],[85.3417421,28.1628634],[85.3420679,28.1628673],[85.3420724,28.1625786],[85.3423982,28.1625825],[85.3423938,28.1628713],[85.3427196,28.1628752],[85.3427151,28.163164],[85.3417377,28.1631521]]]},"properties":{"class":"direct_measurement_support"}},{"type":"Feature","geometry":{"type":"Polygon","coordinates":[[[85.3316419,28.1627407],[85.3316464,28.162452],[85.3319722,28.1624559],[85.3319677,28.1627447],[85.3316419,28.1627407]]]},"properties":{"class":"direct_measurement_support"}},{"type":"Feature","geometry":{"type":"Polygon","coordinates":[[[85.332298,28.1624599],[85.3323025,28.1621712],[85.3329541,28.1621791],[85.3329497,28.1624678],[85.332298,28.1624599]]]},"properties":{"class":"direct_measurement_support"}},{"type":"Feature","geometry":{"type":"Polygon","coordinates":[[[85.3427196,28.1628752],[85.3427329,28.162009],[85.3430587,28.1620129],[85.3430543,28.1623017],[85.3437059,28.1623095],[85.3437015,28.1625983],[85.3433756,28.1625944],[85.3433712,28.1628831],[85.3427196,28.1628752]]]},"properties":{"class":"direct_measurement_support"}},{"type":"Feature","geometry":{"type":"Polygon","coordinates":[[[85.3437059,28.1623095],[85.3437104,28.1620208],[85.344362,28.1620287],[85.3443575,28.1623174],[85.3437059,28.1623095]]]},"properties":{"class":"direct_measurement_support"}},{"type":"Feature","geometry":{"type":"Polygon","coordinates":[[[85.3397872,28.1628397],[85.3397917,28.1625509],[85.3394659,28.162547],[85.3394704,28.1622583],[85.3388187,28.1622504],[85.3388143,28.1625391],[85.3384885,28.1625351],[85.3384974,28.1619577],[85.3388232,28.1619616],[85.3388276,28.1616729],[85.3394793,28.1616808],[85.3394748,28.1619695],[85.3398006,28.1619735],[85.3397962,28.1622622],[85.340122,28.1622662],[85.3401131,28.1628436],[85.3397872,28.1628397]]]},"properties":{"class":"direct_measurement_support"}},{"type":"Feature","geometry":{"type":"Polygon","coordinates":[[[85.3446833,28.1623214],[85.3446878,28.1620326],[85.3450136,28.1620366],[85.345018,28.1617478],[85.3453439,28.1617517],[85.345335,28.1623292],[85.3446833,28.1623214]]]},"properties":{"class":"direct_measurement_support"}},{"type":"Feature","geometry":{"type":"Polygon","coordinates":[[[85.3459866,28.1623371],[85.3459955,28.1617596],[85.3463213,28.1617636],[85.3463124,28.162341],[85.3459866,28.1623371]]]},"properties":{"class":"direct_measurement_support"}},{"type":"Feature","geometry":{"type":"Polygon","coordinates":[[[85.3326328,28.1618864],[85.3326373,28.1615976],[85.3329631,28.1616016],[85.3329586,28.1618903],[85.3326328,28.1618864]]]},"properties":{"class":"direct_measurement_support"}},{"type":"Feature","geometry":{"type":"Polygon","coordinates":[[[85.3381716,28.1619537],[85.338176,28.161665],[85.3385018,28.1616689],[85.3384974,28.1619577],[85.3381716,28.1619537]]]},"properties":{"class":"direct_measurement_support"}},{"type":"Feature","geometry":{"type":"Polygon","coordinates":[[[85.3316509,28.1621632],[85.3316554,28.1618745],[85.3313296,28.1618705],[85.331334,28.1615818],[85.3316598,28.1615857],[85.3316643,28.161297],[85.3319901,28.161301],[85.3319812,28.1618784],[85.332307,28.1618824],[85.3323025,28.1621712],[85.3316509,28.1621632]]]},"properties":{"class":"direct_measurement_support"}},{"type":"Feature","geometry":{"type":"Polygon","coordinates":[[[85.3323159,28.1613049],[85.3323204,28.1610162],[85.332972,28.1610241],[85.3329676,28.1613129],[85.3323159,28.1613049]]]},"properties":{"class":"direct_measurement_support"}},{"type":"Feature","geometry":{"type":"Polygon","coordinates":[[[85.3450225,28.1614591],[85.3450269,28.1611703],[85.3453527,28.1611743],[85.3453483,28.161463],[85.3450225,28.1614591]]]},"properties":{"class":"direct_measurement_support"}},{"type":"Feature","geometry":{"type":"Polygon","coordinates":[[[85.3300218,28.1621434],[85.3300308,28.1615659],[85.3293792,28.1615579],[85.3293882,28.1609804],[85.3290624,28.1609765],[85.3290534,28.1615539],[85.3287276,28.16155],[85.3287321,28.1612612],[85.3284063,28.1612573],[85.3284018,28.161546],[85.328076,28.161542],[85.3280849,28.1609645],[85.3277591,28.1609606],[85.3277681,28.1603831],[85.3280939,28.160387],[85.3280894,28.1606758],[85.328741,28.1606837],[85.3287455,28.160395],[85.3297229,28.1604069],[85.3297185,28.1606957],[85.3306959,28.1607076],[85.3306914,28.1609963],[85.3310172,28.1610003],[85.3310082,28.1615778],[85.3303566,28.1615698],[85.3303477,28.1621473],[85.3300218,28.1621434]]]},"properties":{"class":"direct_measurement_support"}},{"type":"Feature","geometry":{"type":"Polygon","coordinates":[[[85.3323249,28.1607274],[85.3323294,28.1604387],[85.3326552,28.1604427],[85.3326507,28.1607314],[85.3323249,28.1607274]]]},"properties":{"class":"direct_measurement_support"}},{"type":"Feature","geometry":{"type":"Polygon","coordinates":[[[85.3411217,28.1608343],[85.3411261,28.1605455],[85.3414519,28.1605495],[85.3414475,28.1608382],[85.3411217,28.1608343]]]},"properties":{"class":"direct_measurement_support"}},{"type":"Feature","geometry":{"type":"Polygon","coordinates":[[[85.3432511,28.1706792],[85.34326,28.1701017],[85.3429342,28.1700978],[85.3429386,28.169809],[85.3432644,28.169813],[85.3432689,28.1695242],[85.3429431,28.1695203],[85.342952,28.1689428],[85.3436036,28.1689507],[85.3436081,28.1686619],[85.3429564,28.1686541],[85.3429609,28.1683653],[85.3432867,28.1683693],[85.3432911,28.1680805],[85.3423136,28.1680687],[85.342327,28.1672024],[85.3426528,28.1672064],[85.3426662,28.1663402],[85.3423404,28.1663362],[85.3423493,28.1657587],[85.3420234,28.1657548],[85.3420279,28.165466],[85.3417021,28.1654621],[85.3417065,28.1651733],[85.3407291,28.1651615],[85.3407335,28.1648728],[85.3404077,28.1648688],[85.3403988,28.1654463],[85.340073,28.1654423],[85.3400819,28.1648649],[85.339756,28.1648609],[85.3397516,28.1651497],[85.3390999,28.1651418],[85.3391044,28.164853],[85.3387786,28.1648491],[85.338783,28.1645603],[85.3378056,28.1645484],[85.3378101,28.1642597],[85.3374842,28.1642557],[85.3374887,28.163967],[85.3371629,28.163963],[85.3371674,28.1636743],[85.3368415,28.1636703],[85.336846,28.1633816],[85.3365202,28.1633776],[85.3365157,28.1636664],[85.3358641,28.1636585],[85.3358596,28.1639472],[85.3355338,28.1639433],[85.3355293,28.164232],[85.3352035,28.164228],[85.335199,28.1645168],[85.3345474,28.1645089],[85.3345385,28.1650863],[85.3342127,28.1650824],[85.3342082,28.1653711],[85.3338824,28.1653672],[85.3338779,28.1656559],[85.3335521,28.1656519],[85.3335565,28.1653632],[85.3332307,28.1653592],[85.3332262,28.165648],[85.3329004,28.165644],[85.3329049,28.1653553],[85.3325791,28.1653513],[85.332588,28.1647738],[85.3322622,28.1647698],[85.3322756,28.1639036],[85.3326015,28.1639076],[85.332597,28.1641963],[85.3329228,28.1642003],[85.3329318,28.1636228],[85.3316285,28.1636069],[85.331633,28.1633182],[85.3322846,28.1633261],[85.3322891,28.1630374],[85.3329407,28.1630453],[85.3329452,28.1627566],[85.333271,28.1627605],[85.3332755,28.1624718],[85.3339271,28.1624797],[85.3339316,28.162191],[85.3342574,28.1621949],[85.3342618,28.1619062],[85.3349135,28.1619141],[85.3349224,28.1613366],[85.3352482,28.1613406],[85.3352527,28.1610519],[85.3349269,28.1610479],[85.3349313,28.1607591],[85.3346055,28.1607552],[85.3346234,28.1596002],[85.3349492,28.1596042],[85.3349448,28.1598929],[85.3352706,28.1598969],[85.3352661,28.1601856],[85.3365693,28.1602015],[85.3365604,28.1607789],[85.3368862,28.1607829],[85.3368817,28.1610716],[85.3372075,28.1610756],[85.3371986,28.1616531],[85.3368728,28.1616491],[85.3368683,28.1619379],[85.3358909,28.161926],[85.3358954,28.1616373],[85.3352437,28.1616293],[85.3352393,28.1619181],[85.3355651,28.161922],[85.3355561,28.1624995],[85.3349045,28.1624916],[85.3348956,28.1630691],[85.334244,28.1630612],[85.3342395,28.1633499],[85.3352169,28.1633618],[85.3352259,28.1627843],[85.3358775,28.1627922],[85.3358864,28.1622147],[85.3368639,28.1622266],[85.3368594,28.1625154],[85.3384885,28.1625351],[85.338484,28.1628239],[85.3394614,28.1628357],[85.339457,28.1631245],[85.3391312,28.1631205],[85.3391267,28.1634093],[85.3397783,28.1634172],[85.3397828,28.1631284],[85.3401086,28.1631324],[85.3401041,28.1634211],[85.34043,28.1634251],[85.3404255,28.1637138],[85.3407513,28.1637178],[85.3407469,28.1640065],[85.3413985,28.1640144],[85.341403,28.1637257],[85.3417288,28.1637296],[85.3417332,28.1634409],[85.3427107,28.1634527],[85.3427151,28.163164],[85.3430409,28.1631679],[85.3430365,28.1634566],[85.3433623,28.1634606],[85.3433668,28.1631718],[85.3436926,28.1631758],[85.3437015,28.1625983],[85.3453305,28.162618],[85.3453261,28.1629067],[85.3456519,28.1629107],[85.3456563,28.1626219],[85.346308,28.1626298],[85.3463035,28.1629185],[85.3459777,28.1629146],[85.3459688,28.1634921],[85.3446656,28.1634763],[85.3446611,28.1637651],[85.3440095,28.1637572],[85.344005,28.164046],[85.3436792,28.164042],[85.3436614,28.165197],[85.3439873,28.1652009],[85.3439828,28.1654897],[85.343657,28.1654857],[85.3436525,28.1657745],[85.3433267,28.1657706],[85.3433312,28.1654818],[85.3430053,28.1654779],[85.342992,28.1663441],[85.3433178,28.166348],[85.3433223,28.1660593],[85.3439739,28.1660672],[85.343965,28.1666447],[85.3436392,28.1666407],[85.3436214,28.1677957],[85.3439472,28.1677997],[85.3439517,28.1675109],[85.3449292,28.1675227],[85.3449247,28.1678115],[85.3455764,28.1678193],[85.3455675,28.1683968],[85.3462192,28.1684047],[85.3462103,28.1689822],[85.3458844,28.1689783],[85.3458756,28.1695558],[85.3455497,28.1695518],[85.3455453,28.1698406],[85.3448936,28.1698327],[85.3448892,28.1701214],[85.3445633,28.1701175],[85.3445589,28.1704062],[85.3435814,28.1703944],[85.3435769,28.1706832],[85.3432511,28.1706792]],[[85.3439117,28.1701096],[85.3442375,28.1701136],[85.3442419,28.1698248],[85.3445678,28.1698287],[85.3445811,28.1689625],[85.3439295,28.1689546],[85.343925,28.1692434],[85.3435992,28.1692394],[85.3435903,28.1698169],[85.3439161,28.1698209],[85.3439117,28.1701096]],[[85.3442597,28.1686698],[85.3445856,28.1686738],[85.34459,28.168385],[85.3442642,28.1683811],[85.3442597,28.1686698]],[[85.3429698,28.1677878],[85.3432956,28.1677918],[85.3433045,28.1672143],[85.3429787,28.1672103],[85.3429698,28.1677878]],[[85.338783,28.1645603],[85.3394347,28.1645682],[85.3394391,28.1642795],[85.339765,28.1642834],[85.3397694,28.1639947],[85.3394436,28.1639907],[85.3394481,28.163702],[85.3391222,28.163698],[85.3391133,28.1642755],[85.3387875,28.1642716],[85.338783,28.1645603]],[[85.3400863,28.1645761],[85.3404121,28.1645801],[85.3404166,28.1642913],[85.3400908,28.1642874],[85.3400863,28.1645761]],[[85.3381359,28.1642637],[85.3384617,28.1642676],[85.3384662,28.1639789],[85.3381403,28.1639749],[85.3381359,28.1642637]],[[85.3332531,28.1639155],[85.3335789,28.1639195],[85.3335834,28.1636307],[85.3332576,28.1636268],[85.3332531,28.1639155]],[[85.3345564,28.1639314],[85.3348822,28.1639353],[85.3348866,28.1636466],[85.3345608,28.1636426],[85.3345564,28.1639314]],[[85.3420501,28.1640223],[85.342376,28.1640263],[85.3423804,28.1637375],[85.3420546,28.1637336],[85.3420501,28.1640223]],[[85.3433534,28.1640381],[85.3436792,28.164042],[85.3436837,28.1637533],[85.3433579,28.1637493],[85.3433534,28.1640381]],[[85.3384706,28.1636901],[85.3387964,28.1636941],[85.3388009,28.1634053],[85.3384751,28.1634014],[85.3384706,28.1636901]],[[85.333262,28.163338],[85.3335879,28.163342],[85.3335923,28.1630532],[85.3332665,28.1630493],[85.333262,28.163338]],[[85.336846,28.1633816],[85.3374976,28.1633895],[85.3375021,28.1631008],[85.3378279,28.1631047],[85.3378324,28.162816],[85.3371807,28.1628081],[85.3371763,28.1630968],[85.3368505,28.1630929],[85.336846,28.1633816]],[[85.3361988,28.1630849],[85.3365247,28.1630889],[85.3365291,28.1628002],[85.3362033,28.1627962],[85.3361988,28.1630849]]]},"properties":{"class":"direct_measurement_support"}},{"type":"Feature","geometry":{"type":"Polygon","coordinates":[[[85.3356053,28.1593233],[85.3356098,28.1590346],[85.3359356,28.1590386],[85.3359311,28.1593273],[85.3356053,28.1593233]]]},"properties":{"class":"direct_measurement_support"}},{"type":"Feature","geometry":{"type":"Polygon","coordinates":[[[85.3414697,28.1593945],[85.3414742,28.1591057],[85.3418,28.1591097],[85.3417955,28.1593984],[85.3414697,28.1593945]]]},"properties":{"class":"direct_measurement_support"}},{"type":"Feature","geometry":{"type":"Polygon","coordinates":[[[85.3339808,28.1590148],[85.3339852,28.158726],[85.334311,28.15873],[85.3343066,28.1590188],[85.3339808,28.1590148]]]},"properties":{"class":"direct_measurement_support"}},{"type":"Feature","geometry":{"type":"Polygon","coordinates":[[[85.3359356,28.1590386],[85.33594,28.1587498],[85.3362658,28.1587538],[85.3362614,28.1590425],[85.3359356,28.1590386]]]},"properties":{"class":"direct_measurement_support"}},{"type":"Feature","geometry":{"type":"Polygon","coordinates":[[[85.3352706,28.1598969],[85.335275,28.1596081],[85.3349492,28.1596042],[85.3349537,28.1593154],[85.3346279,28.1593115],[85.3346368,28.158734],[85.3349626,28.1587379],[85.3349671,28.1584492],[85.3352929,28.1584532],[85.3352884,28.1587419],[85.3356142,28.1587459],[85.3356098,28.1590346],[85.335284,28.1590306],[85.3352795,28.1593194],[85.3356053,28.1593233],[85.3356008,28.1596121],[85.3359266,28.159616],[85.3359222,28.1599048],[85.3352706,28.1598969]]]},"properties":{"class":"direct_measurement_support"}},{"type":"Feature","geometry":{"type":"Polygon","coordinates":[[[85.3401754,28.1588012],[85.3401799,28.1585125],[85.3405057,28.1585164],[85.3405012,28.1588052],[85.3401754,28.1588012]]]},"properties":{"class":"direct_measurement_support"}},{"type":"Feature","geometry":{"type":"Polygon","coordinates":[[[85.3333336,28.1587181],[85.3333381,28.1584294],[85.3336639,28.1584333],[85.3336684,28.1581446],[85.3339942,28.1581486],[85.3339852,28.158726],[85.3333336,28.1587181]]]},"properties":{"class":"direct_measurement_support"}},{"type":"Feature","geometry":{"type":"Polygon","coordinates":[[[85.3352929,28.1584532],[85.3352974,28.1581644],[85.3356232,28.1581684],[85.3356276,28.1578796],[85.3359534,28.1578836],[85.335949,28.1581723],[85.3362748,28.1581763],[85.3362703,28.158465],[85.3352929,28.1584532]]]},"properties":{"class":"direct_measurement_support"}},{"type":"Feature","geometry":{"type":"Polygon","coordinates":[[[85.332691,28.1581327],[85.3326955,28.157844],[85.3333471,28.1578519],[85.3333426,28.1581406],[85.332691,28.1581327]]]},"properties":{"class":"direct_measurement_support"}},{"type":"Feature","geometry":{"type":"Polygon","coordinates":[[[85.3369308,28.1578955],[85.3369353,28.1576067],[85.3372611,28.1576107],[85.3372655,28.1573219],[85.3375913,28.1573259],[85.3375824,28.1579034],[85.3369308,28.1578955]]]},"properties":{"class":"direct_measurement_support"}},{"type":"Feature","geometry":{"type":"Polygon","coordinates":[[[85.3326999,28.1575552],[85.3327044,28.1572665],[85.3330302,28.1572704],[85.3330257,28.1575592],[85.3326999,28.1575552]]]},"properties":{"class":"direct_measurement_support"}},{"type":"Feature","geometry":{"type":"Polygon","coordinates":[[[85.3401933,28.1576462],[85.3402022,28.1570687],[85.3408538,28.1570766],[85.3408493,28.1573654],[85.3405235,28.1573614],[85.3405191,28.1576502],[85.3401933,28.1576462]]]},"properties":{"class":"direct_measurement_support"}},{"type":"Feature","geometry":{"type":"Polygon","coordinates":[[[85.3333471,28.1578519],[85.333356,28.1572744],[85.3336818,28.1572784],[85.3336863,28.1569896],[85.3340121,28.1569936],[85.334021,28.1564161],[85.3346726,28.156424],[85.3346592,28.1572903],[85.3340076,28.1572823],[85.3339986,28.1578598],[85.3333471,28.1578519]]]},"properties":{"class":"direct_measurement_support"}},{"type":"Feature","geometry":{"type":"Polygon","coordinates":[[[85.3375913,28.1573259],[85.3375958,28.1570371],[85.3379216,28.1570411],[85.3379261,28.1567523],[85.3382519,28.1567563],[85.3382563,28.1564675],[85.3385821,28.1564715],[85.3385732,28.157049],[85.3382474,28.157045],[85.3382429,28.1573338],[85.3375913,28.1573259]]]},"properties":{"class":"direct_measurement_support"}},{"type":"Feature","geometry":{"type":"Polygon","coordinates":[[[85.3366229,28.1567365],[85.3366274,28.1564478],[85.3369531,28.1564517],[85.3369487,28.1567405],[85.3366229,28.1567365]]]},"properties":{"class":"direct_measurement_support"}},{"type":"Feature","geometry":{"type":"Polygon","coordinates":[[[85.3320662,28.1563923],[85.3320707,28.1561036],[85.3323965,28.1561075],[85.332392,28.1563963],[85.3320662,28.1563923]]]},"properties":{"class":"direct_measurement_support"}},{"type":"Feature","geometry":{"type":"Polygon","coordinates":[[[85.3385821,28.1564715],[85.3385866,28.1561828],[85.3389124,28.1561867],[85.3389079,28.1564755],[85.3385821,28.1564715]]]},"properties":{"class":"direct_measurement_support"}},{"type":"Feature","geometry":{"type":"Polygon","coordinates":[[[85.3389124,28.1561867],[85.3389168,28.155898],[85.3392426,28.1559019],[85.3392382,28.1561907],[85.3389124,28.1561867]]]},"properties":{"class":"direct_measurement_support"}},{"type":"Feature","geometry":{"type":"Polygon","coordinates":[[[85.3346815,28.1558465],[85.334686,28.1555578],[85.3350118,28.1555617],[85.3350073,28.1558505],[85.3346815,28.1558465]]]},"properties":{"class":"direct_measurement_support"}},{"type":"Feature","geometry":{"type":"Polygon","coordinates":[[[85.331727,28.1572546],[85.3317315,28.1569658],[85.3314057,28.1569619],[85.3314102,28.1566731],[85.3307586,28.1566652],[85.330781,28.1552215],[85.3311068,28.1552254],[85.3310933,28.1560917],[85.3317449,28.1560996],[85.3317405,28.1563883],[85.3320662,28.1563923],[85.3320573,28.1569698],[85.3327089,28.1569777],[85.3327044,28.1572665],[85.331727,28.1572546]]]},"properties":{"class":"direct_measurement_support"}},{"type":"Feature","geometry":{"type":"Polygon","coordinates":[[[85.3376181,28.1555934],[85.3376226,28.1553047],[85.3379484,28.1553086],[85.3379439,28.1555974],[85.3376181,28.1555934]]]},"properties":{"class":"direct_measurement_support"}},{"type":"Feature","geometry":{"type":"Polygon","coordinates":[[[85.3291521,28.1552016],[85.3291565,28.1549128],[85.3294823,28.1549168],[85.3294778,28.1552056],[85.3291521,28.1552016]]]},"properties":{"class":"direct_measurement_support"}},{"type":"Feature","geometry":{"type":"Polygon","coordinates":[[[85.3311068,28.1552254],[85.3311113,28.1549367],[85.3314371,28.1549406],[85.3314326,28.1552294],[85.3311068,28.1552254]]]},"properties":{"class":"direct_measurement_support"}},{"type":"Feature","geometry":{"type":"Polygon","coordinates":[[[85.3379484,28.1553086],[85.3379528,28.1550199],[85.3382786,28.1550238],[85.3382742,28.1553126],[85.3379484,28.1553086]]]},"properties":{"class":"direct_measurement_support"}},{"type":"Feature","geometry":{"type":"Polygon","coordinates":[[[85.3359758,28.1564399],[85.3359892,28.1555736],[85.336315,28.1555776],[85.3363194,28.1552888],[85.3366452,28.1552928],[85.3366497,28.1550041],[85.3369755,28.155008],[85.3369799,28.1547193],[85.3376315,28.1547272],[85.337636,28.1544384],[85.3379618,28.1544424],[85.3379528,28.1550199],[85.337627,28.1550159],[85.3376226,28.1553047],[85.336971,28.1552968],[85.3369665,28.1555855],[85.3372923,28.1555895],[85.3372879,28.1558782],[85.3369621,28.1558742],[85.3369576,28.156163],[85.336306,28.1561551],[85.3363016,28.1564438],[85.3359758,28.1564399]]]},"properties":{"class":"direct_measurement_support"}},{"type":"Feature","geometry":{"type":"Polygon","coordinates":[[[85.3311157,28.1546479],[85.3311202,28.1543592],[85.3317718,28.1543671],[85.3317673,28.1546559],[85.3311157,28.1546479]]]},"properties":{"class":"direct_measurement_support"}},{"type":"Feature","geometry":{"type":"Polygon","coordinates":[[[85.3275366,28.1543155],[85.3275411,28.1540267],[85.3281926,28.1540347],[85.3281881,28.1543234],[85.3275366,28.1543155]]]},"properties":{"class":"direct_measurement_support"}},{"type":"Feature","geometry":{"type":"Polygon","coordinates":[[[85.326894,28.15373],[85.3268985,28.1534413],[85.3272243,28.1534453],[85.3272198,28.153734],[85.326894,28.15373]]]},"properties":{"class":"direct_measurement_support"}},{"type":"Feature","geometry":{"type":"Polygon","coordinates":[[[85.3275456,28.153738],[85.32755,28.1534492],[85.3278758,28.1534532],[85.3278713,28.153742],[85.3275456,28.153738]]]},"properties":{"class":"direct_measurement_support"}},{"type":"Feature","geometry":{"type":"Polygon","coordinates":[[[85.3272243,28.1534453],[85.3272332,28.1528678],[85.327559,28.1528718],[85.32755,28.1534492],[85.3272243,28.1534453]]]},"properties":{"class":"direct_measurement_support"}},{"type":"Feature","geometry":{"type":"Polygon","coordinates":[[[85.3301294,28.1552135],[85.3301339,28.1549248],[85.3294823,28.1549168],[85.3294868,28.1546281],[85.329161,28.1546241],[85.3291655,28.1543354],[85.3288397,28.1543314],[85.3288352,28.1546201],[85.3281837,28.1546122],[85.3281881,28.1543234],[85.3285139,28.1543274],[85.3285229,28.1537499],[85.3281971,28.1537459],[85.3282061,28.1531685],[85.3278803,28.1531645],[85.3278893,28.152587],[85.3282151,28.152591],[85.3282106,28.1528797],[85.3285364,28.1528837],[85.3285319,28.1531724],[85.3291834,28.1531804],[85.329179,28.1534691],[85.3295047,28.1534731],[85.3295003,28.1537618],[85.329826,28.1537658],[85.3298171,28.1543433],[85.3304687,28.1543512],[85.3304642,28.15464],[85.33079,28.154644],[85.3307855,28.1549327],[85.3304597,28.1549287],[85.3304552,28.1552175],[85.3301294,28.1552135]]]},"properties":{"class":"direct_measurement_support"}},{"type":"Feature","geometry":{"type":"Polygon","coordinates":[[[85.3265862,28.1525711],[85.3265907,28.1522823],[85.3269164,28.1522863],[85.3269119,28.1525751],[85.3265862,28.1525711]]]},"properties":{"class":"direct_measurement_support"}},{"type":"Feature","geometry":{"type":"Polygon","coordinates":[[[85.3259391,28.1522744],[85.3259436,28.1519856],[85.3265951,28.1519936],[85.3265907,28.1522823],[85.3259391,28.1522744]]]},"properties":{"class":"direct_measurement_support"}},{"type":"Feature","geometry":{"type":"Polygon","coordinates":[[[85.3295227,28.1523181],[85.3295272,28.1520294],[85.3301787,28.1520373],[85.3301742,28.1523261],[85.3295227,28.1523181]]]},"properties":{"class":"direct_measurement_support"}},{"type":"Feature","geometry":{"type":"Polygon","coordinates":[[[85.3311516,28.152338],[85.3311561,28.1520492],[85.3314818,28.1520532],[85.3314774,28.152342],[85.3311516,28.152338]]]},"properties":{"class":"direct_measurement_support"}},{"type":"Feature","geometry":{"type":"Polygon","coordinates":[[[85.3272422,28.1522903],[85.3272557,28.1514241],[85.3275815,28.151428],[85.327577,28.1517168],[85.3279027,28.1517208],[85.3278938,28.1522983],[85.3272422,28.1522903]]]},"properties":{"class":"direct_measurement_support"}},{"type":"Feature","geometry":{"type":"Polygon","coordinates":[[[85.3213872,28.1516411],[85.3213917,28.1513523],[85.3217175,28.1513563],[85.321713,28.1516451],[85.3213872,28.1516411]]]},"properties":{"class":"direct_measurement_support"}},{"type":"Feature","geometry":{"type":"Polygon","coordinates":[[[85.325292,28.1519777],[85.3252965,28.1516889],[85.3249708,28.1516849],[85.3249797,28.1511075],[85.3253055,28.1511114],[85.325301,28.1514002],[85.3256268,28.1514042],[85.3256178,28.1519816],[85.325292,28.1519777]]]},"properties":{"class":"direct_measurement_support"}},{"type":"Feature","geometry":{"type":"Polygon","coordinates":[[[85.3259571,28.1511194],[85.3259616,28.1508307],[85.3262873,28.1508346],[85.3262828,28.1511234],[85.3259571,28.1511194]]]},"properties":{"class":"direct_measurement_support"}},{"type":"Feature","geometry":{"type":"Polygon","coordinates":[[[85.3327984,28.1512028],[85.3328028,28.1509141],[85.3331286,28.1509181],[85.3331241,28.1512068],[85.3327984,28.1512028]]]},"properties":{"class":"direct_measurement_support"}},{"type":"Feature","geometry":{"type":"Polygon","coordinates":[[[85.3161929,28.1504221],[85.3161974,28.1501334],[85.3168489,28.1501414],[85.3168534,28.1498527],[85.3171792,28.1498567],[85.3171837,28.1495679],[85.3175095,28.1495719],[85.3175005,28.1501494],[85.3171747,28.1501454],[85.3171702,28.1504341],[85.3161929,28.1504221]]]},"properties":{"class":"direct_measurement_support"}},{"type":"Feature","geometry":{"type":"Polygon","coordinates":[[[85.3158716,28.1501294],[85.3158806,28.1495519],[85.3162064,28.1495559],[85.3161974,28.1501334],[85.3158716,28.1501294]]]},"properties":{"class":"direct_measurement_support"}},{"type":"Feature","geometry":{"type":"Polygon","coordinates":[[[85.3243417,28.1502333],[85.3243507,28.1496558],[85.3250022,28.1496637],[85.3249977,28.1499525],[85.3246719,28.1499485],[85.3246675,28.1502372],[85.3243417,28.1502333]]]},"properties":{"class":"direct_measurement_support"}},{"type":"Feature","geometry":{"type":"Polygon","coordinates":[[[85.3279252,28.150277],[85.3279342,28.1496996],[85.3282599,28.1497035],[85.328251,28.150281],[85.3279252,28.150277]]]},"properties":{"class":"direct_measurement_support"}},{"type":"Feature","geometry":{"type":"Polygon","coordinates":[[[85.3207627,28.1499006],[85.3207672,28.1496119],[85.321093,28.1496159],[85.3210885,28.1499046],[85.3207627,28.1499006]]]},"properties":{"class":"direct_measurement_support"}},{"type":"Feature","geometry":{"type":"Polygon","coordinates":[[[85.3220568,28.1504941],[85.3220613,28.1502053],[85.3217355,28.1502013],[85.32174,28.1499126],[85.3214142,28.1499086],[85.3214187,28.1496199],[85.321093,28.1496159],[85.3210975,28.1493271],[85.321749,28.1493351],[85.3217445,28.1496239],[85.3220703,28.1496279],[85.3220658,28.1499166],[85.3227173,28.1499246],[85.3227128,28.1502133],[85.3230386,28.1502173],[85.3230341,28.1505061],[85.3220568,28.1504941]]]},"properties":{"class":"direct_measurement_support"}},{"type":"Feature","geometry":{"type":"Polygon","coordinates":[[[85.321102,28.1490384],[85.3211065,28.1487497],[85.3207807,28.1487457],[85.3207852,28.1484569],[85.3214368,28.1484649],[85.3214277,28.1490424],[85.321102,28.1490384]]]},"properties":{"class":"direct_measurement_support"}},{"type":"Feature","geometry":{"type":"Polygon","coordinates":[[[85.3217625,28.1484689],[85.321767,28.1481801],[85.3220928,28.1481841],[85.3220883,28.1484729],[85.3217625,28.1484689]]]},"properties":{"class":"direct_measurement_support"}},{"type":"Feature","geometry":{"type":"Polygon","coordinates":[[[85.3204594,28.1484529],[85.3204685,28.1478754],[85.3207942,28.1478794],[85.3207852,28.1484569],[85.3204594,28.1484529]]]},"properties":{"class":"direct_measurement_support"}},{"type":"Feature","geometry":{"type":"Polygon","coordinates":[[[85.3201202,28.1493152],[85.3201292,28.1487377],[85.3194776,28.1487297],[85.3194822,28.1484409],[85.3185049,28.1484289],[85.3185184,28.1475627],[85.3188441,28.1475667],[85.3188396,28.1478555],[85.3194912,28.1478635],[85.3194867,28.1481522],[85.3201382,28.1481602],[85.3201337,28.1484489],[85.3204594,28.1484529],[85.3204549,28.1487417],[85.3207807,28.1487457],[85.3207762,28.1490344],[85.321102,28.1490384],[85.3210975,28.1493271],[85.3201202,28.1493152]]]},"properties":{"class":"direct_measurement_support"}},{"type":"Feature","geometry":{"type":"Polygon","coordinates":[[[85.3198214,28.1475787],[85.3198305,28.1470012],[85.3201562,28.1470052],[85.3201517,28.147294],[85.3204775,28.147298],[85.320473,28.1475867],[85.3198214,28.1475787]]]},"properties":{"class":"direct_measurement_support"}},{"type":"Feature","geometry":{"type":"Polygon","coordinates":[[[85.3237396,28.1470491],[85.3237441,28.1467604],[85.3240699,28.1467644],[85.3240654,28.1470531],[85.3237396,28.1470491]]]},"properties":{"class":"direct_measurement_support"}},{"type":"Feature","geometry":{"type":"Polygon","coordinates":[[[85.3178804,28.1466885],[85.3178849,28.1463997],[85.3182107,28.1464037],[85.3182062,28.1466925],[85.3178804,28.1466885]]]},"properties":{"class":"direct_measurement_support"}},{"type":"Feature","geometry":{"type":"Polygon","coordinates":[[[85.3230926,28.1467524],[85.3230971,28.1464636],[85.3234228,28.1464676],[85.3234183,28.1467564],[85.3230926,28.1467524]]]},"properties":{"class":"direct_measurement_support"}},{"type":"Feature","geometry":{"type":"Polygon","coordinates":[[[85.3244001,28.1464796],[85.3244046,28.1461908],[85.3247304,28.1461948],[85.3247259,28.1464836],[85.3244001,28.1464796]]]},"properties":{"class":"direct_measurement_support"}},{"type":"Feature","geometry":{"type":"Polygon","coordinates":[[[85.3195182,28.146131],[85.3195227,28.1458423],[85.3201742,28.1458502],[85.3201697,28.146139],[85.3195182,28.146131]]]},"properties":{"class":"direct_measurement_support"}},{"type":"Feature","geometry":{"type":"Polygon","coordinates":[[[85.3247349,28.1459061],[85.3247394,28.1456173],[85.3250651,28.1456213],[85.3250606,28.1459101],[85.3247349,28.1459061]]]},"properties":{"class":"direct_measurement_support"}},{"type":"Feature","geometry":{"type":"Polygon","coordinates":[[[85.3188757,28.1455455],[85.3188802,28.1452568],[85.319206,28.1452608],[85.3192015,28.1455495],[85.3188757,28.1455455]]]},"properties":{"class":"direct_measurement_support"}},{"type":"Feature","geometry":{"type":"Polygon","coordinates":[[[85.3195272,28.1455535],[85.3195317,28.1452648],[85.3201833,28.1452728],[85.3201788,28.1455615],[85.3195272,28.1455535]]]},"properties":{"class":"direct_measurement_support"}},{"type":"Feature","geometry":{"type":"Polygon","coordinates":[[[85.3175411,28.1475507],[85.3175456,28.147262],[85.3172198,28.147258],[85.3172244,28.1469692],[85.3168986,28.1469652],[85.3169076,28.1463877],[85.3165819,28.1463837],[85.3165909,28.1458063],[85.3159394,28.1457982],[85.3159439,28.1455095],[85.3156181,28.1455055],[85.3156272,28.144928],[85.3162787,28.144936],[85.3162742,28.1452248],[85.3165999,28.1452288],[85.3165954,28.1455175],[85.3169212,28.1455215],[85.3169121,28.146099],[85.3172379,28.146103],[85.3172334,28.1463917],[85.3175592,28.1463957],[85.3175546,28.1466845],[85.3178804,28.1466885],[85.3178759,28.1469772],[85.3182016,28.1469812],[85.3181926,28.1475587],[85.3175411,28.1475507]]]},"properties":{"class":"direct_measurement_support"}},{"type":"Feature","geometry":{"type":"Polygon","coordinates":[[[85.3231151,28.1453087],[85.3231196,28.1450199],[85.3234453,28.1450239],[85.3234408,28.1453127],[85.3231151,28.1453087]]]},"properties":{"class":"direct_measurement_support"}},{"type":"Feature","geometry":{"type":"Polygon","coordinates":[[[85.3156046,28.1463717],[85.3156091,28.146083],[85.3146318,28.146071],[85.3146364,28.1457822],[85.3143106,28.1457782],[85.3143151,28.1454895],[85.3139894,28.1454855],[85.3139939,28.1451967],[85.3143196,28.1452007],[85.3143287,28.1446232],[85.3149802,28.1446313],[85.3149666,28.1454975],[85.3156181,28.1455055],[85.3156136,28.1457942],[85.3159394,28.1457982],[85.3159304,28.1463757],[85.3156046,28.1463717]]]},"properties":{"class":"direct_measurement_support"}},{"type":"Feature","geometry":{"type":"Polygon","coordinates":[[[85.3130257,28.1446072],[85.3130302,28.1443185],[85.313356,28.1443225],[85.3133605,28.1440337],[85.314012,28.1440418],[85.3140075,28.1443305],[85.3143332,28.1443345],[85.3143287,28.1446232],[85.3130257,28.1446072]]]},"properties":{"class":"direct_measurement_support"}},{"type":"Feature","geometry":{"type":"Polygon","coordinates":[[[85.3230521,28.1493511],[85.3230566,28.1490623],[85.322405,28.1490544],[85.3224276,28.1476106],[85.321776,28.1476027],[85.321785,28.1470252],[85.3214593,28.1470212],[85.3214548,28.1473099],[85.3208032,28.1473019],[85.3208077,28.1470132],[85.320482,28.1470092],[85.3204865,28.1467205],[85.3208122,28.1467245],[85.3208168,28.1464357],[85.320491,28.1464317],[85.320509,28.1452768],[85.3201833,28.1452728],[85.3202058,28.143829],[85.3205315,28.143833],[85.320536,28.1435443],[85.3208618,28.1435483],[85.3208663,28.1432595],[85.3215178,28.1432675],[85.3215133,28.1435563],[85.3221648,28.1435643],[85.3221603,28.143853],[85.3228118,28.143861],[85.3228073,28.1441497],[85.3231331,28.1441537],[85.3231286,28.1444424],[85.3218255,28.1444265],[85.321821,28.1447152],[85.3221468,28.1447192],[85.3221423,28.145008],[85.3218165,28.145004],[85.321812,28.1452927],[85.3224636,28.1453007],[85.3224726,28.1447232],[85.3231241,28.1447312],[85.3231196,28.1450199],[85.3227938,28.1450159],[85.3227893,28.1453047],[85.3231151,28.1453087],[85.3230971,28.1464636],[85.3227713,28.1464597],[85.3227758,28.1461709],[85.3224501,28.1461669],[85.3224366,28.1470332],[85.3227623,28.1470371],[85.3227668,28.1467484],[85.3230926,28.1467524],[85.3230791,28.1476186],[85.3234048,28.1476226],[85.3234093,28.1473339],[85.3237351,28.1473379],[85.3237306,28.1476266],[85.3240564,28.1476306],[85.3240474,28.1482081],[85.3243732,28.1482121],[85.3243642,28.1487895],[85.3240384,28.1487856],[85.3240339,28.1490743],[85.3237081,28.1490703],[85.3237036,28.1493591],[85.3230521,28.1493511]],[[85.3230611,28.1487736],[85.3240384,28.1487856],[85.3240429,28.1484968],[85.3230656,28.1484849],[85.3230611,28.1487736]],[[85.3230701,28.1481961],[85.3233959,28.1482001],[85.3234003,28.1479114],[85.3230746,28.1479074],[85.3230701,28.1481961]],[[85.3221063,28.1473179],[85.3224321,28.1473219],[85.3224366,28.1470332],[85.3221108,28.1470292],[85.3221063,28.1473179]],[[85.3214728,28.146155],[85.3217985,28.1461589],[85.321803,28.1458702],[85.3214773,28.1458662],[85.3214728,28.146155]],[[85.3208258,28.1458582],[85.3211515,28.1458622],[85.3211605,28.1452847],[85.3208348,28.1452807],[85.3208258,28.1458582]],[[85.3221288,28.1458742],[85.3224546,28.1458782],[85.3224591,28.1455894],[85.3221333,28.1455855],[85.3221288,28.1458742]],[[85.320509,28.1452768],[85.3208348,28.1452807],[85.3208393,28.144992],[85.3205135,28.144988],[85.320509,28.1452768]]]},"properties":{"class":"direct_measurement_support"}},{"type":"Feature","geometry":{"type":"Polygon","coordinates":[[[85.3189208,28.1426581],[85.3189253,28.1423693],[85.3185996,28.1423654],[85.3186041,28.1420766],[85.3192556,28.1420846],[85.3192511,28.1423733],[85.3195768,28.1423773],[85.3195813,28.1420886],[85.3199071,28.1420926],[85.3198981,28.1426701],[85.3189208,28.1426581]]]},"properties":{"class":"direct_measurement_support"}},{"type":"Feature","geometry":{"type":"Polygon","coordinates":[[[85.3176268,28.1420646],[85.3176359,28.1414871],[85.3182874,28.1414951],[85.3182829,28.1417839],[85.3186086,28.1417879],[85.3186041,28.1420766],[85.3176268,28.1420646]]]},"properties":{"class":"direct_measurement_support"}},{"type":"Feature","geometry":{"type":"Polygon","coordinates":[[[85.3169889,28.1411904],[85.3169934,28.1409016],[85.3173192,28.1409056],[85.3173146,28.1411944],[85.3169889,28.1411904]]]},"properties":{"class":"direct_measurement_support"}},{"type":"Feature","geometry":{"type":"Polygon","coordinates":[[[85.3176449,28.1409096],[85.3176494,28.1406209],[85.3179752,28.1406249],[85.3179706,28.1409136],[85.3176449,28.1409096]]]},"properties":{"class":"direct_measurement_support"}},{"type":"Feature","geometry":{"type":"Polygon","coordinates":[[[85.3166677,28.1408976],[85.3166722,28.1406089],[85.3163464,28.1406049],[85.316351,28.1403162],[85.3170024,28.1403242],[85.3169934,28.1409016],[85.3166677,28.1408976]]]},"properties":{"class":"direct_measurement_support"}}]}
