{"type":"FeatureCollection","features":[{"type":"Feature","geometry":{"type":"Polygon","coordinates":[[[85.3588515,28.2501062],[85.3690416,28.2502282],[85.3689042,28.2592515],[85.3587133,28.2591295],[85.3588515,28.2501062]]]},"properties":{"tile_id":"UTM45-339-3126","center_lon":85.363878,"center_lat":28.254679,"west":85.358713,"south":28.250106,"east":85.369042,"north":28.259252,"measured_cells":352,"measured_area_km2":0.0352,"nearest_settlement":"Timure","distance_to_settlement_km":0.63}},{"type":"Feature","geometry":{"type":"Polygon","coordinates":[[[85.3690416,28.2502282],[85.3792317,28.2503494],[85.3790952,28.2593728],[85.3689042,28.2592515],[85.3690416,28.2502282]]]},"properties":{"tile_id":"UTM45-340-3126","center_lon":85.374068,"center_lat":28.254801,"west":85.368904,"south":28.250228,"east":85.379232,"north":28.259373,"measured_cells":66,"measured_area_km2":0.0066,"nearest_settlement":"Timure","distance_to_settlement_km":0.39}},{"type":"Feature","geometry":{"type":"Polygon","coordinates":[[[85.3589897,28.241083],[85.3691789,28.2412049],[85.3690416,28.2502282],[85.3588515,28.2501062],[85.3589897,28.241083]]]},"properties":{"tile_id":"UTM45-339-3125","center_lon":85.364015,"center_lat":28.245656,"west":85.358852,"south":28.241083,"east":85.369179,"north":28.250228,"measured_cells":21,"measured_area_km2":0.0021,"nearest_settlement":"Timure","distance_to_settlement_km":1.25}},{"type":"Feature","geometry":{"type":"Polygon","coordinates":[[[85.3592658,28.2230364],[85.3694533,28.2231583],[85.3693161,28.2321816],[85.3591278,28.2320597],[85.3592658,28.2230364]]]},"properties":{"tile_id":"UTM45-339-3123","center_lon":85.364291,"center_lat":28.227609,"west":85.359128,"south":28.223036,"east":85.369453,"north":28.232182,"measured_cells":31,"measured_area_km2":0.0031,"nearest_settlement":"Timure","distance_to_settlement_km":3.14}},{"type":"Feature","geometry":{"type":"Polygon","coordinates":[[[85.3492172,28.2138906],[85.3594038,28.2140131],[85.3592658,28.2230364],[85.3490784,28.2229138],[85.3492172,28.2138906]]]},"properties":{"tile_id":"UTM45-338-3122","center_lon":85.354241,"center_lat":28.218464,"west":85.349078,"south":28.213891,"east":85.359404,"north":28.223036,"measured_cells":40,"measured_area_km2":0.004,"nearest_settlement":"Timure","distance_to_settlement_km":4.38}},{"type":"Feature","geometry":{"type":"Polygon","coordinates":[[[85.3594038,28.2140131],[85.3695904,28.2141349],[85.3694533,28.2231583],[85.3592658,28.2230364],[85.3594038,28.2140131]]]},"properties":{"tile_id":"UTM45-339-3122","center_lon":85.364428,"center_lat":28.218586,"west":85.359266,"south":28.214013,"east":85.36959,"north":28.223158,"measured_cells":4,"measured_area_km2":0.0004,"nearest_settlement":"Timure","distance_to_settlement_km":4.12}},{"type":"Feature","geometry":{"type":"Polygon","coordinates":[[[85.3493559,28.2048673],[85.3595417,28.2049898],[85.3594038,28.2140131],[85.3492172,28.2138906],[85.3493559,28.2048673]]]},"properties":{"tile_id":"UTM45-338-3121","center_lon":85.35438,"center_lat":28.20944,"west":85.349217,"south":28.204867,"east":85.359542,"north":28.214013,"measured_cells":15,"measured_area_km2":0.0015,"nearest_settlement":"Timure","distance_to_settlement_km":5.32}},{"type":"Feature","geometry":{"type":"Polygon","coordinates":[[[85.3494946,28.195844],[85.3596795,28.1959665],[85.3595417,28.2049898],[85.3493559,28.2048673],[85.3494946,28.195844]]]},"properties":{"tile_id":"UTM45-338-3120","center_lon":85.354518,"center_lat":28.200417,"west":85.349356,"south":28.195844,"east":85.359679,"north":28.20499,"measured_cells":6,"measured_area_km2":0.0006,"nearest_settlement":"Syabrubesi","distance_to_settlement_km":4.55}},{"type":"Feature","geometry":{"type":"Polygon","coordinates":[[[85.3394493,28.1866976],[85.3496333,28.1868207],[85.3494946,28.195844],[85.3393098,28.1957208],[85.3394493,28.1866976]]]},"properties":{"tile_id":"UTM45-337-3119","center_lon":85.344472,"center_lat":28.191271,"west":85.33931,"south":28.186698,"east":85.349633,"north":28.195844,"measured_cells":2083,"measured_area_km2":0.2083,"nearest_settlement":"Syabrubesi","distance_to_settlement_km":3.25}},{"type":"Feature","geometry":{"type":"Polygon","coordinates":[[[85.3294057,28.1775504],[85.3395887,28.1776743],[85.3394493,28.1866976],[85.3292654,28.1865736],[85.3294057,28.1775504]]]},"properties":{"tile_id":"UTM45-336-3118","center_lon":85.334427,"center_lat":28.182124,"west":85.329265,"south":28.17755,"east":85.339589,"north":28.186698,"measured_cells":17,"measured_area_km2":0.0017,"nearest_settlement":"Syabrubesi","distance_to_settlement_km":2.08}},{"type":"Feature","geometry":{"type":"Polygon","coordinates":[[[85.3395887,28.1776743],[85.3497718,28.1777975],[85.3496333,28.1868207],[85.3394493,28.1866976],[85.3395887,28.1776743]]]},"properties":{"tile_id":"UTM45-337-3118","center_lon":85.344611,"center_lat":28.182248,"west":85.339449,"south":28.177674,"east":85.349772,"north":28.186821,"measured_cells":452,"measured_area_km2":0.0452,"nearest_settlement":"Syabrubesi","distance_to_settlement_km":2.32}},{"type":"Feature","geometry":{"type":"Polygon","coordinates":[[[85.3295459,28.1685272],[85.3397281,28.1686511],[85.3395887,28.1776743],[85.3294057,28.1775504],[85.3295459,28.1685272]]]},"properties":{"tile_id":"UTM45-336-3117","center_lon":85.334567,"center_lat":28.173101,"west":85.329406,"south":28.168527,"east":85.339728,"north":28.177674,"measured_cells":162,"measured_area_km2":0.0162,"nearest_settlement":"Syabrubesi","distance_to_settlement_km":1.08}},{"type":"Feature","geometry":{"type":"Polygon","coordinates":[[[85.3397281,28.1686511],[85.3499103,28.1687741],[85.3497718,28.1777975],[85.3395887,28.1776743],[85.3397281,28.1686511]]]},"properties":{"tile_id":"UTM45-337-3117","center_lon":85.34475,"center_lat":28.173224,"west":85.339589,"south":28.168651,"east":85.34991,"north":28.177798,"measured_cells":551,"measured_area_km2":0.0551,"nearest_settlement":"Syabrubesi","distance_to_settlement_km":1.49}},{"type":"Feature","geometry":{"type":"Polygon","coordinates":[[[85.3195048,28.1593794],[85.329686,28.159504],[85.3295459,28.1685272],[85.3193638,28.1684026],[85.3195048,28.1593794]]]},"properties":{"tile_id":"UTM45-335-3116","center_lon":85.324525,"center_lat":28.163953,"west":85.319364,"south":28.159379,"east":85.329686,"north":28.168527,"measured_cells":72,"measured_area_km2":0.0072,"nearest_settlement":"Syabrubesi","distance_to_settlement_km":0.97}},{"type":"Feature","geometry":{"type":"Polygon","coordinates":[[[85.329686,28.159504],[85.3398674,28.1596278],[85.3397281,28.1686511],[85.3295459,28.1685272],[85.329686,28.159504]]]},"properties":{"tile_id":"UTM45-336-3116","center_lon":85.334707,"center_lat":28.164078,"west":85.329546,"south":28.159504,"east":85.339867,"north":28.168651,"measured_cells":987,"measured_area_km2":0.0987,"nearest_settlement":"Syabrubesi","distance_to_settlement_km":0.09}},{"type":"Feature","geometry":{"type":"Polygon","coordinates":[[[85.3398674,28.1596278],[85.3500488,28.1597508],[85.3499103,28.1687741],[85.3397281,28.1686511],[85.3398674,28.1596278]]]},"properties":{"tile_id":"UTM45-337-3116","center_lon":85.344889,"center_lat":28.164201,"west":85.339728,"south":28.159628,"east":85.350049,"north":28.168774,"measured_cells":876,"measured_area_km2":0.0876,"nearest_settlement":"Syabrubesi","distance_to_settlement_km":1.03}},{"type":"Feature","geometry":{"type":"Polygon","coordinates":[[[85.3094654,28.150231],[85.3196457,28.1503562],[85.3195048,28.1593794],[85.3093236,28.1592541],[85.3094654,28.150231]]]},"properties":{"tile_id":"UTM45-334-3115","center_lon":85.314485,"center_lat":28.154805,"west":85.309324,"south":28.150231,"east":85.319646,"north":28.159379,"measured_cells":2,"measured_area_km2":0.0002,"nearest_settlement":"Syabrubesi","distance_to_settlement_km":2.17}},{"type":"Feature","geometry":{"type":"Polygon","coordinates":[[[85.3196457,28.1503562],[85.3298261,28.1504807],[85.329686,28.159504],[85.3195048,28.1593794],[85.3196457,28.1503562]]]},"properties":{"tile_id":"UTM45-335-3115","center_lon":85.324666,"center_lat":28.15493,"west":85.319505,"south":28.150356,"east":85.329826,"north":28.159504,"measured_cells":108,"measured_area_km2":0.0108,"nearest_settlement":"Syabrubesi","distance_to_settlement_km":1.33}},{"type":"Feature","geometry":{"type":"Polygon","coordinates":[[[85.3298261,28.1504807],[85.3400066,28.1506045],[85.3398674,28.1596278],[85.329686,28.159504],[85.3298261,28.1504807]]]},"properties":{"tile_id":"UTM45-336-3115","center_lon":85.334847,"center_lat":28.155054,"west":85.329686,"south":28.150481,"east":85.340007,"north":28.159628,"measured_cells":186,"measured_area_km2":0.0186,"nearest_settlement":"Syabrubesi","distance_to_settlement_km":0.91}},{"type":"Feature","geometry":{"type":"Polygon","coordinates":[[[85.3400066,28.1506045],[85.3501871,28.1507275],[85.3500488,28.1597508],[85.3398674,28.1596278],[85.3400066,28.1506045]]]},"properties":{"tile_id":"UTM45-337-3115","center_lon":85.345027,"center_lat":28.155178,"west":85.339867,"south":28.150605,"east":85.350187,"north":28.159751,"measured_cells":4,"measured_area_km2":0.0004,"nearest_settlement":"Syabrubesi","distance_to_settlement_km":1.38}},{"type":"Feature","geometry":{"type":"Polygon","coordinates":[[[85.3096071,28.1412078],[85.3197866,28.141333],[85.3196457,28.1503562],[85.3094654,28.150231],[85.3096071,28.1412078]]]},"properties":{"tile_id":"UTM45-334-3114","center_lon":85.314626,"center_lat":28.145782,"west":85.309465,"south":28.141208,"east":85.319787,"north":28.150356,"measured_cells":238,"measured_area_km2":0.0238,"nearest_settlement":"Syabrubesi","distance_to_settlement_km":2.74}},{"type":"Feature","geometry":{"type":"Polygon","coordinates":[[[85.3197866,28.141333],[85.3299661,28.1414575],[85.3298261,28.1504807],[85.3196457,28.1503562],[85.3197866,28.141333]]]},"properties":{"tile_id":"UTM45-335-3114","center_lon":85.324806,"center_lat":28.145907,"west":85.319646,"south":28.141333,"east":85.329966,"north":28.150481,"measured_cells":589,"measured_area_km2":0.0589,"nearest_settlement":"Syabrubesi","distance_to_settlement_km":2.14}},{"type":"Feature","geometry":{"type":"Polygon","coordinates":[[[85.3097487,28.1321846],[85.3199274,28.1323098],[85.3197866,28.141333],[85.3096071,28.1412078],[85.3097487,28.1321846]]]},"properties":{"tile_id":"UTM45-334-3113","center_lon":85.314767,"center_lat":28.136759,"west":85.309607,"south":28.132185,"east":85.319927,"north":28.141333,"measured_cells":20,"measured_area_km2":0.002,"nearest_settlement":"Syabrubesi","distance_to_settlement_km":3.51}}]}
