{
  "type": "FeatureCollection",
  "features": [
    {
      "type": "Feature",
      "properties": {
        "pair": "B040001100881410 + B040001100881710"
      },
      "geometry": {
        "type": "Polygon",
        "coordinates": [
          [
            [
              85.2892496099555,
              28.12042517670662
            ],
            [
              85.28929301560125,
              28.119696440624246
            ],
            [
              85.29479125748593,
              28.120603709297214
            ],
            [
              85.30167136310708,
              28.121046853622424
            ],
            [
              85.30521554328962,
              28.121620334148428
            ],
            [
              85.31258822608228,
              28.123746661706488
            ],
            [
              85.3230031440629,
              28.124803575515802
            ],
            [
              85.33377387411109,
              28.127134806373206
            ],
            [
              85.34422528090134,
              28.128406298491093
            ],
            [
              85.35093351607215,
              28.12834549742236
            ],
            [
              85.36078774728624,
              28.127491031184224
            ],
            [
              85.37423861977248,
              28.127466848805803
            ],
            [
              85.37773653255569,
              28.12796728586771
            ],
            [
              85.38862069717027,
              28.13099237142183
            ],
            [
              85.40903240678831,
              28.131999444112225
            ],
            [
              85.41249574105488,
              28.132417880673906
            ],
            [
              85.41322855087391,
              28.132608796118564
            ],
            [
              85.41437355854305,
              28.156862255866866
            ],
            [
              85.41388471476738,
              28.164045266354762
            ],
            [
              85.41294596898251,
              28.17337930660967
            ],
            [
              85.41217747827945,
              28.187781393362037
            ],
            [
              85.4130406845092,
              28.233874116959186
            ],
            [
              85.41383206403975,
              28.2508372704309
            ],
            [
              85.40846511820688,
              28.251509588406734
            ],
            [
              85.40491979164842,
              28.2513862505658
            ],
            [
              85.40125078838794,
              28.250712151894838
            ],
            [
              85.38345003003269,
              28.24971178105374
            ],
            [
              85.36700290922339,
              28.255034496377093
            ],
            [
              85.34847400792016,
              28.25056959111572
            ],
            [
              85.34075889305765,
              28.247207989257213
            ],
            [
              85.33360804556564,
              28.246575940278362
            ],
            [
              85.32624443329208,
              28.244851461617955
            ],
            [
              85.32280578021184,
              28.245210233549717
            ],
            [
              85.31924743584635,
              28.244960418690976
            ],
            [
              85.30464141872335,
              28.24196545241362
            ],
            [
              85.29464121347337,
              28.244741904755102
            ],
            [
              85.29103219933869,
              28.24512806957968
            ],
            [
              85.29083483475897,
              28.242287786445242
            ],
            [
              85.29077444615325,
              28.24022264716999
            ],
            [
              85.28992937782806,
              28.20747774545178
            ],
            [
              85.29006017595566,
              28.19453237667182
            ],
            [
              85.29006404101605,
              28.19418340202817
            ],
            [
              85.29012730425288,
              28.188926116566805
            ],
            [
              85.2902265259336,
              28.184530301715572
            ],
            [
              85.28987072383312,
              28.173730337934536
            ],
            [
              85.29062089528637,
              28.159106585610086
            ],
            [
              85.29060968928235,
              28.158790509984595
            ],
            [
              85.29068381452346,
              28.157401357938316
            ],
            [
              85.29064480890128,
              28.156436126322486
            ],
            [
              85.29064855347357,
              28.156354244389792
            ],
            [
              85.28977634673578,
              28.127310475788935
            ],
            [
              85.28937087873848,
              28.123846190488468
            ],
            [
              85.2892496099555,
              28.12042517670662
            ]
          ]
        ]
      }
    }
  ]
}
